{"type":"FeatureCollection","properties":{"icao24":"a1f4c5","registration":"N225NE","owner_label":"New England Patriots","combined_co2e_central":39203.2,"fuel_co2_kg":32460.3,"contrail_co2e_central":6742.9,"tier":"high"},"features":[{"type":"Feature","geometry":{"type":"LineString","coordinates":[[-15.71432,53.01283,11270.0],[-15.4634,53.00878,11270.0]]},"properties":{"ef_share":0.0,"ef_tj":0.0}},{"type":"Feature","geometry":{"type":"LineString","coordinates":[[-15.4634,53.00878,11270.0],[-15.21201,53.00433,11270.0]]},"properties":{"ef_share":0.0,"ef_tj":0.0}},{"type":"Feature","geometry":{"type":"LineString","coordinates":[[-15.21201,53.00433,11270.0],[-14.96229,52.99347,11270.0]]},"properties":{"ef_share":0.0,"ef_tj":0.0}},{"type":"Feature","geometry":{"type":"LineString","coordinates":[[-14.96229,52.99347,11270.0],[-14.71861,52.96285,11270.0]]},"properties":{"ef_share":0.0,"ef_tj":0.0}},{"type":"Feature","geometry":{"type":"LineString","coordinates":[[-14.71861,52.96285,11270.0],[-14.47596,52.93015,11270.0]]},"properties":{"ef_share":0.0,"ef_tj":0.0}},{"type":"Feature","geometry":{"type":"LineString","coordinates":[[-14.47596,52.93015,11270.0],[-14.23465,52.89706,11270.0]]},"properties":{"ef_share":0.0,"ef_tj":0.0}},{"type":"Feature","geometry":{"type":"LineString","coordinates":[[-14.23465,52.89706,11270.0],[-13.99479,52.86374,11270.0]]},"properties":{"ef_share":0.0,"ef_tj":0.0}},{"type":"Feature","geometry":{"type":"LineString","coordinates":[[-13.99479,52.86374,11270.0],[-13.75606,52.82998,11270.0]]},"properties":{"ef_share":0.0,"ef_tj":0.0}},{"type":"Feature","geometry":{"type":"LineString","coordinates":[[-13.75606,52.82998,11270.0],[-13.51822,52.79587,11270.0]]},"properties":{"ef_share":0.0,"ef_tj":0.0}},{"type":"Feature","geometry":{"type":"LineString","coordinates":[[-13.51822,52.79587,11270.0],[-13.28076,52.76129,11270.0]]},"properties":{"ef_share":0.0,"ef_tj":0.0}},{"type":"Feature","geometry":{"type":"LineString","coordinates":[[-13.28076,52.76129,11270.0],[-13.04465,52.72631,11270.0]]},"properties":{"ef_share":0.0,"ef_tj":0.0}},{"type":"Feature","geometry":{"type":"LineString","coordinates":[[-13.04465,52.72631,11270.0],[-12.80929,52.69098,11270.0]]},"properties":{"ef_share":0.0,"ef_tj":0.0}},{"type":"Feature","geometry":{"type":"LineString","coordinates":[[-12.80929,52.69098,11270.0],[-12.5757,52.65537,11270.0]]},"properties":{"ef_share":0.0,"ef_tj":0.0}},{"type":"Feature","geometry":{"type":"LineString","coordinates":[[-12.5757,52.65537,11270.0],[-12.34334,52.6193,11270.0]]},"properties":{"ef_share":0.0,"ef_tj":0.0}},{"type":"Feature","geometry":{"type":"LineString","coordinates":[[-12.34334,52.6193,11270.0],[-12.11292,52.58313,11270.0]]},"properties":{"ef_share":0.0,"ef_tj":0.0}},{"type":"Feature","geometry":{"type":"LineString","coordinates":[[-12.11292,52.58313,11270.0],[-11.88319,52.54656,11270.0]]},"properties":{"ef_share":0.0,"ef_tj":0.0}},{"type":"Feature","geometry":{"type":"LineString","coordinates":[[-11.88319,52.54656,11270.0],[-11.65514,52.50981,11270.0]]},"properties":{"ef_share":0.0,"ef_tj":0.0}},{"type":"Feature","geometry":{"type":"LineString","coordinates":[[-11.65514,52.50981,11270.0],[-11.42896,52.47293,11270.0]]},"properties":{"ef_share":0.0,"ef_tj":0.0}},{"type":"Feature","geometry":{"type":"LineString","coordinates":[[-11.42896,52.47293,11270.0],[-11.20473,52.43571,11260.0]]},"properties":{"ef_share":0.0,"ef_tj":0.0}},{"type":"Feature","geometry":{"type":"LineString","coordinates":[[-11.20473,52.43571,11260.0],[-10.98113,52.39829,11260.0]]},"properties":{"ef_share":0.0,"ef_tj":0.0}},{"type":"Feature","geometry":{"type":"LineString","coordinates":[[-10.98113,52.39829,11260.0],[-10.75707,52.36006,11270.0]]},"properties":{"ef_share":0.993,"ef_tj":11.668949}},{"type":"Feature","geometry":{"type":"LineString","coordinates":[[-10.75707,52.36006,11270.0],[-10.53394,52.32158,11600.0]]},"properties":{"ef_share":1.0,"ef_tj":11.747234}},{"type":"Feature","geometry":{"type":"LineString","coordinates":[[-10.53394,52.32158,11600.0],[-10.3138,52.28325,11870.0]]},"properties":{"ef_share":0.018,"ef_tj":0.208511}},{"type":"Feature","geometry":{"type":"LineString","coordinates":[[-10.3138,52.28325,11870.0],[-10.09316,52.24423,11880.0]]},"properties":{"ef_share":0.002,"ef_tj":0.018068}},{"type":"Feature","geometry":{"type":"LineString","coordinates":[[-10.09316,52.24423,11880.0],[-9.87375,52.20498,11870.0]]},"properties":{"ef_share":0.002,"ef_tj":0.029354}},{"type":"Feature","geometry":{"type":"LineString","coordinates":[[-9.87375,52.20498,11870.0],[-9.65627,52.16573,11870.0]]},"properties":{"ef_share":0.002,"ef_tj":0.020129}},{"type":"Feature","geometry":{"type":"LineString","coordinates":[[-9.65627,52.16573,11870.0],[-9.43941,52.12594,11880.0]]},"properties":{"ef_share":0.001,"ef_tj":0.008829}},{"type":"Feature","geometry":{"type":"LineString","coordinates":[[-9.43941,52.12594,11880.0],[-9.22125,52.08546,11880.0]]},"properties":{"ef_share":0.0,"ef_tj":0.003995}},{"type":"Feature","geometry":{"type":"LineString","coordinates":[[-9.22125,52.08546,11880.0],[-9.00158,52.04719,11880.0]]},"properties":{"ef_share":0.0,"ef_tj":0.00126}},{"type":"Feature","geometry":{"type":"LineString","coordinates":[[-9.00158,52.04719,11880.0],[-8.77391,52.03252,11880.0]]},"properties":{"ef_share":0.0,"ef_tj":-0.001841}},{"type":"Feature","geometry":{"type":"LineString","coordinates":[[-8.77391,52.03252,11880.0],[-8.54477,52.02422,11870.0]]},"properties":{"ef_share":0.0,"ef_tj":-0.002341}},{"type":"Feature","geometry":{"type":"LineString","coordinates":[[-8.54477,52.02422,11870.0],[-8.31512,52.01583,11870.0]]},"properties":{"ef_share":0.0,"ef_tj":-0.000826}},{"type":"Feature","geometry":{"type":"LineString","coordinates":[[-8.31512,52.01583,11870.0],[-8.08569,52.00722,11880.0]]},"properties":{"ef_share":0.0,"ef_tj":-0.000942}},{"type":"Feature","geometry":{"type":"LineString","coordinates":[[-8.08569,52.00722,11880.0],[-7.85615,51.99838,11880.0]]},"properties":{"ef_share":0.0,"ef_tj":-0.001055}},{"type":"Feature","geometry":{"type":"LineString","coordinates":[[-7.85615,51.99838,11880.0],[-7.62604,51.98906,11870.0]]},"properties":{"ef_share":0.0,"ef_tj":-0.000944}},{"type":"Feature","geometry":{"type":"LineString","coordinates":[[-7.62604,51.98906,11870.0],[-7.39547,51.9791,11880.0]]},"properties":{"ef_share":0.0,"ef_tj":0.0}},{"type":"Feature","geometry":{"type":"LineString","coordinates":[[-7.39547,51.9791,11880.0],[-7.16451,51.96868,11880.0]]},"properties":{"ef_share":0.0,"ef_tj":0.0}},{"type":"Feature","geometry":{"type":"LineString","coordinates":[[-7.16451,51.96868,11880.0],[-6.9327,51.95774,11870.0]]},"properties":{"ef_share":0.0,"ef_tj":0.0}},{"type":"Feature","geometry":{"type":"LineString","coordinates":[[-6.9327,51.95774,11870.0],[-6.7017,51.94651,11880.0]]},"properties":{"ef_share":0.0,"ef_tj":0.0}},{"type":"Feature","geometry":{"type":"LineString","coordinates":[[-6.7017,51.94651,11880.0],[-6.47107,51.93469,11870.0]]},"properties":{"ef_share":0.0,"ef_tj":0.0}},{"type":"Feature","geometry":{"type":"LineString","coordinates":[[-6.47107,51.93469,11870.0],[-6.24033,51.92254,11880.0]]},"properties":{"ef_share":0.0,"ef_tj":0.0}},{"type":"Feature","geometry":{"type":"LineString","coordinates":[[-6.24033,51.92254,11880.0],[-6.01013,51.90988,11880.0]]},"properties":{"ef_share":0.0,"ef_tj":0.0}},{"type":"Feature","geometry":{"type":"LineString","coordinates":[[-6.01013,51.90988,11880.0],[-5.78049,51.8968,11880.0]]},"properties":{"ef_share":0.0,"ef_tj":0.0}},{"type":"Feature","geometry":{"type":"LineString","coordinates":[[-5.78049,51.8968,11880.0],[-5.55149,51.88332,11870.0]]},"properties":{"ef_share":0.0,"ef_tj":0.0}},{"type":"Feature","geometry":{"type":"LineString","coordinates":[[-5.55149,51.88332,11870.0],[-5.32222,51.86934,11880.0]]},"properties":{"ef_share":0.0,"ef_tj":0.0}},{"type":"Feature","geometry":{"type":"LineString","coordinates":[[-5.32222,51.86934,11880.0],[-5.09282,51.85489,11880.0]]},"properties":{"ef_share":0.0,"ef_tj":0.0}},{"type":"Feature","geometry":{"type":"LineString","coordinates":[[-5.09282,51.85489,11880.0],[-4.86346,51.84,11870.0]]},"properties":{"ef_share":0.0,"ef_tj":0.0}},{"type":"Feature","geometry":{"type":"LineString","coordinates":[[-4.86346,51.84,11870.0],[-4.63413,51.82472,11870.0]]},"properties":{"ef_share":0.0,"ef_tj":0.0}},{"type":"Feature","geometry":{"type":"LineString","coordinates":[[-4.63413,51.82472,11870.0],[-4.40497,51.80893,11880.0]]},"properties":{"ef_share":0.0,"ef_tj":0.0}},{"type":"Feature","geometry":{"type":"LineString","coordinates":[[-4.40497,51.80893,11880.0],[-4.17585,51.7927,11880.0]]},"properties":{"ef_share":0.0,"ef_tj":0.0}},{"type":"Feature","geometry":{"type":"LineString","coordinates":[[-4.17585,51.7927,11880.0],[-3.94746,51.77607,11880.0]]},"properties":{"ef_share":0.0,"ef_tj":0.0}},{"type":"Feature","geometry":{"type":"LineString","coordinates":[[-3.94746,51.77607,11880.0],[-3.71932,51.75903,11880.0]]},"properties":{"ef_share":0.0,"ef_tj":0.0}},{"type":"Feature","geometry":{"type":"LineString","coordinates":[[-3.71932,51.75903,11880.0],[-3.49194,51.7415,11870.0]]},"properties":{"ef_share":0.0,"ef_tj":0.0}},{"type":"Feature","geometry":{"type":"LineString","coordinates":[[-3.49194,51.7415,11870.0],[-3.26518,51.72361,11880.0]]},"properties":{"ef_share":0.0,"ef_tj":0.0}},{"type":"Feature","geometry":{"type":"LineString","coordinates":[[-3.26518,51.72361,11880.0],[-3.03906,51.7054,11870.0]]},"properties":{"ef_share":0.0,"ef_tj":0.0}},{"type":"Feature","geometry":{"type":"LineString","coordinates":[[-3.03906,51.7054,11870.0],[-2.81505,51.6868,11870.0]]},"properties":{"ef_share":0.0,"ef_tj":0.0}},{"type":"Feature","geometry":{"type":"LineString","coordinates":[[-2.81505,51.6868,11870.0],[-2.59309,51.66803,11880.0]]},"properties":{"ef_share":0.0,"ef_tj":0.0}},{"type":"Feature","geometry":{"type":"LineString","coordinates":[[-2.59309,51.66803,11880.0],[-2.37275,51.64885,11880.0]]},"properties":{"ef_share":0.0,"ef_tj":0.0}},{"type":"Feature","geometry":{"type":"LineString","coordinates":[[-2.37275,51.64885,11880.0],[-2.15354,51.6294,11880.0]]},"properties":{"ef_share":0.0,"ef_tj":0.0}},{"type":"Feature","geometry":{"type":"LineString","coordinates":[[-2.15354,51.6294,11880.0],[-1.93513,51.60961,11880.0]]},"properties":{"ef_share":0.0,"ef_tj":0.0}},{"type":"Feature","geometry":{"type":"LineString","coordinates":[[-1.93513,51.60961,11880.0],[-1.71775,51.58958,11880.0]]},"properties":{"ef_share":0.0,"ef_tj":0.0}},{"type":"Feature","geometry":{"type":"LineString","coordinates":[[-1.71775,51.58958,11880.0],[-1.50089,51.56907,11880.0]]},"properties":{"ef_share":0.0,"ef_tj":0.0}},{"type":"Feature","geometry":{"type":"LineString","coordinates":[[-1.50089,51.56907,11880.0],[-1.2848,51.54821,11870.0]]},"properties":{"ef_share":0.0,"ef_tj":0.0}},{"type":"Feature","geometry":{"type":"LineString","coordinates":[[-1.2848,51.54821,11870.0],[-1.06986,51.52718,11880.0]]},"properties":{"ef_share":0.0,"ef_tj":0.0}},{"type":"Feature","geometry":{"type":"LineString","coordinates":[[-1.06986,51.52718,11880.0],[-0.85626,51.50557,11880.0]]},"properties":{"ef_share":0.0,"ef_tj":0.0}},{"type":"Feature","geometry":{"type":"LineString","coordinates":[[-0.85626,51.50557,11880.0],[-0.64357,51.48394,11880.0]]},"properties":{"ef_share":0.0,"ef_tj":0.0}},{"type":"Feature","geometry":{"type":"LineString","coordinates":[[-0.64357,51.48394,11880.0],[-0.43124,51.46197,11880.0]]},"properties":{"ef_share":0.0,"ef_tj":0.0}},{"type":"Feature","geometry":{"type":"LineString","coordinates":[[-0.43124,51.46197,11880.0],[-0.21915,51.43929,11880.0]]},"properties":{"ef_share":0.0,"ef_tj":0.0}},{"type":"Feature","geometry":{"type":"LineString","coordinates":[[-0.21915,51.43929,11880.0],[-0.00727,51.41644,11880.0]]},"properties":{"ef_share":0.0,"ef_tj":0.0}},{"type":"Feature","geometry":{"type":"LineString","coordinates":[[-0.00727,51.41644,11880.0],[0.2045,51.39323,11880.0]]},"properties":{"ef_share":0.0,"ef_tj":0.0}},{"type":"Feature","geometry":{"type":"LineString","coordinates":[[0.2045,51.39323,11880.0],[0.4161,51.3696,11880.0]]},"properties":{"ef_share":0.0,"ef_tj":0.0}},{"type":"Feature","geometry":{"type":"LineString","coordinates":[[0.4161,51.3696,11880.0],[0.62753,51.34553,11870.0]]},"properties":{"ef_share":0.0,"ef_tj":0.0}},{"type":"Feature","geometry":{"type":"LineString","coordinates":[[0.62753,51.34553,11870.0],[0.83917,51.3211,11870.0]]},"properties":{"ef_share":0.0,"ef_tj":0.0}},{"type":"Feature","geometry":{"type":"LineString","coordinates":[[0.83917,51.3211,11870.0],[1.05092,51.29619,11880.0]]},"properties":{"ef_share":0.0,"ef_tj":0.0}},{"type":"Feature","geometry":{"type":"LineString","coordinates":[[1.05092,51.29619,11880.0],[1.26254,51.26761,11880.0]]},"properties":{"ef_share":0.0,"ef_tj":0.0}},{"type":"Feature","geometry":{"type":"LineString","coordinates":[[1.26254,51.26761,11880.0],[1.47302,51.23521,11880.0]]},"properties":{"ef_share":0.0,"ef_tj":0.0}},{"type":"Feature","geometry":{"type":"LineString","coordinates":[[1.47302,51.23521,11880.0],[1.68339,51.20329,11880.0]]},"properties":{"ef_share":0.0,"ef_tj":0.0}},{"type":"Feature","geometry":{"type":"LineString","coordinates":[[1.68339,51.20329,11880.0],[1.89278,51.17152,11880.0]]},"properties":{"ef_share":0.0,"ef_tj":0.0}},{"type":"Feature","geometry":{"type":"LineString","coordinates":[[1.89278,51.17152,11880.0],[2.10106,51.13933,11880.0]]},"properties":{"ef_share":0.0,"ef_tj":0.0}},{"type":"Feature","geometry":{"type":"LineString","coordinates":[[2.10106,51.13933,11880.0],[2.30848,51.10647,11880.0]]},"properties":{"ef_share":0.0,"ef_tj":0.0}},{"type":"Feature","geometry":{"type":"LineString","coordinates":[[2.30848,51.10647,11880.0],[2.51262,51.07237,11540.0]]},"properties":{"ef_share":0.0,"ef_tj":0.0}},{"type":"Feature","geometry":{"type":"LineString","coordinates":[[2.51262,51.07237,11540.0],[2.72455,51.03383,11270.0]]},"properties":{"ef_share":0.0,"ef_tj":0.0}},{"type":"Feature","geometry":{"type":"LineString","coordinates":[[2.72455,51.03383,11270.0],[2.93875,50.99445,11140.0]]},"properties":{"ef_share":0.0,"ef_tj":0.0}},{"type":"Feature","geometry":{"type":"LineString","coordinates":[[2.93875,50.99445,11140.0],[3.15048,50.95458,10970.0]]},"properties":{"ef_share":0.0,"ef_tj":0.0}},{"type":"Feature","geometry":{"type":"LineString","coordinates":[[3.15048,50.95458,10970.0],[3.36091,50.91453,10950.0]]},"properties":{"ef_share":0.0,"ef_tj":0.0}},{"type":"Feature","geometry":{"type":"LineString","coordinates":[[3.36091,50.91453,10950.0],[3.57064,50.87369,10660.0]]},"properties":{"ef_share":0.0,"ef_tj":0.0}},{"type":"Feature","geometry":{"type":"LineString","coordinates":[[3.57064,50.87369,10660.0],[3.78105,50.83141,10660.0]]},"properties":{"ef_share":0.0,"ef_tj":0.0}},{"type":"Feature","geometry":{"type":"LineString","coordinates":[[3.78105,50.83141,10660.0],[3.99049,50.7885,10660.0]]},"properties":{"ef_share":0.0,"ef_tj":0.0}},{"type":"Feature","geometry":{"type":"LineString","coordinates":[[3.99049,50.7885,10660.0],[4.19884,50.74531,10660.0]]},"properties":{"ef_share":0.0,"ef_tj":0.0}},{"type":"Feature","geometry":{"type":"LineString","coordinates":[[4.19884,50.74531,10660.0],[4.40578,50.70157,10660.0]]},"properties":{"ef_share":0.0,"ef_tj":0.0}},{"type":"Feature","geometry":{"type":"LineString","coordinates":[[4.40578,50.70157,10660.0],[4.6112,50.65749,10660.0]]},"properties":{"ef_share":0.0,"ef_tj":0.0}},{"type":"Feature","geometry":{"type":"LineString","coordinates":[[4.6112,50.65749,10660.0],[4.81497,50.61387,10660.0]]},"properties":{"ef_share":0.0,"ef_tj":0.0}},{"type":"Feature","geometry":{"type":"LineString","coordinates":[[4.81497,50.61387,10660.0],[5.01732,50.56954,10650.0]]},"properties":{"ef_share":0.0,"ef_tj":0.0}},{"type":"Feature","geometry":{"type":"LineString","coordinates":[[5.01732,50.56954,10650.0],[5.21889,50.52419,10660.0]]},"properties":{"ef_share":0.0,"ef_tj":0.0}},{"type":"Feature","geometry":{"type":"LineString","coordinates":[[5.21889,50.52419,10660.0],[5.41834,50.46924,10660.0]]},"properties":{"ef_share":0.0,"ef_tj":0.0}},{"type":"Feature","geometry":{"type":"LineString","coordinates":[[5.41834,50.46924,10660.0],[5.61731,50.40943,10650.0]]},"properties":{"ef_share":0.0,"ef_tj":0.0}},{"type":"Feature","geometry":{"type":"LineString","coordinates":[[5.61731,50.40943,10650.0],[5.81796,50.34776,10180.0]]},"properties":{"ef_share":0.0,"ef_tj":0.0}},{"type":"Feature","geometry":{"type":"LineString","coordinates":[[5.81796,50.34776,10180.0],[6.01859,50.28565,9670.0]]},"properties":{"ef_share":0.0,"ef_tj":0.0}},{"type":"Feature","geometry":{"type":"LineString","coordinates":[[6.01859,50.28565,9670.0],[6.21737,50.22336,9060.0]]},"properties":{"ef_share":0.0,"ef_tj":0.0}},{"type":"Feature","geometry":{"type":"LineString","coordinates":[[6.21737,50.22336,9060.0],[6.40124,50.16595,8200.0]]},"properties":{"ef_share":0.0,"ef_tj":0.0}},{"type":"Feature","geometry":{"type":"LineString","coordinates":[[6.40124,50.16595,8200.0],[6.57416,50.11206,7360.0]]},"properties":{"ef_share":0.0,"ef_tj":0.0}},{"type":"Feature","geometry":{"type":"LineString","coordinates":[[6.57416,50.11206,7360.0],[6.73619,50.06054,6510.0]]},"properties":{"ef_share":0.0,"ef_tj":0.0}},{"type":"Feature","geometry":{"type":"LineString","coordinates":[[6.73619,50.06054,6510.0],[6.88863,50.01149,5710.0]]},"properties":{"ef_share":0.0,"ef_tj":0.0}},{"type":"Feature","geometry":{"type":"LineString","coordinates":[[6.88863,50.01149,5710.0],[7.03056,49.96588,4960.0]]},"properties":{"ef_share":0.0,"ef_tj":0.0}},{"type":"Feature","geometry":{"type":"LineString","coordinates":[[7.03056,49.96588,4960.0],[7.16394,49.92284,4170.0]]},"properties":{"ef_share":0.0,"ef_tj":0.0}},{"type":"Feature","geometry":{"type":"LineString","coordinates":[[7.16394,49.92284,4170.0],[7.29238,49.88116,3460.0]]},"properties":{"ef_share":0.0,"ef_tj":0.0}},{"type":"Feature","geometry":{"type":"LineString","coordinates":[[7.29238,49.88116,3460.0],[7.41353,49.84149,3090.0]]},"properties":{"ef_share":0.0,"ef_tj":0.0}},{"type":"Feature","geometry":{"type":"LineString","coordinates":[[7.41353,49.84149,3090.0],[7.52443,49.80501,2560.0]]},"properties":{"ef_share":0.0,"ef_tj":0.0}},{"type":"Feature","geometry":{"type":"LineString","coordinates":[[7.52443,49.80501,2560.0],[7.62658,49.76493,2010.0]]},"properties":{"ef_share":0.0,"ef_tj":0.0}},{"type":"Feature","geometry":{"type":"LineString","coordinates":[[7.62658,49.76493,2010.0],[7.70844,49.71272,1830.0]]},"properties":{"ef_share":0.0,"ef_tj":0.0}},{"type":"Feature","geometry":{"type":"LineString","coordinates":[[7.70844,49.71272,1830.0],[7.78836,49.6613,1820.0]]},"properties":{"ef_share":0.0,"ef_tj":0.0}},{"type":"Feature","geometry":{"type":"LineString","coordinates":[[7.78836,49.6613,1820.0],[7.86589,49.61135,1580.0]]},"properties":{"ef_share":0.0,"ef_tj":0.0}},{"type":"Feature","geometry":{"type":"LineString","coordinates":[[7.86589,49.61135,1580.0],[7.93584,49.56415,1300.0]]},"properties":{"ef_share":0.0,"ef_tj":0.0}},{"type":"Feature","geometry":{"type":"LineString","coordinates":[[7.93584,49.56415,1300.0],[7.94213,49.50706,1100.0]]},"properties":{"ef_share":0.0,"ef_tj":0.0}},{"type":"Feature","geometry":{"type":"LineString","coordinates":[[7.94213,49.50706,1100.0],[7.9102,49.46722,1110.0]]},"properties":{"ef_share":0.0,"ef_tj":0.0}},{"type":"Feature","geometry":{"type":"LineString","coordinates":[[7.9102,49.46722,1110.0],[7.84683,49.45599,1050.0]]},"properties":{"ef_share":0.0,"ef_tj":0.0}},{"type":"Feature","geometry":{"type":"LineString","coordinates":[[7.84683,49.45599,1050.0],[7.78749,49.45081,810.0]]},"properties":{"ef_share":0.0,"ef_tj":0.0}},{"type":"Feature","geometry":{"type":"LineString","coordinates":[[7.78749,49.45081,810.0],[7.7341,49.44621,580.0]]},"properties":{"ef_share":0.0,"ef_tj":0.0}},{"type":"Feature","geometry":{"type":"LineString","coordinates":[[7.7341,49.44621,580.0],[7.68181,49.44163,380.0]]},"properties":{"ef_share":0.0,"ef_tj":0.0}}]}