{"type":"FeatureCollection","properties":{"icao24":"a1f4c5","registration":"N225NE","owner_label":"New England Patriots","combined_co2e_central":84155.9,"fuel_co2_kg":84166.0,"contrail_co2e_central":-10.2,"tier":"high"},"features":[{"type":"Feature","geometry":{"type":"LineString","coordinates":[[-76.64039,39.12895,810.0],[-76.70117,39.10958,2030.0]]},"properties":{"ef_share":0.0,"ef_tj":0.0}},{"type":"Feature","geometry":{"type":"LineString","coordinates":[[-76.70117,39.10958,2030.0],[-76.73662,39.17333,2660.0]]},"properties":{"ef_share":0.0,"ef_tj":0.0}},{"type":"Feature","geometry":{"type":"LineString","coordinates":[[-76.73662,39.17333,2660.0],[-76.82049,39.19817,3340.0]]},"properties":{"ef_share":0.0,"ef_tj":0.0}},{"type":"Feature","geometry":{"type":"LineString","coordinates":[[-76.82049,39.19817,3340.0],[-76.9298,39.21453,4100.0]]},"properties":{"ef_share":0.0,"ef_tj":0.0}},{"type":"Feature","geometry":{"type":"LineString","coordinates":[[-76.9298,39.21453,4100.0],[-77.05668,39.22147,5220.0]]},"properties":{"ef_share":0.0,"ef_tj":0.0}},{"type":"Feature","geometry":{"type":"LineString","coordinates":[[-77.05668,39.22147,5220.0],[-77.18016,39.19103,6250.0]]},"properties":{"ef_share":0.0,"ef_tj":0.0}},{"type":"Feature","geometry":{"type":"LineString","coordinates":[[-77.18016,39.19103,6250.0],[-77.28089,39.11517,6950.0]]},"properties":{"ef_share":0.0,"ef_tj":0.0}},{"type":"Feature","geometry":{"type":"LineString","coordinates":[[-77.28089,39.11517,6950.0],[-77.38868,39.04518,7080.0]]},"properties":{"ef_share":0.0,"ef_tj":0.0}},{"type":"Feature","geometry":{"type":"LineString","coordinates":[[-77.38868,39.04518,7080.0],[-77.52172,39.01222,7850.0]]},"properties":{"ef_share":0.0,"ef_tj":0.0}},{"type":"Feature","geometry":{"type":"LineString","coordinates":[[-77.52172,39.01222,7850.0],[-77.66115,38.98079,8220.0]]},"properties":{"ef_share":0.0,"ef_tj":0.0}},{"type":"Feature","geometry":{"type":"LineString","coordinates":[[-77.66115,38.98079,8220.0],[-77.80028,38.94887,8250.0]]},"properties":{"ef_share":0.0,"ef_tj":0.0}},{"type":"Feature","geometry":{"type":"LineString","coordinates":[[-77.80028,38.94887,8250.0],[-77.94151,38.91615,8920.0]]},"properties":{"ef_share":0.0,"ef_tj":0.0}},{"type":"Feature","geometry":{"type":"LineString","coordinates":[[-77.94151,38.91615,8920.0],[-78.08647,38.8823,9720.0]]},"properties":{"ef_share":0.0,"ef_tj":0.0}},{"type":"Feature","geometry":{"type":"LineString","coordinates":[[-78.08647,38.8823,9720.0],[-78.22979,38.85551,10500.0]]},"properties":{"ef_share":0.0,"ef_tj":0.0}},{"type":"Feature","geometry":{"type":"LineString","coordinates":[[-78.22979,38.85551,10500.0],[-78.36468,38.85245,11350.0]]},"properties":{"ef_share":0.0,"ef_tj":0.0}},{"type":"Feature","geometry":{"type":"LineString","coordinates":[[-78.36468,38.85245,11350.0],[-78.49885,38.85115,11690.0]]},"properties":{"ef_share":0.0,"ef_tj":0.0}},{"type":"Feature","geometry":{"type":"LineString","coordinates":[[-78.49885,38.85115,11690.0],[-78.63742,38.84941,11890.0]]},"properties":{"ef_share":0.0,"ef_tj":0.0}},{"type":"Feature","geometry":{"type":"LineString","coordinates":[[-78.63742,38.84941,11890.0],[-78.77832,38.84739,12190.0]]},"properties":{"ef_share":0.0,"ef_tj":0.0}},{"type":"Feature","geometry":{"type":"LineString","coordinates":[[-78.77832,38.84739,12190.0],[-78.9156,38.84516,12180.0]]},"properties":{"ef_share":0.0,"ef_tj":0.0}},{"type":"Feature","geometry":{"type":"LineString","coordinates":[[-78.9156,38.84516,12180.0],[-79.04927,38.84305,12180.0]]},"properties":{"ef_share":0.0,"ef_tj":0.0}},{"type":"Feature","geometry":{"type":"LineString","coordinates":[[-79.04927,38.84305,12180.0],[-79.18164,38.84075,12180.0]]},"properties":{"ef_share":0.0,"ef_tj":0.0}},{"type":"Feature","geometry":{"type":"LineString","coordinates":[[-79.18164,38.84075,12180.0],[-79.31361,38.83824,12180.0]]},"properties":{"ef_share":0.0,"ef_tj":0.0}},{"type":"Feature","geometry":{"type":"LineString","coordinates":[[-79.31361,38.83824,12180.0],[-79.44631,38.83561,12180.0]]},"properties":{"ef_share":0.0,"ef_tj":0.0}},{"type":"Feature","geometry":{"type":"LineString","coordinates":[[-79.44631,38.83561,12180.0],[-79.57761,38.83276,12180.0]]},"properties":{"ef_share":0.0,"ef_tj":0.0}},{"type":"Feature","geometry":{"type":"LineString","coordinates":[[-79.57761,38.83276,12180.0],[-79.70896,38.82991,12180.0]]},"properties":{"ef_share":0.0,"ef_tj":0.0}},{"type":"Feature","geometry":{"type":"LineString","coordinates":[[-79.70896,38.82991,12180.0],[-79.83999,38.82688,12180.0]]},"properties":{"ef_share":0.0,"ef_tj":0.0}},{"type":"Feature","geometry":{"type":"LineString","coordinates":[[-79.83999,38.82688,12180.0],[-79.97066,38.82365,12180.0]]},"properties":{"ef_share":0.0,"ef_tj":0.0}},{"type":"Feature","geometry":{"type":"LineString","coordinates":[[-79.97066,38.82365,12180.0],[-80.10095,38.82033,12180.0]]},"properties":{"ef_share":0.0,"ef_tj":0.0}},{"type":"Feature","geometry":{"type":"LineString","coordinates":[[-80.10095,38.82033,12180.0],[-80.23101,38.81685,12180.0]]},"properties":{"ef_share":0.0,"ef_tj":0.0}},{"type":"Feature","geometry":{"type":"LineString","coordinates":[[-80.23101,38.81685,12180.0],[-80.36063,38.81331,12180.0]]},"properties":{"ef_share":0.0,"ef_tj":0.0}},{"type":"Feature","geometry":{"type":"LineString","coordinates":[[-80.36063,38.81331,12180.0],[-80.49061,38.80946,12180.0]]},"properties":{"ef_share":0.0,"ef_tj":0.0}},{"type":"Feature","geometry":{"type":"LineString","coordinates":[[-80.49061,38.80946,12180.0],[-80.61996,38.80563,12180.0]]},"properties":{"ef_share":0.0,"ef_tj":0.0}},{"type":"Feature","geometry":{"type":"LineString","coordinates":[[-80.61996,38.80563,12180.0],[-80.74908,38.80157,12180.0]]},"properties":{"ef_share":0.0,"ef_tj":0.0}},{"type":"Feature","geometry":{"type":"LineString","coordinates":[[-80.74908,38.80157,12180.0],[-80.87749,38.79741,12180.0]]},"properties":{"ef_share":0.0,"ef_tj":0.0}},{"type":"Feature","geometry":{"type":"LineString","coordinates":[[-80.87749,38.79741,12180.0],[-81.00498,38.79314,12180.0]]},"properties":{"ef_share":0.0,"ef_tj":0.0}},{"type":"Feature","geometry":{"type":"LineString","coordinates":[[-81.00498,38.79314,12180.0],[-81.13361,38.78881,12180.0]]},"properties":{"ef_share":0.0,"ef_tj":0.0}},{"type":"Feature","geometry":{"type":"LineString","coordinates":[[-81.13361,38.78881,12180.0],[-81.26212,38.78424,12180.0]]},"properties":{"ef_share":0.0,"ef_tj":0.0}},{"type":"Feature","geometry":{"type":"LineString","coordinates":[[-81.26212,38.78424,12180.0],[-81.39023,38.77943,12180.0]]},"properties":{"ef_share":0.0,"ef_tj":0.0}},{"type":"Feature","geometry":{"type":"LineString","coordinates":[[-81.39023,38.77943,12180.0],[-81.51794,38.77465,12180.0]]},"properties":{"ef_share":0.0,"ef_tj":0.0}},{"type":"Feature","geometry":{"type":"LineString","coordinates":[[-81.51794,38.77465,12180.0],[-81.64566,38.76955,12180.0]]},"properties":{"ef_share":0.0,"ef_tj":0.0}},{"type":"Feature","geometry":{"type":"LineString","coordinates":[[-81.64566,38.76955,12180.0],[-81.77316,38.76472,12180.0]]},"properties":{"ef_share":0.0,"ef_tj":0.0}},{"type":"Feature","geometry":{"type":"LineString","coordinates":[[-81.77316,38.76472,12180.0],[-81.90067,38.75938,12180.0]]},"properties":{"ef_share":0.0,"ef_tj":0.0}},{"type":"Feature","geometry":{"type":"LineString","coordinates":[[-81.90067,38.75938,12180.0],[-82.02808,38.75403,12180.0]]},"properties":{"ef_share":0.0,"ef_tj":0.0}},{"type":"Feature","geometry":{"type":"LineString","coordinates":[[-82.02808,38.75403,12180.0],[-82.15621,38.74921,12180.0]]},"properties":{"ef_share":0.0,"ef_tj":0.0}},{"type":"Feature","geometry":{"type":"LineString","coordinates":[[-82.15621,38.74921,12180.0],[-82.28396,38.74453,12180.0]]},"properties":{"ef_share":0.0,"ef_tj":0.0}},{"type":"Feature","geometry":{"type":"LineString","coordinates":[[-82.28396,38.74453,12180.0],[-82.41238,38.73929,12180.0]]},"properties":{"ef_share":0.0,"ef_tj":0.0}},{"type":"Feature","geometry":{"type":"LineString","coordinates":[[-82.41238,38.73929,12180.0],[-82.54156,38.73404,12180.0]]},"properties":{"ef_share":0.0,"ef_tj":0.0}},{"type":"Feature","geometry":{"type":"LineString","coordinates":[[-82.54156,38.73404,12180.0],[-82.67057,38.72873,12180.0]]},"properties":{"ef_share":0.0,"ef_tj":0.0}},{"type":"Feature","geometry":{"type":"LineString","coordinates":[[-82.67057,38.72873,12180.0],[-82.80021,38.72324,12180.0]]},"properties":{"ef_share":0.0,"ef_tj":0.0}},{"type":"Feature","geometry":{"type":"LineString","coordinates":[[-82.80021,38.72324,12180.0],[-82.92959,38.71741,12180.0]]},"properties":{"ef_share":0.0,"ef_tj":0.0}},{"type":"Feature","geometry":{"type":"LineString","coordinates":[[-82.92959,38.71741,12180.0],[-83.05922,38.71174,12180.0]]},"properties":{"ef_share":0.0,"ef_tj":0.0}},{"type":"Feature","geometry":{"type":"LineString","coordinates":[[-83.05922,38.71174,12180.0],[-83.18888,38.70565,12180.0]]},"properties":{"ef_share":0.0,"ef_tj":0.0}},{"type":"Feature","geometry":{"type":"LineString","coordinates":[[-83.18888,38.70565,12180.0],[-83.31884,38.69955,12180.0]]},"properties":{"ef_share":0.0,"ef_tj":0.0}},{"type":"Feature","geometry":{"type":"LineString","coordinates":[[-83.31884,38.69955,12180.0],[-83.4489,38.69328,12180.0]]},"properties":{"ef_share":0.0,"ef_tj":0.0}},{"type":"Feature","geometry":{"type":"LineString","coordinates":[[-83.4489,38.69328,12180.0],[-83.57819,38.68695,12180.0]]},"properties":{"ef_share":0.0,"ef_tj":0.0}},{"type":"Feature","geometry":{"type":"LineString","coordinates":[[-83.57819,38.68695,12180.0],[-83.70629,38.68049,12180.0]]},"properties":{"ef_share":0.0,"ef_tj":0.0}},{"type":"Feature","geometry":{"type":"LineString","coordinates":[[-83.70629,38.68049,12180.0],[-83.8332,38.67373,12180.0]]},"properties":{"ef_share":0.0,"ef_tj":0.0}},{"type":"Feature","geometry":{"type":"LineString","coordinates":[[-83.8332,38.67373,12180.0],[-83.96039,38.6718,12180.0]]},"properties":{"ef_share":0.0,"ef_tj":0.0}},{"type":"Feature","geometry":{"type":"LineString","coordinates":[[-83.96039,38.6718,12180.0],[-84.08803,38.67757,12180.0]]},"properties":{"ef_share":0.0,"ef_tj":0.0}},{"type":"Feature","geometry":{"type":"LineString","coordinates":[[-84.08803,38.67757,12180.0],[-84.21636,38.68417,12180.0]]},"properties":{"ef_share":0.0,"ef_tj":0.0}},{"type":"Feature","geometry":{"type":"LineString","coordinates":[[-84.21636,38.68417,12180.0],[-84.34627,38.68993,12180.0]]},"properties":{"ef_share":0.0,"ef_tj":0.0}},{"type":"Feature","geometry":{"type":"LineString","coordinates":[[-84.34627,38.68993,12180.0],[-84.47713,38.69524,12180.0]]},"properties":{"ef_share":0.0,"ef_tj":0.0}},{"type":"Feature","geometry":{"type":"LineString","coordinates":[[-84.47713,38.69524,12180.0],[-84.60913,38.70055,12180.0]]},"properties":{"ef_share":0.0,"ef_tj":0.0}},{"type":"Feature","geometry":{"type":"LineString","coordinates":[[-84.60913,38.70055,12180.0],[-84.74111,38.70579,12180.0]]},"properties":{"ef_share":0.0,"ef_tj":0.0}},{"type":"Feature","geometry":{"type":"LineString","coordinates":[[-84.74111,38.70579,12180.0],[-84.8728,38.71081,12180.0]]},"properties":{"ef_share":0.0,"ef_tj":0.0}},{"type":"Feature","geometry":{"type":"LineString","coordinates":[[-84.8728,38.71081,12180.0],[-85.00292,38.71569,12180.0]]},"properties":{"ef_share":0.0,"ef_tj":0.0}},{"type":"Feature","geometry":{"type":"LineString","coordinates":[[-85.00292,38.71569,12180.0],[-85.13118,38.72031,12180.0]]},"properties":{"ef_share":0.0,"ef_tj":0.0}},{"type":"Feature","geometry":{"type":"LineString","coordinates":[[-85.13118,38.72031,12180.0],[-85.25719,38.72468,12180.0]]},"properties":{"ef_share":0.0,"ef_tj":0.0}},{"type":"Feature","geometry":{"type":"LineString","coordinates":[[-85.25719,38.72468,12180.0],[-85.38123,38.7289,12180.0]]},"properties":{"ef_share":0.0,"ef_tj":0.0}},{"type":"Feature","geometry":{"type":"LineString","coordinates":[[-85.38123,38.7289,12180.0],[-85.5034,38.73288,12180.0]]},"properties":{"ef_share":0.0,"ef_tj":0.0}},{"type":"Feature","geometry":{"type":"LineString","coordinates":[[-85.5034,38.73288,12180.0],[-85.62491,38.7368,12180.0]]},"properties":{"ef_share":0.0,"ef_tj":0.0}},{"type":"Feature","geometry":{"type":"LineString","coordinates":[[-85.62491,38.7368,12180.0],[-85.74634,38.74051,12180.0]]},"properties":{"ef_share":0.0,"ef_tj":0.0}},{"type":"Feature","geometry":{"type":"LineString","coordinates":[[-85.74634,38.74051,12180.0],[-85.86884,38.74412,12180.0]]},"properties":{"ef_share":0.0,"ef_tj":0.0}},{"type":"Feature","geometry":{"type":"LineString","coordinates":[[-85.86884,38.74412,12180.0],[-85.99231,38.7476,12190.0]]},"properties":{"ef_share":0.0,"ef_tj":0.0}},{"type":"Feature","geometry":{"type":"LineString","coordinates":[[-85.99231,38.7476,12190.0],[-86.11711,38.75107,12180.0]]},"properties":{"ef_share":0.0,"ef_tj":0.0}},{"type":"Feature","geometry":{"type":"LineString","coordinates":[[-86.11711,38.75107,12180.0],[-86.24366,38.75459,12180.0]]},"properties":{"ef_share":0.0,"ef_tj":0.0}},{"type":"Feature","geometry":{"type":"LineString","coordinates":[[-86.24366,38.75459,12180.0],[-86.37147,38.75778,12180.0]]},"properties":{"ef_share":0.0,"ef_tj":0.0}},{"type":"Feature","geometry":{"type":"LineString","coordinates":[[-86.37147,38.75778,12180.0],[-86.49968,38.76158,12180.0]]},"properties":{"ef_share":0.0,"ef_tj":0.0}},{"type":"Feature","geometry":{"type":"LineString","coordinates":[[-86.49968,38.76158,12180.0],[-86.62859,38.76738,12180.0]]},"properties":{"ef_share":0.0,"ef_tj":0.0}},{"type":"Feature","geometry":{"type":"LineString","coordinates":[[-86.62859,38.76738,12180.0],[-86.75665,38.77245,12180.0]]},"properties":{"ef_share":0.0,"ef_tj":0.0}},{"type":"Feature","geometry":{"type":"LineString","coordinates":[[-86.75665,38.77245,12180.0],[-86.88505,38.77752,12180.0]]},"properties":{"ef_share":0.0,"ef_tj":0.0}},{"type":"Feature","geometry":{"type":"LineString","coordinates":[[-86.88505,38.77752,12180.0],[-87.0138,38.78232,12180.0]]},"properties":{"ef_share":0.0,"ef_tj":0.0}},{"type":"Feature","geometry":{"type":"LineString","coordinates":[[-87.0138,38.78232,12180.0],[-87.14608,38.78718,12190.0]]},"properties":{"ef_share":0.0,"ef_tj":0.0}},{"type":"Feature","geometry":{"type":"LineString","coordinates":[[-87.14608,38.78718,12190.0],[-87.28051,38.79204,12180.0]]},"properties":{"ef_share":0.0,"ef_tj":0.0}},{"type":"Feature","geometry":{"type":"LineString","coordinates":[[-87.28051,38.79204,12180.0],[-87.41572,38.79672,12190.0]]},"properties":{"ef_share":0.0,"ef_tj":0.0}},{"type":"Feature","geometry":{"type":"LineString","coordinates":[[-87.41572,38.79672,12190.0],[-87.55041,38.80124,12180.0]]},"properties":{"ef_share":0.0,"ef_tj":0.0}},{"type":"Feature","geometry":{"type":"LineString","coordinates":[[-87.55041,38.80124,12180.0],[-87.68206,38.80545,12180.0]]},"properties":{"ef_share":0.0,"ef_tj":0.0}},{"type":"Feature","geometry":{"type":"LineString","coordinates":[[-87.68206,38.80545,12180.0],[-87.81064,38.80949,12180.0]]},"properties":{"ef_share":0.0,"ef_tj":0.0}},{"type":"Feature","geometry":{"type":"LineString","coordinates":[[-87.81064,38.80949,12180.0],[-87.93842,38.8133,12180.0]]},"properties":{"ef_share":0.0,"ef_tj":0.0}},{"type":"Feature","geometry":{"type":"LineString","coordinates":[[-87.93842,38.8133,12180.0],[-88.0665,38.81703,12180.0]]},"properties":{"ef_share":0.0,"ef_tj":0.0}},{"type":"Feature","geometry":{"type":"LineString","coordinates":[[-88.0665,38.81703,12180.0],[-88.19472,38.82065,12180.0]]},"properties":{"ef_share":0.0,"ef_tj":0.0}},{"type":"Feature","geometry":{"type":"LineString","coordinates":[[-88.19472,38.82065,12180.0],[-88.3232,38.82404,12180.0]]},"properties":{"ef_share":0.0,"ef_tj":0.0}},{"type":"Feature","geometry":{"type":"LineString","coordinates":[[-88.3232,38.82404,12180.0],[-88.45249,38.82738,12190.0]]},"properties":{"ef_share":0.0,"ef_tj":0.0}},{"type":"Feature","geometry":{"type":"LineString","coordinates":[[-88.45249,38.82738,12190.0],[-88.58192,38.83058,12180.0]]},"properties":{"ef_share":0.0,"ef_tj":0.0}},{"type":"Feature","geometry":{"type":"LineString","coordinates":[[-88.58192,38.83058,12180.0],[-88.7122,38.83369,12180.0]]},"properties":{"ef_share":0.0,"ef_tj":0.0}},{"type":"Feature","geometry":{"type":"LineString","coordinates":[[-88.7122,38.83369,12180.0],[-88.84305,38.83651,12180.0]]},"properties":{"ef_share":0.0,"ef_tj":0.0}},{"type":"Feature","geometry":{"type":"LineString","coordinates":[[-88.84305,38.83651,12180.0],[-88.97431,38.83932,12180.0]]},"properties":{"ef_share":0.0,"ef_tj":0.0}},{"type":"Feature","geometry":{"type":"LineString","coordinates":[[-88.97431,38.83932,12180.0],[-89.10685,38.842,12180.0]]},"properties":{"ef_share":0.0,"ef_tj":0.0}},{"type":"Feature","geometry":{"type":"LineString","coordinates":[[-89.10685,38.842,12180.0],[-89.24034,38.84454,12180.0]]},"properties":{"ef_share":0.0,"ef_tj":0.0}},{"type":"Feature","geometry":{"type":"LineString","coordinates":[[-89.24034,38.84454,12180.0],[-89.37456,38.84695,12180.0]]},"properties":{"ef_share":0.0,"ef_tj":0.0}},{"type":"Feature","geometry":{"type":"LineString","coordinates":[[-89.37456,38.84695,12180.0],[-89.50959,38.8492,12180.0]]},"properties":{"ef_share":0.0,"ef_tj":0.0}},{"type":"Feature","geometry":{"type":"LineString","coordinates":[[-89.50959,38.8492,12180.0],[-89.64528,38.85127,12190.0]]},"properties":{"ef_share":0.0,"ef_tj":0.0}},{"type":"Feature","geometry":{"type":"LineString","coordinates":[[-89.64528,38.85127,12190.0],[-89.78085,38.85323,12180.0]]},"properties":{"ef_share":0.0,"ef_tj":0.0}},{"type":"Feature","geometry":{"type":"LineString","coordinates":[[-89.78085,38.85323,12180.0],[-89.91616,38.85496,12190.0]]},"properties":{"ef_share":0.0,"ef_tj":0.0}},{"type":"Feature","geometry":{"type":"LineString","coordinates":[[-89.91616,38.85496,12190.0],[-90.05103,38.85671,12180.0]]},"properties":{"ef_share":0.0,"ef_tj":0.0}},{"type":"Feature","geometry":{"type":"LineString","coordinates":[[-90.05103,38.85671,12180.0],[-90.18605,38.85808,12180.0]]},"properties":{"ef_share":0.0,"ef_tj":0.0}},{"type":"Feature","geometry":{"type":"LineString","coordinates":[[-90.18605,38.85808,12180.0],[-90.32122,38.85939,12180.0]]},"properties":{"ef_share":0.0,"ef_tj":0.0}},{"type":"Feature","geometry":{"type":"LineString","coordinates":[[-90.32122,38.85939,12180.0],[-90.45692,38.86022,12180.0]]},"properties":{"ef_share":0.0,"ef_tj":0.0}},{"type":"Feature","geometry":{"type":"LineString","coordinates":[[-90.45692,38.86022,12180.0],[-90.59102,38.84712,12180.0]]},"properties":{"ef_share":0.0,"ef_tj":0.0}},{"type":"Feature","geometry":{"type":"LineString","coordinates":[[-90.59102,38.84712,12180.0],[-90.72403,38.82947,12180.0]]},"properties":{"ef_share":0.0,"ef_tj":0.0}},{"type":"Feature","geometry":{"type":"LineString","coordinates":[[-90.72403,38.82947,12180.0],[-90.8574,38.81192,12190.0]]},"properties":{"ef_share":0.0,"ef_tj":0.0}},{"type":"Feature","geometry":{"type":"LineString","coordinates":[[-90.8574,38.81192,12190.0],[-90.99056,38.79439,12180.0]]},"properties":{"ef_share":0.0,"ef_tj":0.0}},{"type":"Feature","geometry":{"type":"LineString","coordinates":[[-90.99056,38.79439,12180.0],[-91.12373,38.77661,12180.0]]},"properties":{"ef_share":0.0,"ef_tj":0.0}},{"type":"Feature","geometry":{"type":"LineString","coordinates":[[-91.12373,38.77661,12180.0],[-91.25661,38.75871,12180.0]]},"properties":{"ef_share":0.0,"ef_tj":0.0}},{"type":"Feature","geometry":{"type":"LineString","coordinates":[[-91.25661,38.75871,12180.0],[-91.38908,38.74068,12180.0]]},"properties":{"ef_share":0.0,"ef_tj":0.0}},{"type":"Feature","geometry":{"type":"LineString","coordinates":[[-91.38908,38.74068,12180.0],[-91.52133,38.72258,12180.0]]},"properties":{"ef_share":0.0,"ef_tj":0.0}},{"type":"Feature","geometry":{"type":"LineString","coordinates":[[-91.52133,38.72258,12180.0],[-91.65352,38.70426,12180.0]]},"properties":{"ef_share":0.0,"ef_tj":0.0}},{"type":"Feature","geometry":{"type":"LineString","coordinates":[[-91.65352,38.70426,12180.0],[-91.78597,38.68575,12180.0]]},"properties":{"ef_share":0.0,"ef_tj":0.0}},{"type":"Feature","geometry":{"type":"LineString","coordinates":[[-91.78597,38.68575,12180.0],[-91.91862,38.66684,12180.0]]},"properties":{"ef_share":0.0,"ef_tj":0.0}},{"type":"Feature","geometry":{"type":"LineString","coordinates":[[-91.91862,38.66684,12180.0],[-92.05155,38.64765,12180.0]]},"properties":{"ef_share":0.0,"ef_tj":0.0}},{"type":"Feature","geometry":{"type":"LineString","coordinates":[[-92.05155,38.64765,12180.0],[-92.18438,38.62847,12180.0]]},"properties":{"ef_share":0.0,"ef_tj":0.0}},{"type":"Feature","geometry":{"type":"LineString","coordinates":[[-92.18438,38.62847,12180.0],[-92.31856,38.60911,12180.0]]},"properties":{"ef_share":0.0,"ef_tj":0.0}},{"type":"Feature","geometry":{"type":"LineString","coordinates":[[-92.31856,38.60911,12180.0],[-92.4531,38.58951,12180.0]]},"properties":{"ef_share":0.0,"ef_tj":0.0}},{"type":"Feature","geometry":{"type":"LineString","coordinates":[[-92.4531,38.58951,12180.0],[-92.58808,38.56958,12180.0]]},"properties":{"ef_share":0.0,"ef_tj":0.0}},{"type":"Feature","geometry":{"type":"LineString","coordinates":[[-92.58808,38.56958,12180.0],[-92.72284,38.5495,12180.0]]},"properties":{"ef_share":0.0,"ef_tj":0.0}},{"type":"Feature","geometry":{"type":"LineString","coordinates":[[-92.72284,38.5495,12180.0],[-92.85747,38.52946,12180.0]]},"properties":{"ef_share":0.0,"ef_tj":0.0}},{"type":"Feature","geometry":{"type":"LineString","coordinates":[[-92.85747,38.52946,12180.0],[-92.99183,38.50917,12190.0]]},"properties":{"ef_share":0.0,"ef_tj":0.0}},{"type":"Feature","geometry":{"type":"LineString","coordinates":[[-92.99183,38.50917,12190.0],[-93.12599,38.48874,12190.0]]},"properties":{"ef_share":0.0,"ef_tj":0.0}},{"type":"Feature","geometry":{"type":"LineString","coordinates":[[-93.12599,38.48874,12190.0],[-93.25994,38.46814,12180.0]]},"properties":{"ef_share":0.0,"ef_tj":0.0}},{"type":"Feature","geometry":{"type":"LineString","coordinates":[[-93.25994,38.46814,12180.0],[-93.39345,38.44753,12180.0]]},"properties":{"ef_share":0.0,"ef_tj":0.0}},{"type":"Feature","geometry":{"type":"LineString","coordinates":[[-93.39345,38.44753,12180.0],[-93.52609,38.42684,12180.0]]},"properties":{"ef_share":0.0,"ef_tj":0.0}},{"type":"Feature","geometry":{"type":"LineString","coordinates":[[-93.52609,38.42684,12180.0],[-93.65832,38.40609,12190.0]]},"properties":{"ef_share":0.0,"ef_tj":0.0}},{"type":"Feature","geometry":{"type":"LineString","coordinates":[[-93.65832,38.40609,12190.0],[-93.79049,38.38517,12180.0]]},"properties":{"ef_share":0.0,"ef_tj":0.0}},{"type":"Feature","geometry":{"type":"LineString","coordinates":[[-93.79049,38.38517,12180.0],[-93.922,38.3642,12180.0]]},"properties":{"ef_share":0.0,"ef_tj":0.0}},{"type":"Feature","geometry":{"type":"LineString","coordinates":[[-93.922,38.3642,12180.0],[-94.05317,38.34308,12180.0]]},"properties":{"ef_share":0.0,"ef_tj":0.0}},{"type":"Feature","geometry":{"type":"LineString","coordinates":[[-94.05317,38.34308,12180.0],[-94.1848,38.32181,12180.0]]},"properties":{"ef_share":0.0,"ef_tj":0.0}},{"type":"Feature","geometry":{"type":"LineString","coordinates":[[-94.1848,38.32181,12180.0],[-94.31653,38.30031,12180.0]]},"properties":{"ef_share":0.0,"ef_tj":0.0}},{"type":"Feature","geometry":{"type":"LineString","coordinates":[[-94.31653,38.30031,12180.0],[-94.44848,38.27854,12180.0]]},"properties":{"ef_share":0.0,"ef_tj":0.0}},{"type":"Feature","geometry":{"type":"LineString","coordinates":[[-94.44848,38.27854,12180.0],[-94.5809,38.25749,12180.0]]},"properties":{"ef_share":0.0,"ef_tj":0.0}},{"type":"Feature","geometry":{"type":"LineString","coordinates":[[-94.5809,38.25749,12180.0],[-94.71352,38.23689,12180.0]]},"properties":{"ef_share":0.0,"ef_tj":0.0}},{"type":"Feature","geometry":{"type":"LineString","coordinates":[[-94.71352,38.23689,12180.0],[-94.84573,38.21585,12180.0]]},"properties":{"ef_share":0.0,"ef_tj":0.0}},{"type":"Feature","geometry":{"type":"LineString","coordinates":[[-94.84573,38.21585,12180.0],[-94.97844,38.19459,12180.0]]},"properties":{"ef_share":0.0,"ef_tj":0.0}},{"type":"Feature","geometry":{"type":"LineString","coordinates":[[-94.97844,38.19459,12180.0],[-95.11135,38.17319,12180.0]]},"properties":{"ef_share":0.0,"ef_tj":0.0}},{"type":"Feature","geometry":{"type":"LineString","coordinates":[[-95.11135,38.17319,12180.0],[-95.24479,38.15157,12180.0]]},"properties":{"ef_share":0.0,"ef_tj":0.0}},{"type":"Feature","geometry":{"type":"LineString","coordinates":[[-95.24479,38.15157,12180.0],[-95.37881,38.12962,12180.0]]},"properties":{"ef_share":0.0,"ef_tj":0.0}},{"type":"Feature","geometry":{"type":"LineString","coordinates":[[-95.37881,38.12962,12180.0],[-95.51355,38.10747,12180.0]]},"properties":{"ef_share":0.0,"ef_tj":0.0}},{"type":"Feature","geometry":{"type":"LineString","coordinates":[[-95.51355,38.10747,12180.0],[-95.64905,38.08498,12180.0]]},"properties":{"ef_share":0.0,"ef_tj":0.0}},{"type":"Feature","geometry":{"type":"LineString","coordinates":[[-95.64905,38.08498,12180.0],[-95.78532,38.06216,12180.0]]},"properties":{"ef_share":0.0,"ef_tj":0.0}},{"type":"Feature","geometry":{"type":"LineString","coordinates":[[-95.78532,38.06216,12180.0],[-95.92219,38.03914,12180.0]]},"properties":{"ef_share":0.0,"ef_tj":0.0}},{"type":"Feature","geometry":{"type":"LineString","coordinates":[[-95.92219,38.03914,12180.0],[-96.0594,38.0159,12180.0]]},"properties":{"ef_share":0.0,"ef_tj":0.0}},{"type":"Feature","geometry":{"type":"LineString","coordinates":[[-96.0594,38.0159,12180.0],[-96.19712,37.99227,12180.0]]},"properties":{"ef_share":0.0,"ef_tj":0.0}},{"type":"Feature","geometry":{"type":"LineString","coordinates":[[-96.19712,37.99227,12180.0],[-96.33519,37.96848,12180.0]]},"properties":{"ef_share":0.0,"ef_tj":0.0}},{"type":"Feature","geometry":{"type":"LineString","coordinates":[[-96.33519,37.96848,12180.0],[-96.47359,37.94447,12190.0]]},"properties":{"ef_share":0.0,"ef_tj":0.0}},{"type":"Feature","geometry":{"type":"LineString","coordinates":[[-96.47359,37.94447,12190.0],[-96.61173,37.92031,12190.0]]},"properties":{"ef_share":0.0,"ef_tj":0.0}},{"type":"Feature","geometry":{"type":"LineString","coordinates":[[-96.61173,37.92031,12190.0],[-96.75002,37.89594,12180.0]]},"properties":{"ef_share":0.0,"ef_tj":0.0}},{"type":"Feature","geometry":{"type":"LineString","coordinates":[[-96.75002,37.89594,12180.0],[-96.88788,37.87147,12190.0]]},"properties":{"ef_share":0.0,"ef_tj":0.0}},{"type":"Feature","geometry":{"type":"LineString","coordinates":[[-96.88788,37.87147,12190.0],[-97.02541,37.8469,12180.0]]},"properties":{"ef_share":0.0,"ef_tj":0.0}},{"type":"Feature","geometry":{"type":"LineString","coordinates":[[-97.02541,37.8469,12180.0],[-97.16235,37.82229,12180.0]]},"properties":{"ef_share":0.0,"ef_tj":0.0}},{"type":"Feature","geometry":{"type":"LineString","coordinates":[[-97.16235,37.82229,12180.0],[-97.2981,37.79756,12180.0]]},"properties":{"ef_share":0.0,"ef_tj":0.0}},{"type":"Feature","geometry":{"type":"LineString","coordinates":[[-97.2981,37.79756,12180.0],[-97.43347,37.77293,12180.0]]},"properties":{"ef_share":0.0,"ef_tj":0.0}},{"type":"Feature","geometry":{"type":"LineString","coordinates":[[-97.43347,37.77293,12180.0],[-97.56819,37.74815,12180.0]]},"properties":{"ef_share":0.0,"ef_tj":0.0}},{"type":"Feature","geometry":{"type":"LineString","coordinates":[[-97.56819,37.74815,12180.0],[-97.70235,37.72266,12180.0]]},"properties":{"ef_share":0.0,"ef_tj":0.0}},{"type":"Feature","geometry":{"type":"LineString","coordinates":[[-97.70235,37.72266,12180.0],[-97.83661,37.69671,12180.0]]},"properties":{"ef_share":0.0,"ef_tj":0.0}},{"type":"Feature","geometry":{"type":"LineString","coordinates":[[-97.83661,37.69671,12180.0],[-97.97071,37.67076,12180.0]]},"properties":{"ef_share":0.0,"ef_tj":0.0}},{"type":"Feature","geometry":{"type":"LineString","coordinates":[[-97.97071,37.67076,12180.0],[-98.10503,37.64458,12180.0]]},"properties":{"ef_share":0.0,"ef_tj":0.0}},{"type":"Feature","geometry":{"type":"LineString","coordinates":[[-98.10503,37.64458,12180.0],[-98.23994,37.61807,12180.0]]},"properties":{"ef_share":0.0,"ef_tj":0.0}},{"type":"Feature","geometry":{"type":"LineString","coordinates":[[-98.23994,37.61807,12180.0],[-98.37473,37.59149,12190.0]]},"properties":{"ef_share":0.0,"ef_tj":0.0}},{"type":"Feature","geometry":{"type":"LineString","coordinates":[[-98.37473,37.59149,12190.0],[-98.50975,37.56464,12190.0]]},"properties":{"ef_share":0.0,"ef_tj":0.0}},{"type":"Feature","geometry":{"type":"LineString","coordinates":[[-98.50975,37.56464,12190.0],[-98.64429,37.53768,12180.0]]},"properties":{"ef_share":0.0,"ef_tj":0.0}},{"type":"Feature","geometry":{"type":"LineString","coordinates":[[-98.64429,37.53768,12180.0],[-98.77922,37.51058,12180.0]]},"properties":{"ef_share":0.0,"ef_tj":0.0}},{"type":"Feature","geometry":{"type":"LineString","coordinates":[[-98.77922,37.51058,12180.0],[-98.91356,37.48333,12180.0]]},"properties":{"ef_share":0.0,"ef_tj":0.0}},{"type":"Feature","geometry":{"type":"LineString","coordinates":[[-98.91356,37.48333,12180.0],[-99.04797,37.45591,12190.0]]},"properties":{"ef_share":0.0,"ef_tj":0.0}},{"type":"Feature","geometry":{"type":"LineString","coordinates":[[-99.04797,37.45591,12190.0],[-99.18276,37.42823,12190.0]]},"properties":{"ef_share":0.0,"ef_tj":0.0}},{"type":"Feature","geometry":{"type":"LineString","coordinates":[[-99.18276,37.42823,12190.0],[-99.31764,37.40023,12190.0]]},"properties":{"ef_share":0.0,"ef_tj":0.0}},{"type":"Feature","geometry":{"type":"LineString","coordinates":[[-99.31764,37.40023,12190.0],[-99.45236,37.37224,12190.0]]},"properties":{"ef_share":0.0,"ef_tj":0.0}},{"type":"Feature","geometry":{"type":"LineString","coordinates":[[-99.45236,37.37224,12190.0],[-99.58737,37.34418,12180.0]]},"properties":{"ef_share":0.0,"ef_tj":0.0}},{"type":"Feature","geometry":{"type":"LineString","coordinates":[[-99.58737,37.34418,12180.0],[-99.72207,37.31566,12180.0]]},"properties":{"ef_share":0.0,"ef_tj":0.0}},{"type":"Feature","geometry":{"type":"LineString","coordinates":[[-99.72207,37.31566,12180.0],[-99.85824,37.28697,12190.0]]},"properties":{"ef_share":0.0,"ef_tj":0.0}},{"type":"Feature","geometry":{"type":"LineString","coordinates":[[-99.85824,37.28697,12190.0],[-99.99413,37.25791,12190.0]]},"properties":{"ef_share":0.0,"ef_tj":0.0}},{"type":"Feature","geometry":{"type":"LineString","coordinates":[[-99.99413,37.25791,12190.0],[-100.13071,37.22875,12190.0]]},"properties":{"ef_share":0.0,"ef_tj":0.0}},{"type":"Feature","geometry":{"type":"LineString","coordinates":[[-100.13071,37.22875,12190.0],[-100.26752,37.19921,12180.0]]},"properties":{"ef_share":0.0,"ef_tj":0.0}},{"type":"Feature","geometry":{"type":"LineString","coordinates":[[-100.26752,37.19921,12180.0],[-100.40377,37.1782,12180.0]]},"properties":{"ef_share":0.0,"ef_tj":0.0}},{"type":"Feature","geometry":{"type":"LineString","coordinates":[[-100.40377,37.1782,12180.0],[-100.54,37.15861,12180.0]]},"properties":{"ef_share":0.0,"ef_tj":0.0}},{"type":"Feature","geometry":{"type":"LineString","coordinates":[[-100.54,37.15861,12180.0],[-100.67623,37.13902,12180.0]]},"properties":{"ef_share":0.0,"ef_tj":0.0}},{"type":"Feature","geometry":{"type":"LineString","coordinates":[[-100.67623,37.13902,12180.0],[-100.81246,37.11942,12180.0]]},"properties":{"ef_share":0.0,"ef_tj":0.0}},{"type":"Feature","geometry":{"type":"LineString","coordinates":[[-100.81246,37.11942,12180.0],[-100.94869,37.09983,12180.0]]},"properties":{"ef_share":0.0,"ef_tj":0.0}},{"type":"Feature","geometry":{"type":"LineString","coordinates":[[-100.94869,37.09983,12180.0],[-101.08491,37.08024,12180.0]]},"properties":{"ef_share":0.0,"ef_tj":0.0}},{"type":"Feature","geometry":{"type":"LineString","coordinates":[[-101.08491,37.08024,12180.0],[-101.22108,37.06051,12180.0]]},"properties":{"ef_share":0.0,"ef_tj":0.0}},{"type":"Feature","geometry":{"type":"LineString","coordinates":[[-101.22108,37.06051,12180.0],[-101.35682,37.03987,12180.0]]},"properties":{"ef_share":0.0,"ef_tj":0.0}},{"type":"Feature","geometry":{"type":"LineString","coordinates":[[-101.35682,37.03987,12180.0],[-101.49257,37.01923,12180.0]]},"properties":{"ef_share":0.0,"ef_tj":0.0}},{"type":"Feature","geometry":{"type":"LineString","coordinates":[[-101.49257,37.01923,12180.0],[-101.62831,36.99859,12180.0]]},"properties":{"ef_share":0.0,"ef_tj":0.0}},{"type":"Feature","geometry":{"type":"LineString","coordinates":[[-101.62831,36.99859,12180.0],[-101.76406,36.97795,12180.0]]},"properties":{"ef_share":0.0,"ef_tj":0.0}},{"type":"Feature","geometry":{"type":"LineString","coordinates":[[-101.76406,36.97795,12180.0],[-101.89981,36.95731,12180.0]]},"properties":{"ef_share":0.0,"ef_tj":0.0}},{"type":"Feature","geometry":{"type":"LineString","coordinates":[[-101.89981,36.95731,12180.0],[-102.03555,36.93667,12180.0]]},"properties":{"ef_share":0.0,"ef_tj":0.0}},{"type":"Feature","geometry":{"type":"LineString","coordinates":[[-102.03555,36.93667,12180.0],[-102.17109,36.9156,12180.0]]},"properties":{"ef_share":0.0,"ef_tj":0.0}},{"type":"Feature","geometry":{"type":"LineString","coordinates":[[-102.17109,36.9156,12180.0],[-102.30633,36.89392,12180.0]]},"properties":{"ef_share":0.0,"ef_tj":0.0}},{"type":"Feature","geometry":{"type":"LineString","coordinates":[[-102.30633,36.89392,12180.0],[-102.44157,36.87224,12180.0]]},"properties":{"ef_share":0.0,"ef_tj":0.0}},{"type":"Feature","geometry":{"type":"LineString","coordinates":[[-102.44157,36.87224,12180.0],[-102.57682,36.85056,12180.0]]},"properties":{"ef_share":0.0,"ef_tj":0.0}},{"type":"Feature","geometry":{"type":"LineString","coordinates":[[-102.57682,36.85056,12180.0],[-102.71206,36.82888,12180.0]]},"properties":{"ef_share":0.0,"ef_tj":0.0}},{"type":"Feature","geometry":{"type":"LineString","coordinates":[[-102.71206,36.82888,12180.0],[-102.8473,36.8072,12180.0]]},"properties":{"ef_share":0.0,"ef_tj":0.0}},{"type":"Feature","geometry":{"type":"LineString","coordinates":[[-102.8473,36.8072,12180.0],[-102.98254,36.78552,12180.0]]},"properties":{"ef_share":0.0,"ef_tj":0.0}},{"type":"Feature","geometry":{"type":"LineString","coordinates":[[-102.98254,36.78552,12180.0],[-103.11742,36.76313,12180.0]]},"properties":{"ef_share":0.0,"ef_tj":0.0}},{"type":"Feature","geometry":{"type":"LineString","coordinates":[[-103.11742,36.76313,12180.0],[-103.25214,36.74042,12180.0]]},"properties":{"ef_share":0.0,"ef_tj":0.0}},{"type":"Feature","geometry":{"type":"LineString","coordinates":[[-103.25214,36.74042,12180.0],[-103.38686,36.71771,12180.0]]},"properties":{"ef_share":0.0,"ef_tj":0.0}},{"type":"Feature","geometry":{"type":"LineString","coordinates":[[-103.38686,36.71771,12180.0],[-103.52158,36.695,12180.0]]},"properties":{"ef_share":0.0,"ef_tj":0.0}},{"type":"Feature","geometry":{"type":"LineString","coordinates":[[-103.52158,36.695,12180.0],[-103.6563,36.67229,12180.0]]},"properties":{"ef_share":0.0,"ef_tj":0.0}},{"type":"Feature","geometry":{"type":"LineString","coordinates":[[-103.6563,36.67229,12180.0],[-103.79102,36.64958,12180.0]]},"properties":{"ef_share":0.0,"ef_tj":0.0}},{"type":"Feature","geometry":{"type":"LineString","coordinates":[[-103.79102,36.64958,12180.0],[-103.92574,36.62688,12180.0]]},"properties":{"ef_share":0.0,"ef_tj":0.0}},{"type":"Feature","geometry":{"type":"LineString","coordinates":[[-103.92574,36.62688,12180.0],[-104.06154,36.60786,12190.0]]},"properties":{"ef_share":0.0,"ef_tj":0.0}},{"type":"Feature","geometry":{"type":"LineString","coordinates":[[-104.06154,36.60786,12190.0],[-104.19746,36.58879,12180.0]]},"properties":{"ef_share":0.0,"ef_tj":0.0}},{"type":"Feature","geometry":{"type":"LineString","coordinates":[[-104.19746,36.58879,12180.0],[-104.33331,36.56939,12180.0]]},"properties":{"ef_share":0.0,"ef_tj":0.0}},{"type":"Feature","geometry":{"type":"LineString","coordinates":[[-104.33331,36.56939,12180.0],[-104.46988,36.5497,12180.0]]},"properties":{"ef_share":0.0,"ef_tj":0.0}},{"type":"Feature","geometry":{"type":"LineString","coordinates":[[-104.46988,36.5497,12180.0],[-104.60634,36.5302,12180.0]]},"properties":{"ef_share":0.0,"ef_tj":0.0}},{"type":"Feature","geometry":{"type":"LineString","coordinates":[[-104.60634,36.5302,12180.0],[-104.74252,36.51039,12190.0]]},"properties":{"ef_share":0.0,"ef_tj":0.0}},{"type":"Feature","geometry":{"type":"LineString","coordinates":[[-104.74252,36.51039,12190.0],[-104.87824,36.48911,12180.0]]},"properties":{"ef_share":0.0,"ef_tj":0.0}},{"type":"Feature","geometry":{"type":"LineString","coordinates":[[-104.87824,36.48911,12180.0],[-105.01161,36.4587,12180.0]]},"properties":{"ef_share":0.0,"ef_tj":0.0}},{"type":"Feature","geometry":{"type":"LineString","coordinates":[[-105.01161,36.4587,12180.0],[-105.14558,36.42703,12180.0]]},"properties":{"ef_share":0.0,"ef_tj":0.0}},{"type":"Feature","geometry":{"type":"LineString","coordinates":[[-105.14558,36.42703,12180.0],[-105.28019,36.39478,12180.0]]},"properties":{"ef_share":0.0,"ef_tj":0.0}},{"type":"Feature","geometry":{"type":"LineString","coordinates":[[-105.28019,36.39478,12180.0],[-105.41492,36.36285,12190.0]]},"properties":{"ef_share":0.0,"ef_tj":0.0}},{"type":"Feature","geometry":{"type":"LineString","coordinates":[[-105.41492,36.36285,12190.0],[-105.54928,36.33065,12180.0]]},"properties":{"ef_share":0.0,"ef_tj":0.0}},{"type":"Feature","geometry":{"type":"LineString","coordinates":[[-105.54928,36.33065,12180.0],[-105.68226,36.29843,12180.0]]},"properties":{"ef_share":0.0,"ef_tj":0.0}},{"type":"Feature","geometry":{"type":"LineString","coordinates":[[-105.68226,36.29843,12180.0],[-105.81449,36.26646,12180.0]]},"properties":{"ef_share":0.0,"ef_tj":0.0}},{"type":"Feature","geometry":{"type":"LineString","coordinates":[[-105.81449,36.26646,12180.0],[-105.94541,36.23458,12180.0]]},"properties":{"ef_share":0.0,"ef_tj":0.0}},{"type":"Feature","geometry":{"type":"LineString","coordinates":[[-105.94541,36.23458,12180.0],[-106.07586,36.20258,12180.0]]},"properties":{"ef_share":0.0,"ef_tj":0.0}},{"type":"Feature","geometry":{"type":"LineString","coordinates":[[-106.07586,36.20258,12180.0],[-106.2053,36.17057,12180.0]]},"properties":{"ef_share":0.0,"ef_tj":0.0}},{"type":"Feature","geometry":{"type":"LineString","coordinates":[[-106.2053,36.17057,12180.0],[-106.33534,36.13832,12180.0]]},"properties":{"ef_share":0.0,"ef_tj":0.0}},{"type":"Feature","geometry":{"type":"LineString","coordinates":[[-106.33534,36.13832,12180.0],[-106.46565,36.10601,12180.0]]},"properties":{"ef_share":0.0,"ef_tj":0.0}},{"type":"Feature","geometry":{"type":"LineString","coordinates":[[-106.46565,36.10601,12180.0],[-106.59641,36.07328,12180.0]]},"properties":{"ef_share":0.0,"ef_tj":0.0}},{"type":"Feature","geometry":{"type":"LineString","coordinates":[[-106.59641,36.07328,12180.0],[-106.72741,36.04025,12180.0]]},"properties":{"ef_share":0.0,"ef_tj":0.0}},{"type":"Feature","geometry":{"type":"LineString","coordinates":[[-106.72741,36.04025,12180.0],[-106.85823,36.00718,12190.0]]},"properties":{"ef_share":0.0,"ef_tj":0.0}},{"type":"Feature","geometry":{"type":"LineString","coordinates":[[-106.85823,36.00718,12190.0],[-106.98897,35.97398,12180.0]]},"properties":{"ef_share":0.0,"ef_tj":0.0}},{"type":"Feature","geometry":{"type":"LineString","coordinates":[[-106.98897,35.97398,12180.0],[-107.11883,35.94073,12180.0]]},"properties":{"ef_share":0.0,"ef_tj":0.0}},{"type":"Feature","geometry":{"type":"LineString","coordinates":[[-107.11883,35.94073,12180.0],[-107.24818,35.90756,12180.0]]},"properties":{"ef_share":0.0,"ef_tj":0.0}},{"type":"Feature","geometry":{"type":"LineString","coordinates":[[-107.24818,35.90756,12180.0],[-107.37723,35.87418,12180.0]]},"properties":{"ef_share":0.0,"ef_tj":0.0}},{"type":"Feature","geometry":{"type":"LineString","coordinates":[[-107.37723,35.87418,12180.0],[-107.50654,35.84066,12180.0]]},"properties":{"ef_share":0.0,"ef_tj":0.0}},{"type":"Feature","geometry":{"type":"LineString","coordinates":[[-107.50654,35.84066,12180.0],[-107.636,35.80691,12180.0]]},"properties":{"ef_share":0.0,"ef_tj":0.0}},{"type":"Feature","geometry":{"type":"LineString","coordinates":[[-107.636,35.80691,12180.0],[-107.76561,35.77293,12180.0]]},"properties":{"ef_share":0.0,"ef_tj":0.0}},{"type":"Feature","geometry":{"type":"LineString","coordinates":[[-107.76561,35.77293,12180.0],[-107.89526,35.7388,12180.0]]},"properties":{"ef_share":0.0,"ef_tj":0.0}},{"type":"Feature","geometry":{"type":"LineString","coordinates":[[-107.89526,35.7388,12180.0],[-108.0253,35.70438,12190.0]]},"properties":{"ef_share":0.0,"ef_tj":0.0}},{"type":"Feature","geometry":{"type":"LineString","coordinates":[[-108.0253,35.70438,12190.0],[-108.15514,35.66987,12180.0]]},"properties":{"ef_share":0.0,"ef_tj":0.0}},{"type":"Feature","geometry":{"type":"LineString","coordinates":[[-108.15514,35.66987,12180.0],[-108.28463,35.63525,12180.0]]},"properties":{"ef_share":0.0,"ef_tj":0.0}},{"type":"Feature","geometry":{"type":"LineString","coordinates":[[-108.28463,35.63525,12180.0],[-108.41398,35.60049,12180.0]]},"properties":{"ef_share":0.0,"ef_tj":0.0}},{"type":"Feature","geometry":{"type":"LineString","coordinates":[[-108.41398,35.60049,12180.0],[-108.54318,35.56562,12180.0]]},"properties":{"ef_share":0.0,"ef_tj":0.0}},{"type":"Feature","geometry":{"type":"LineString","coordinates":[[-108.54318,35.56562,12180.0],[-108.67218,35.53069,12180.0]]},"properties":{"ef_share":0.0,"ef_tj":0.0}},{"type":"Feature","geometry":{"type":"LineString","coordinates":[[-108.67218,35.53069,12180.0],[-108.80069,35.49567,12180.0]]},"properties":{"ef_share":0.0,"ef_tj":0.0}},{"type":"Feature","geometry":{"type":"LineString","coordinates":[[-108.80069,35.49567,12180.0],[-108.9314,35.4697,12180.0]]},"properties":{"ef_share":0.0,"ef_tj":0.0}},{"type":"Feature","geometry":{"type":"LineString","coordinates":[[-108.9314,35.4697,12180.0],[-109.06415,35.45555,12180.0]]},"properties":{"ef_share":0.0,"ef_tj":0.0}},{"type":"Feature","geometry":{"type":"LineString","coordinates":[[-109.06415,35.45555,12180.0],[-109.19687,35.44149,12180.0]]},"properties":{"ef_share":0.0,"ef_tj":0.0}},{"type":"Feature","geometry":{"type":"LineString","coordinates":[[-109.19687,35.44149,12180.0],[-109.3295,35.42708,12180.0]]},"properties":{"ef_share":0.0,"ef_tj":0.0}},{"type":"Feature","geometry":{"type":"LineString","coordinates":[[-109.3295,35.42708,12180.0],[-109.4617,35.41248,12180.0]]},"properties":{"ef_share":0.0,"ef_tj":0.0}},{"type":"Feature","geometry":{"type":"LineString","coordinates":[[-109.4617,35.41248,12180.0],[-109.5931,35.39788,12180.0]]},"properties":{"ef_share":0.0,"ef_tj":0.0}},{"type":"Feature","geometry":{"type":"LineString","coordinates":[[-109.5931,35.39788,12180.0],[-109.72461,35.38314,12180.0]]},"properties":{"ef_share":0.0,"ef_tj":0.0}},{"type":"Feature","geometry":{"type":"LineString","coordinates":[[-109.72461,35.38314,12180.0],[-109.85573,35.36836,12180.0]]},"properties":{"ef_share":0.0,"ef_tj":0.0}},{"type":"Feature","geometry":{"type":"LineString","coordinates":[[-109.85573,35.36836,12180.0],[-109.9871,35.35332,12180.0]]},"properties":{"ef_share":0.0,"ef_tj":0.0}},{"type":"Feature","geometry":{"type":"LineString","coordinates":[[-109.9871,35.35332,12180.0],[-110.11937,35.3385,12180.0]]},"properties":{"ef_share":0.0,"ef_tj":0.0}},{"type":"Feature","geometry":{"type":"LineString","coordinates":[[-110.11937,35.3385,12180.0],[-110.25127,35.32357,12190.0]]},"properties":{"ef_share":0.0,"ef_tj":0.0}},{"type":"Feature","geometry":{"type":"LineString","coordinates":[[-110.25127,35.32357,12190.0],[-110.38374,35.30846,12180.0]]},"properties":{"ef_share":0.0,"ef_tj":0.0}},{"type":"Feature","geometry":{"type":"LineString","coordinates":[[-110.38374,35.30846,12180.0],[-110.51669,35.29307,12180.0]]},"properties":{"ef_share":0.0,"ef_tj":0.0}},{"type":"Feature","geometry":{"type":"LineString","coordinates":[[-110.51669,35.29307,12180.0],[-110.65032,35.27747,12180.0]]},"properties":{"ef_share":0.0,"ef_tj":0.0}},{"type":"Feature","geometry":{"type":"LineString","coordinates":[[-110.65032,35.27747,12180.0],[-110.78403,35.26168,12180.0]]},"properties":{"ef_share":0.0,"ef_tj":0.0}},{"type":"Feature","geometry":{"type":"LineString","coordinates":[[-110.78403,35.26168,12180.0],[-110.91805,35.24585,12190.0]]},"properties":{"ef_share":0.0,"ef_tj":0.0}},{"type":"Feature","geometry":{"type":"LineString","coordinates":[[-110.91805,35.24585,12190.0],[-111.05258,35.22965,12180.0]]},"properties":{"ef_share":0.0,"ef_tj":0.0}},{"type":"Feature","geometry":{"type":"LineString","coordinates":[[-111.05258,35.22965,12180.0],[-111.18666,35.21334,12190.0]]},"properties":{"ef_share":0.0,"ef_tj":0.0}},{"type":"Feature","geometry":{"type":"LineString","coordinates":[[-111.18666,35.21334,12190.0],[-111.32068,35.19697,12190.0]]},"properties":{"ef_share":0.0,"ef_tj":0.0}},{"type":"Feature","geometry":{"type":"LineString","coordinates":[[-111.32068,35.19697,12190.0],[-111.4542,35.1805,12180.0]]},"properties":{"ef_share":0.0,"ef_tj":0.0}},{"type":"Feature","geometry":{"type":"LineString","coordinates":[[-111.4542,35.1805,12180.0],[-111.58744,35.16394,12180.0]]},"properties":{"ef_share":0.0,"ef_tj":0.0}},{"type":"Feature","geometry":{"type":"LineString","coordinates":[[-111.58744,35.16394,12180.0],[-111.72146,35.14689,12180.0]]},"properties":{"ef_share":0.0,"ef_tj":0.0}},{"type":"Feature","geometry":{"type":"LineString","coordinates":[[-111.72146,35.14689,12180.0],[-111.85702,35.12986,12190.0]]},"properties":{"ef_share":0.0,"ef_tj":0.0}},{"type":"Feature","geometry":{"type":"LineString","coordinates":[[-111.85702,35.12986,12190.0],[-111.99336,35.11235,12180.0]]},"properties":{"ef_share":0.0,"ef_tj":0.0}},{"type":"Feature","geometry":{"type":"LineString","coordinates":[[-111.99336,35.11235,12180.0],[-112.13172,35.0943,12180.0]]},"properties":{"ef_share":0.0,"ef_tj":0.0}},{"type":"Feature","geometry":{"type":"LineString","coordinates":[[-112.13172,35.0943,12180.0],[-112.27115,35.0762,12180.0]]},"properties":{"ef_share":0.0,"ef_tj":0.0}},{"type":"Feature","geometry":{"type":"LineString","coordinates":[[-112.27115,35.0762,12180.0],[-112.41221,35.05773,12180.0]]},"properties":{"ef_share":0.0,"ef_tj":0.0}},{"type":"Feature","geometry":{"type":"LineString","coordinates":[[-112.41221,35.05773,12180.0],[-112.55455,35.03839,12180.0]]},"properties":{"ef_share":0.0,"ef_tj":0.0}},{"type":"Feature","geometry":{"type":"LineString","coordinates":[[-112.55455,35.03839,12180.0],[-112.69352,35.02009,12180.0]]},"properties":{"ef_share":0.0,"ef_tj":0.0}},{"type":"Feature","geometry":{"type":"LineString","coordinates":[[-112.69352,35.02009,12180.0],[-112.82692,35.00173,12180.0]]},"properties":{"ef_share":0.0,"ef_tj":0.0}},{"type":"Feature","geometry":{"type":"LineString","coordinates":[[-112.82692,35.00173,12180.0],[-112.95979,34.98382,12180.0]]},"properties":{"ef_share":0.0,"ef_tj":0.0}},{"type":"Feature","geometry":{"type":"LineString","coordinates":[[-112.95979,34.98382,12180.0],[-113.0922,34.96566,12000.0]]},"properties":{"ef_share":0.0,"ef_tj":0.0}},{"type":"Feature","geometry":{"type":"LineString","coordinates":[[-113.0922,34.96566,12000.0],[-113.22181,34.94743,11600.0]]},"properties":{"ef_share":0.0,"ef_tj":0.0}},{"type":"Feature","geometry":{"type":"LineString","coordinates":[[-113.22181,34.94743,11600.0],[-113.35216,34.92915,11580.0]]},"properties":{"ef_share":0.0,"ef_tj":0.0}},{"type":"Feature","geometry":{"type":"LineString","coordinates":[[-113.35216,34.92915,11580.0],[-113.48274,34.91082,11570.0]]},"properties":{"ef_share":0.0,"ef_tj":0.0}},{"type":"Feature","geometry":{"type":"LineString","coordinates":[[-113.48274,34.91082,11570.0],[-113.61592,34.89192,11580.0]]},"properties":{"ef_share":0.0,"ef_tj":0.0}},{"type":"Feature","geometry":{"type":"LineString","coordinates":[[-113.61592,34.89192,11580.0],[-113.74985,34.87262,11570.0]]},"properties":{"ef_share":0.0,"ef_tj":0.0}},{"type":"Feature","geometry":{"type":"LineString","coordinates":[[-113.74985,34.87262,11570.0],[-113.88345,34.85321,11570.0]]},"properties":{"ef_share":-0.352,"ef_tj":-0.003618}},{"type":"Feature","geometry":{"type":"LineString","coordinates":[[-113.88345,34.85321,11570.0],[-114.01692,34.83387,11580.0]]},"properties":{"ef_share":-0.92,"ef_tj":-0.009443}},{"type":"Feature","geometry":{"type":"LineString","coordinates":[[-114.01692,34.83387,11580.0],[-114.15011,34.81426,11570.0]]},"properties":{"ef_share":-1.0,"ef_tj":-0.010265}},{"type":"Feature","geometry":{"type":"LineString","coordinates":[[-114.15011,34.81426,11570.0],[-114.282,34.79471,11570.0]]},"properties":{"ef_share":-0.733,"ef_tj":-0.007519}},{"type":"Feature","geometry":{"type":"LineString","coordinates":[[-114.282,34.79471,11570.0],[-114.41346,34.77508,11570.0]]},"properties":{"ef_share":-0.473,"ef_tj":-0.00486}},{"type":"Feature","geometry":{"type":"LineString","coordinates":[[-114.41346,34.77508,11570.0],[-114.54475,34.76739,11570.0]]},"properties":{"ef_share":0.0,"ef_tj":0.0}}]}