{"type":"FeatureCollection","properties":{"icao24":"a1f4c5","registration":"N225NE","owner_label":"New England Patriots","combined_co2e_central":42002.9,"fuel_co2_kg":34772.1,"contrail_co2e_central":7230.8,"tier":"high"},"features":[{"type":"Feature","geometry":{"type":"LineString","coordinates":[[-15.32387,53.00637,9440.0],[-15.12357,53.00253,9440.0]]},"properties":{"ef_share":0.0,"ef_tj":0.0}},{"type":"Feature","geometry":{"type":"LineString","coordinates":[[-15.12357,53.00253,9440.0],[-14.92381,52.99196,9440.0]]},"properties":{"ef_share":0.0,"ef_tj":0.0}},{"type":"Feature","geometry":{"type":"LineString","coordinates":[[-14.92381,52.99196,9440.0],[-14.7274,52.97115,9440.0]]},"properties":{"ef_share":0.0,"ef_tj":0.0}},{"type":"Feature","geometry":{"type":"LineString","coordinates":[[-14.7274,52.97115,9440.0],[-14.53054,52.94954,9440.0]]},"properties":{"ef_share":0.0,"ef_tj":0.0}},{"type":"Feature","geometry":{"type":"LineString","coordinates":[[-14.53054,52.94954,9440.0],[-14.33367,52.9278,9450.0]]},"properties":{"ef_share":0.0,"ef_tj":0.0}},{"type":"Feature","geometry":{"type":"LineString","coordinates":[[-14.33367,52.9278,9450.0],[-14.13683,52.90574,9440.0]]},"properties":{"ef_share":0.0,"ef_tj":0.0}},{"type":"Feature","geometry":{"type":"LineString","coordinates":[[-14.13683,52.90574,9440.0],[-13.94036,52.88334,9440.0]]},"properties":{"ef_share":0.0,"ef_tj":0.0}},{"type":"Feature","geometry":{"type":"LineString","coordinates":[[-13.94036,52.88334,9440.0],[-13.74481,52.86077,9440.0]]},"properties":{"ef_share":0.0,"ef_tj":0.0}},{"type":"Feature","geometry":{"type":"LineString","coordinates":[[-13.74481,52.86077,9440.0],[-13.55051,52.83786,9440.0]]},"properties":{"ef_share":0.0,"ef_tj":0.0}},{"type":"Feature","geometry":{"type":"LineString","coordinates":[[-13.55051,52.83786,9440.0],[-13.35706,52.81479,9440.0]]},"properties":{"ef_share":0.0,"ef_tj":0.0}},{"type":"Feature","geometry":{"type":"LineString","coordinates":[[-13.35706,52.81479,9440.0],[-13.1643,52.79149,9440.0]]},"properties":{"ef_share":0.0,"ef_tj":0.0}},{"type":"Feature","geometry":{"type":"LineString","coordinates":[[-13.1643,52.79149,9440.0],[-12.9724,52.76794,9440.0]]},"properties":{"ef_share":0.0,"ef_tj":0.0}},{"type":"Feature","geometry":{"type":"LineString","coordinates":[[-12.9724,52.76794,9440.0],[-12.78087,52.74407,9440.0]]},"properties":{"ef_share":0.0,"ef_tj":0.0}},{"type":"Feature","geometry":{"type":"LineString","coordinates":[[-12.78087,52.74407,9440.0],[-12.5899,52.71995,9440.0]]},"properties":{"ef_share":0.0,"ef_tj":0.0}},{"type":"Feature","geometry":{"type":"LineString","coordinates":[[-12.5899,52.71995,9440.0],[-12.39938,52.69558,9450.0]]},"properties":{"ef_share":0.0,"ef_tj":0.0}},{"type":"Feature","geometry":{"type":"LineString","coordinates":[[-12.39938,52.69558,9450.0],[-12.20933,52.67089,9930.0]]},"properties":{"ef_share":0.0,"ef_tj":0.0}},{"type":"Feature","geometry":{"type":"LineString","coordinates":[[-12.20933,52.67089,9930.0],[-12.02273,52.64644,10470.0]]},"properties":{"ef_share":0.0,"ef_tj":0.0}},{"type":"Feature","geometry":{"type":"LineString","coordinates":[[-12.02273,52.64644,10470.0],[-11.83809,52.62179,10660.0]]},"properties":{"ef_share":0.0,"ef_tj":0.0}},{"type":"Feature","geometry":{"type":"LineString","coordinates":[[-11.83809,52.62179,10660.0],[-11.65449,52.59699,10660.0]]},"properties":{"ef_share":0.0,"ef_tj":0.0}},{"type":"Feature","geometry":{"type":"LineString","coordinates":[[-11.65449,52.59699,10660.0],[-11.47149,52.57198,10660.0]]},"properties":{"ef_share":0.0,"ef_tj":0.0}},{"type":"Feature","geometry":{"type":"LineString","coordinates":[[-11.47149,52.57198,10660.0],[-11.28943,52.54678,10660.0]]},"properties":{"ef_share":0.0,"ef_tj":0.0}},{"type":"Feature","geometry":{"type":"LineString","coordinates":[[-11.28943,52.54678,10660.0],[-11.10808,52.52138,10660.0]]},"properties":{"ef_share":0.0,"ef_tj":0.0}},{"type":"Feature","geometry":{"type":"LineString","coordinates":[[-11.10808,52.52138,10660.0],[-10.9277,52.49585,10660.0]]},"properties":{"ef_share":0.0,"ef_tj":0.0}},{"type":"Feature","geometry":{"type":"LineString","coordinates":[[-10.9277,52.49585,10660.0],[-10.74799,52.47005,10660.0]]},"properties":{"ef_share":0.0,"ef_tj":0.0}},{"type":"Feature","geometry":{"type":"LineString","coordinates":[[-10.74799,52.47005,10660.0],[-10.56874,52.44404,10660.0]]},"properties":{"ef_share":0.0,"ef_tj":0.0}},{"type":"Feature","geometry":{"type":"LineString","coordinates":[[-10.56874,52.44404,10660.0],[-10.39026,52.41784,10660.0]]},"properties":{"ef_share":0.0,"ef_tj":0.0}},{"type":"Feature","geometry":{"type":"LineString","coordinates":[[-10.39026,52.41784,10660.0],[-10.21242,52.39147,10660.0]]},"properties":{"ef_share":0.0,"ef_tj":0.0}},{"type":"Feature","geometry":{"type":"LineString","coordinates":[[-10.21242,52.39147,10660.0],[-10.03416,52.36469,10660.0]]},"properties":{"ef_share":0.0,"ef_tj":0.0}},{"type":"Feature","geometry":{"type":"LineString","coordinates":[[-10.03416,52.36469,10660.0],[-9.85627,52.33767,10660.0]]},"properties":{"ef_share":0.0,"ef_tj":0.0}},{"type":"Feature","geometry":{"type":"LineString","coordinates":[[-9.85627,52.33767,10660.0],[-9.67885,52.31042,10660.0]]},"properties":{"ef_share":0.0,"ef_tj":0.0}},{"type":"Feature","geometry":{"type":"LineString","coordinates":[[-9.67885,52.31042,10660.0],[-9.50158,52.28291,10670.0]]},"properties":{"ef_share":0.0,"ef_tj":0.0}},{"type":"Feature","geometry":{"type":"LineString","coordinates":[[-9.50158,52.28291,10670.0],[-9.325,52.25525,10660.0]]},"properties":{"ef_share":0.0,"ef_tj":0.0}},{"type":"Feature","geometry":{"type":"LineString","coordinates":[[-9.325,52.25525,10660.0],[-9.14794,52.22713,10660.0]]},"properties":{"ef_share":0.0,"ef_tj":0.0}},{"type":"Feature","geometry":{"type":"LineString","coordinates":[[-9.14794,52.22713,10660.0],[-8.97217,52.1989,10660.0]]},"properties":{"ef_share":0.0,"ef_tj":0.0}},{"type":"Feature","geometry":{"type":"LineString","coordinates":[[-8.97217,52.1989,10660.0],[-8.79721,52.17058,10660.0]]},"properties":{"ef_share":0.0,"ef_tj":0.0}},{"type":"Feature","geometry":{"type":"LineString","coordinates":[[-8.79721,52.17058,10660.0],[-8.62252,52.14204,10670.0]]},"properties":{"ef_share":0.0,"ef_tj":0.0}},{"type":"Feature","geometry":{"type":"LineString","coordinates":[[-8.62252,52.14204,10670.0],[-8.44836,52.1132,10660.0]]},"properties":{"ef_share":0.0,"ef_tj":0.0}},{"type":"Feature","geometry":{"type":"LineString","coordinates":[[-8.44836,52.1132,10660.0],[-8.27443,52.08414,10660.0]]},"properties":{"ef_share":0.0,"ef_tj":0.0}},{"type":"Feature","geometry":{"type":"LineString","coordinates":[[-8.27443,52.08414,10660.0],[-8.10142,52.05492,10670.0]]},"properties":{"ef_share":0.0,"ef_tj":0.0}},{"type":"Feature","geometry":{"type":"LineString","coordinates":[[-8.10142,52.05492,10670.0],[-7.92833,52.02541,10660.0]]},"properties":{"ef_share":0.0,"ef_tj":0.0}},{"type":"Feature","geometry":{"type":"LineString","coordinates":[[-7.92833,52.02541,10660.0],[-7.75581,51.99575,10660.0]]},"properties":{"ef_share":0.0,"ef_tj":0.0}},{"type":"Feature","geometry":{"type":"LineString","coordinates":[[-7.75581,51.99575,10660.0],[-7.5834,51.96577,10660.0]]},"properties":{"ef_share":0.0,"ef_tj":0.0}},{"type":"Feature","geometry":{"type":"LineString","coordinates":[[-7.5834,51.96577,10660.0],[-7.41148,51.93556,10660.0]]},"properties":{"ef_share":0.0,"ef_tj":0.0}},{"type":"Feature","geometry":{"type":"LineString","coordinates":[[-7.41148,51.93556,10660.0],[-7.23921,51.90506,10660.0]]},"properties":{"ef_share":0.0,"ef_tj":0.0}},{"type":"Feature","geometry":{"type":"LineString","coordinates":[[-7.23921,51.90506,10660.0],[-7.06812,51.87441,10660.0]]},"properties":{"ef_share":0.0,"ef_tj":0.0}},{"type":"Feature","geometry":{"type":"LineString","coordinates":[[-7.06812,51.87441,10660.0],[-6.89699,51.84351,10670.0]]},"properties":{"ef_share":0.0,"ef_tj":0.0}},{"type":"Feature","geometry":{"type":"LineString","coordinates":[[-6.89699,51.84351,10670.0],[-6.72674,51.81246,10660.0]]},"properties":{"ef_share":0.0,"ef_tj":0.0}},{"type":"Feature","geometry":{"type":"LineString","coordinates":[[-6.72674,51.81246,10660.0],[-6.55621,51.78295,10660.0]]},"properties":{"ef_share":0.0,"ef_tj":0.0}},{"type":"Feature","geometry":{"type":"LineString","coordinates":[[-6.55621,51.78295,10660.0],[-6.38008,51.77171,10660.0]]},"properties":{"ef_share":0.0,"ef_tj":0.0}},{"type":"Feature","geometry":{"type":"LineString","coordinates":[[-6.38008,51.77171,10660.0],[-6.20308,51.76467,10660.0]]},"properties":{"ef_share":0.0,"ef_tj":0.0}},{"type":"Feature","geometry":{"type":"LineString","coordinates":[[-6.20308,51.76467,10660.0],[-6.02582,51.75799,10660.0]]},"properties":{"ef_share":0.0,"ef_tj":0.0}},{"type":"Feature","geometry":{"type":"LineString","coordinates":[[-6.02582,51.75799,10660.0],[-5.84885,51.75113,10660.0]]},"properties":{"ef_share":0.0,"ef_tj":0.0}},{"type":"Feature","geometry":{"type":"LineString","coordinates":[[-5.84885,51.75113,10660.0],[-5.67192,51.74388,10660.0]]},"properties":{"ef_share":0.0,"ef_tj":0.0}},{"type":"Feature","geometry":{"type":"LineString","coordinates":[[-5.67192,51.74388,10660.0],[-5.49503,51.73638,10660.0]]},"properties":{"ef_share":0.0,"ef_tj":0.0}},{"type":"Feature","geometry":{"type":"LineString","coordinates":[[-5.49503,51.73638,10660.0],[-5.3182,51.72855,10670.0]]},"properties":{"ef_share":0.0,"ef_tj":0.0}},{"type":"Feature","geometry":{"type":"LineString","coordinates":[[-5.3182,51.72855,10670.0],[-5.14142,51.72053,10660.0]]},"properties":{"ef_share":0.0,"ef_tj":0.0}},{"type":"Feature","geometry":{"type":"LineString","coordinates":[[-5.14142,51.72053,10660.0],[-4.96433,51.71221,10660.0]]},"properties":{"ef_share":0.0,"ef_tj":0.0}},{"type":"Feature","geometry":{"type":"LineString","coordinates":[[-4.96433,51.71221,10660.0],[-4.78749,51.70363,10660.0]]},"properties":{"ef_share":0.0,"ef_tj":0.0}},{"type":"Feature","geometry":{"type":"LineString","coordinates":[[-4.78749,51.70363,10660.0],[-4.61056,51.69476,10660.0]]},"properties":{"ef_share":0.0,"ef_tj":0.0}},{"type":"Feature","geometry":{"type":"LineString","coordinates":[[-4.61056,51.69476,10660.0],[-4.43359,51.6856,10660.0]]},"properties":{"ef_share":0.0,"ef_tj":0.0}},{"type":"Feature","geometry":{"type":"LineString","coordinates":[[-4.43359,51.6856,10660.0],[-4.25682,51.67629,10660.0]]},"properties":{"ef_share":0.0,"ef_tj":0.0}},{"type":"Feature","geometry":{"type":"LineString","coordinates":[[-4.25682,51.67629,10660.0],[-4.08003,51.66659,10660.0]]},"properties":{"ef_share":0.0,"ef_tj":0.0}},{"type":"Feature","geometry":{"type":"LineString","coordinates":[[-4.08003,51.66659,10660.0],[-3.90305,51.65663,10660.0]]},"properties":{"ef_share":0.0,"ef_tj":0.0}},{"type":"Feature","geometry":{"type":"LineString","coordinates":[[-3.90305,51.65663,10660.0],[-3.72583,51.64645,10660.0]]},"properties":{"ef_share":0.0,"ef_tj":0.0}},{"type":"Feature","geometry":{"type":"LineString","coordinates":[[-3.72583,51.64645,10660.0],[-3.54857,51.63596,10660.0]]},"properties":{"ef_share":0.0,"ef_tj":0.0}},{"type":"Feature","geometry":{"type":"LineString","coordinates":[[-3.54857,51.63596,10660.0],[-3.37143,51.62518,10660.0]]},"properties":{"ef_share":0.0,"ef_tj":0.0}},{"type":"Feature","geometry":{"type":"LineString","coordinates":[[-3.37143,51.62518,10660.0],[-3.19418,51.61409,10660.0]]},"properties":{"ef_share":0.0,"ef_tj":0.0}},{"type":"Feature","geometry":{"type":"LineString","coordinates":[[-3.19418,51.61409,10660.0],[-3.01708,51.60283,10660.0]]},"properties":{"ef_share":0.0,"ef_tj":0.0}},{"type":"Feature","geometry":{"type":"LineString","coordinates":[[-3.01708,51.60283,10660.0],[-2.84002,51.59121,10670.0]]},"properties":{"ef_share":0.0,"ef_tj":0.0}},{"type":"Feature","geometry":{"type":"LineString","coordinates":[[-2.84002,51.59121,10670.0],[-2.66226,51.57932,10660.0]]},"properties":{"ef_share":0.0,"ef_tj":0.0}},{"type":"Feature","geometry":{"type":"LineString","coordinates":[[-2.66226,51.57932,10660.0],[-2.4847,51.56716,10660.0]]},"properties":{"ef_share":0.0,"ef_tj":0.0}},{"type":"Feature","geometry":{"type":"LineString","coordinates":[[-2.4847,51.56716,10660.0],[-2.30679,51.55468,10660.0]]},"properties":{"ef_share":0.0,"ef_tj":0.0}},{"type":"Feature","geometry":{"type":"LineString","coordinates":[[-2.30679,51.55468,10660.0],[-2.12878,51.54199,10660.0]]},"properties":{"ef_share":0.0,"ef_tj":0.0}},{"type":"Feature","geometry":{"type":"LineString","coordinates":[[-2.12878,51.54199,10660.0],[-1.95091,51.52895,10660.0]]},"properties":{"ef_share":0.0,"ef_tj":0.0}},{"type":"Feature","geometry":{"type":"LineString","coordinates":[[-1.95091,51.52895,10660.0],[-1.77275,51.51563,10660.0]]},"properties":{"ef_share":0.0,"ef_tj":0.0}},{"type":"Feature","geometry":{"type":"LineString","coordinates":[[-1.77275,51.51563,10660.0],[-1.59417,51.50204,10660.0]]},"properties":{"ef_share":0.0,"ef_tj":0.0}},{"type":"Feature","geometry":{"type":"LineString","coordinates":[[-1.59417,51.50204,10660.0],[-1.4155,51.4881,10660.0]]},"properties":{"ef_share":0.0,"ef_tj":0.0}},{"type":"Feature","geometry":{"type":"LineString","coordinates":[[-1.4155,51.4881,10660.0],[-1.2367,51.47392,10660.0]]},"properties":{"ef_share":0.0,"ef_tj":0.0}},{"type":"Feature","geometry":{"type":"LineString","coordinates":[[-1.2367,51.47392,10660.0],[-1.05791,51.45945,10660.0]]},"properties":{"ef_share":0.0,"ef_tj":0.0}},{"type":"Feature","geometry":{"type":"LineString","coordinates":[[-1.05791,51.45945,10660.0],[-0.87944,51.44469,10660.0]]},"properties":{"ef_share":0.0,"ef_tj":0.0}},{"type":"Feature","geometry":{"type":"LineString","coordinates":[[-0.87944,51.44469,10660.0],[-0.70114,51.42971,10660.0]]},"properties":{"ef_share":0.0,"ef_tj":0.0}},{"type":"Feature","geometry":{"type":"LineString","coordinates":[[-0.70114,51.42971,10660.0],[-0.52279,51.4144,10660.0]]},"properties":{"ef_share":0.0,"ef_tj":0.0}},{"type":"Feature","geometry":{"type":"LineString","coordinates":[[-0.52279,51.4144,10660.0],[-0.34468,51.39884,10660.0]]},"properties":{"ef_share":0.0,"ef_tj":0.0}},{"type":"Feature","geometry":{"type":"LineString","coordinates":[[-0.34468,51.39884,10660.0],[-0.16647,51.38299,10660.0]]},"properties":{"ef_share":0.0,"ef_tj":0.0}},{"type":"Feature","geometry":{"type":"LineString","coordinates":[[-0.16647,51.38299,10660.0],[0.01148,51.36691,10660.0]]},"properties":{"ef_share":0.0,"ef_tj":0.0}},{"type":"Feature","geometry":{"type":"LineString","coordinates":[[0.01148,51.36691,10660.0],[0.18969,51.35053,10660.0]]},"properties":{"ef_share":0.0,"ef_tj":0.0}},{"type":"Feature","geometry":{"type":"LineString","coordinates":[[0.18969,51.35053,10660.0],[0.36762,51.3338,10660.0]]},"properties":{"ef_share":0.0,"ef_tj":0.0}},{"type":"Feature","geometry":{"type":"LineString","coordinates":[[0.36762,51.3338,10660.0],[0.54541,51.31691,10660.0]]},"properties":{"ef_share":0.0,"ef_tj":0.0}},{"type":"Feature","geometry":{"type":"LineString","coordinates":[[0.54541,51.31691,10660.0],[0.72323,51.29966,10660.0]]},"properties":{"ef_share":0.0,"ef_tj":0.0}},{"type":"Feature","geometry":{"type":"LineString","coordinates":[[0.72323,51.29966,10660.0],[0.90093,51.28222,10660.0]]},"properties":{"ef_share":0.0,"ef_tj":0.0}},{"type":"Feature","geometry":{"type":"LineString","coordinates":[[0.90093,51.28222,10660.0],[1.07893,51.26442,10660.0]]},"properties":{"ef_share":0.0,"ef_tj":0.0}},{"type":"Feature","geometry":{"type":"LineString","coordinates":[[1.07893,51.26442,10660.0],[1.25696,51.24633,10660.0]]},"properties":{"ef_share":0.0,"ef_tj":0.0}},{"type":"Feature","geometry":{"type":"LineString","coordinates":[[1.25696,51.24633,10660.0],[1.43525,51.22792,10660.0]]},"properties":{"ef_share":0.0,"ef_tj":0.0}},{"type":"Feature","geometry":{"type":"LineString","coordinates":[[1.43525,51.22792,10660.0],[1.61354,51.20858,10660.0]]},"properties":{"ef_share":0.0,"ef_tj":0.0}},{"type":"Feature","geometry":{"type":"LineString","coordinates":[[1.61354,51.20858,10660.0],[1.79068,51.18368,10660.0]]},"properties":{"ef_share":0.0,"ef_tj":0.0}},{"type":"Feature","geometry":{"type":"LineString","coordinates":[[1.79068,51.18368,10660.0],[1.96705,51.15615,10660.0]]},"properties":{"ef_share":0.0,"ef_tj":0.0}},{"type":"Feature","geometry":{"type":"LineString","coordinates":[[1.96705,51.15615,10660.0],[2.1433,51.12843,10670.0]]},"properties":{"ef_share":0.0,"ef_tj":0.0}},{"type":"Feature","geometry":{"type":"LineString","coordinates":[[2.1433,51.12843,10670.0],[2.31983,51.10083,10660.0]]},"properties":{"ef_share":0.0,"ef_tj":0.0}},{"type":"Feature","geometry":{"type":"LineString","coordinates":[[2.31983,51.10083,10660.0],[2.4965,51.07291,10660.0]]},"properties":{"ef_share":0.0,"ef_tj":0.0}},{"type":"Feature","geometry":{"type":"LineString","coordinates":[[2.4965,51.07291,10660.0],[2.67322,51.04472,10660.0]]},"properties":{"ef_share":0.0,"ef_tj":0.000815}},{"type":"Feature","geometry":{"type":"LineString","coordinates":[[2.67322,51.04472,10660.0],[2.85011,51.01615,10660.0]]},"properties":{"ef_share":0.001,"ef_tj":0.005643}},{"type":"Feature","geometry":{"type":"LineString","coordinates":[[2.85011,51.01615,10660.0],[3.02684,50.98731,10670.0]]},"properties":{"ef_share":0.197,"ef_tj":0.809631}},{"type":"Feature","geometry":{"type":"LineString","coordinates":[[3.02684,50.98731,10670.0],[3.20342,50.95824,10660.0]]},"properties":{"ef_share":0.353,"ef_tj":1.455998}},{"type":"Feature","geometry":{"type":"LineString","coordinates":[[3.20342,50.95824,10660.0],[3.37984,50.92884,10660.0]]},"properties":{"ef_share":0.438,"ef_tj":1.802926}},{"type":"Feature","geometry":{"type":"LineString","coordinates":[[3.37984,50.92884,10660.0],[3.55618,50.89917,10670.0]]},"properties":{"ef_share":0.483,"ef_tj":1.989118}},{"type":"Feature","geometry":{"type":"LineString","coordinates":[[3.55618,50.89917,10670.0],[3.73263,50.86917,10660.0]]},"properties":{"ef_share":0.505,"ef_tj":2.08163}},{"type":"Feature","geometry":{"type":"LineString","coordinates":[[3.73263,50.86917,10660.0],[3.90951,50.83877,10670.0]]},"properties":{"ef_share":0.531,"ef_tj":2.186083}},{"type":"Feature","geometry":{"type":"LineString","coordinates":[[3.90951,50.83877,10670.0],[4.08662,50.80809,10660.0]]},"properties":{"ef_share":0.242,"ef_tj":0.996775}},{"type":"Feature","geometry":{"type":"LineString","coordinates":[[4.08662,50.80809,10660.0],[4.2641,50.77694,10660.0]]},"properties":{"ef_share":0.238,"ef_tj":0.980275}},{"type":"Feature","geometry":{"type":"LineString","coordinates":[[4.2641,50.77694,10660.0],[4.44167,50.74553,10670.0]]},"properties":{"ef_share":0.222,"ef_tj":0.916295}},{"type":"Feature","geometry":{"type":"LineString","coordinates":[[4.44167,50.74553,10670.0],[4.61929,50.7137,10660.0]]},"properties":{"ef_share":0.204,"ef_tj":0.842096}},{"type":"Feature","geometry":{"type":"LineString","coordinates":[[4.61929,50.7137,10660.0],[4.79726,50.6816,10670.0]]},"properties":{"ef_share":0.278,"ef_tj":1.144518}},{"type":"Feature","geometry":{"type":"LineString","coordinates":[[4.79726,50.6816,10670.0],[4.9754,50.64913,10670.0]]},"properties":{"ef_share":0.307,"ef_tj":1.265827}},{"type":"Feature","geometry":{"type":"LineString","coordinates":[[4.9754,50.64913,10670.0],[5.15343,50.61637,10640.0]]},"properties":{"ef_share":0.166,"ef_tj":0.685131}},{"type":"Feature","geometry":{"type":"LineString","coordinates":[[5.15343,50.61637,10640.0],[5.33051,50.5835,10140.0]]},"properties":{"ef_share":0.089,"ef_tj":0.365931}},{"type":"Feature","geometry":{"type":"LineString","coordinates":[[5.33051,50.5835,10140.0],[5.51,50.54964,9620.0]]},"properties":{"ef_share":0.914,"ef_tj":3.764232}},{"type":"Feature","geometry":{"type":"LineString","coordinates":[[5.51,50.54964,9620.0],[5.68643,50.51608,9130.0]]},"properties":{"ef_share":1.0,"ef_tj":4.120053}},{"type":"Feature","geometry":{"type":"LineString","coordinates":[[5.68643,50.51608,9130.0],[5.85876,50.48365,8590.0]]},"properties":{"ef_share":0.0,"ef_tj":0.0}},{"type":"Feature","geometry":{"type":"LineString","coordinates":[[5.85876,50.48365,8590.0],[6.02723,50.45095,8040.0]]},"properties":{"ef_share":0.0,"ef_tj":0.0}},{"type":"Feature","geometry":{"type":"LineString","coordinates":[[6.02723,50.45095,8040.0],[6.19257,50.4186,7630.0]]},"properties":{"ef_share":0.0,"ef_tj":0.0}},{"type":"Feature","geometry":{"type":"LineString","coordinates":[[6.19257,50.4186,7630.0],[6.35296,50.38731,7610.0]]},"properties":{"ef_share":0.0,"ef_tj":0.0}},{"type":"Feature","geometry":{"type":"LineString","coordinates":[[6.35296,50.38731,7610.0],[6.50984,50.34511,7510.0]]},"properties":{"ef_share":0.0,"ef_tj":0.0}},{"type":"Feature","geometry":{"type":"LineString","coordinates":[[6.50984,50.34511,7510.0],[6.60123,50.25152,6910.0]]},"properties":{"ef_share":0.0,"ef_tj":0.0}},{"type":"Feature","geometry":{"type":"LineString","coordinates":[[6.60123,50.25152,6910.0],[6.67185,50.15278,6310.0]]},"properties":{"ef_share":0.0,"ef_tj":0.0}},{"type":"Feature","geometry":{"type":"LineString","coordinates":[[6.67185,50.15278,6310.0],[6.73948,50.05837,5490.0]]},"properties":{"ef_share":0.0,"ef_tj":0.0}},{"type":"Feature","geometry":{"type":"LineString","coordinates":[[6.73948,50.05837,5490.0],[6.80556,49.96735,4680.0]]},"properties":{"ef_share":0.0,"ef_tj":0.0}},{"type":"Feature","geometry":{"type":"LineString","coordinates":[[6.80556,49.96735,4680.0],[6.8681,49.87968,3910.0]]},"properties":{"ef_share":0.0,"ef_tj":0.0}},{"type":"Feature","geometry":{"type":"LineString","coordinates":[[6.8681,49.87968,3910.0],[6.92972,49.79553,3300.0]]},"properties":{"ef_share":0.0,"ef_tj":0.0}},{"type":"Feature","geometry":{"type":"LineString","coordinates":[[6.92972,49.79553,3300.0],[6.98305,49.7208,3000.0]]},"properties":{"ef_share":0.0,"ef_tj":0.0}},{"type":"Feature","geometry":{"type":"LineString","coordinates":[[6.98305,49.7208,3000.0],[7.03136,49.65254,2640.0]]},"properties":{"ef_share":0.0,"ef_tj":0.0}},{"type":"Feature","geometry":{"type":"LineString","coordinates":[[7.03136,49.65254,2640.0],[7.07946,49.58671,2260.0]]},"properties":{"ef_share":0.0,"ef_tj":0.0}},{"type":"Feature","geometry":{"type":"LineString","coordinates":[[7.07946,49.58671,2260.0],[7.12422,49.52351,1980.0]]},"properties":{"ef_share":0.0,"ef_tj":0.0}},{"type":"Feature","geometry":{"type":"LineString","coordinates":[[7.12422,49.52351,1980.0],[7.16273,49.46805,1670.0]]},"properties":{"ef_share":0.0,"ef_tj":0.0}},{"type":"Feature","geometry":{"type":"LineString","coordinates":[[7.16273,49.46805,1670.0],[7.21764,49.43173,1230.0]]},"properties":{"ef_share":0.0,"ef_tj":0.0}},{"type":"Feature","geometry":{"type":"LineString","coordinates":[[7.21764,49.43173,1230.0],[7.28631,49.41246,1090.0]]},"properties":{"ef_share":0.0,"ef_tj":0.0}}]}