{"type":"FeatureCollection","properties":{"icao24":"a1f4c5","registration":"N225NE","owner_label":"New England Patriots","combined_co2e_central":40143.8,"fuel_co2_kg":44261.4,"contrail_co2e_central":-4117.6,"tier":"high"},"features":[{"type":"Feature","geometry":{"type":"LineString","coordinates":[[7.45924,49.44829,1410.0],[7.36232,49.46055,1790.0]]},"properties":{"ef_share":0.0,"ef_tj":0.0}},{"type":"Feature","geometry":{"type":"LineString","coordinates":[[7.36232,49.46055,1790.0],[7.24667,49.47602,2600.0]]},"properties":{"ef_share":0.0,"ef_tj":0.0}},{"type":"Feature","geometry":{"type":"LineString","coordinates":[[7.24667,49.47602,2600.0],[7.12757,49.49188,3290.0]]},"properties":{"ef_share":0.0,"ef_tj":0.0}},{"type":"Feature","geometry":{"type":"LineString","coordinates":[[7.12757,49.49188,3290.0],[7.00241,49.53208,3620.0]]},"properties":{"ef_share":0.0,"ef_tj":0.0}},{"type":"Feature","geometry":{"type":"LineString","coordinates":[[7.00241,49.53208,3620.0],[6.88849,49.60846,4350.0]]},"properties":{"ef_share":0.0,"ef_tj":0.0}},{"type":"Feature","geometry":{"type":"LineString","coordinates":[[6.88849,49.60846,4350.0],[6.77835,49.6866,5090.0]]},"properties":{"ef_share":0.0,"ef_tj":0.0}},{"type":"Feature","geometry":{"type":"LineString","coordinates":[[6.77835,49.6866,5090.0],[6.66182,49.76871,5680.0]]},"properties":{"ef_share":0.0,"ef_tj":0.0}},{"type":"Feature","geometry":{"type":"LineString","coordinates":[[6.66182,49.76871,5680.0],[6.53231,49.84626,6270.0]]},"properties":{"ef_share":0.0,"ef_tj":0.0}},{"type":"Feature","geometry":{"type":"LineString","coordinates":[[6.53231,49.84626,6270.0],[6.39883,49.92458,6790.0]]},"properties":{"ef_share":0.0,"ef_tj":0.0}},{"type":"Feature","geometry":{"type":"LineString","coordinates":[[6.39883,49.92458,6790.0],[6.26483,50.00615,7280.0]]},"properties":{"ef_share":0.0,"ef_tj":0.0}},{"type":"Feature","geometry":{"type":"LineString","coordinates":[[6.26483,50.00615,7280.0],[6.19457,50.11866,7770.0]]},"properties":{"ef_share":0.0,"ef_tj":0.0}},{"type":"Feature","geometry":{"type":"LineString","coordinates":[[6.19457,50.11866,7770.0],[6.14479,50.23644,8390.0]]},"properties":{"ef_share":0.0,"ef_tj":0.0}},{"type":"Feature","geometry":{"type":"LineString","coordinates":[[6.14479,50.23644,8390.0],[6.02331,50.32173,8860.0]]},"properties":{"ef_share":-0.689,"ef_tj":-2.174279}},{"type":"Feature","geometry":{"type":"LineString","coordinates":[[6.02331,50.32173,8860.0],[5.86995,50.38421,9140.0]]},"properties":{"ef_share":-1.0,"ef_tj":-3.155222}},{"type":"Feature","geometry":{"type":"LineString","coordinates":[[5.86995,50.38421,9140.0],[5.71479,50.44604,9140.0]]},"properties":{"ef_share":-0.449,"ef_tj":-1.415423}},{"type":"Feature","geometry":{"type":"LineString","coordinates":[[5.71479,50.44604,9140.0],[5.56033,50.50747,9140.0]]},"properties":{"ef_share":-0.618,"ef_tj":-1.951067}},{"type":"Feature","geometry":{"type":"LineString","coordinates":[[5.56033,50.50747,9140.0],[5.40676,50.56827,9140.0]]},"properties":{"ef_share":-0.554,"ef_tj":-1.74681}},{"type":"Feature","geometry":{"type":"LineString","coordinates":[[5.40676,50.56827,9140.0],[5.25362,50.62861,9140.0]]},"properties":{"ef_share":-0.464,"ef_tj":-1.462816}},{"type":"Feature","geometry":{"type":"LineString","coordinates":[[5.25362,50.62861,9140.0],[5.10066,50.68845,9140.0]]},"properties":{"ef_share":-0.375,"ef_tj":-1.183416}},{"type":"Feature","geometry":{"type":"LineString","coordinates":[[5.10066,50.68845,9140.0],[4.94658,50.74822,9130.0]]},"properties":{"ef_share":-0.276,"ef_tj":-0.872289}},{"type":"Feature","geometry":{"type":"LineString","coordinates":[[4.94658,50.74822,9130.0],[4.7907,50.80872,9140.0]]},"properties":{"ef_share":-0.077,"ef_tj":-0.244168}},{"type":"Feature","geometry":{"type":"LineString","coordinates":[[4.7907,50.80872,9140.0],[4.63221,50.86963,9140.0]]},"properties":{"ef_share":-0.019,"ef_tj":-0.060527}},{"type":"Feature","geometry":{"type":"LineString","coordinates":[[4.63221,50.86963,9140.0],[4.47134,50.93097,9140.0]]},"properties":{"ef_share":-0.009,"ef_tj":-0.028663}},{"type":"Feature","geometry":{"type":"LineString","coordinates":[[4.47134,50.93097,9140.0],[4.30165,50.97762,9140.0]]},"properties":{"ef_share":0.0,"ef_tj":0.0}},{"type":"Feature","geometry":{"type":"LineString","coordinates":[[4.30165,50.97762,9140.0],[4.13907,51.01803,9130.0]]},"properties":{"ef_share":0.0,"ef_tj":0.0}},{"type":"Feature","geometry":{"type":"LineString","coordinates":[[4.13907,51.01803,9130.0],[3.9815,51.05458,9140.0]]},"properties":{"ef_share":0.0,"ef_tj":0.0}},{"type":"Feature","geometry":{"type":"LineString","coordinates":[[3.9815,51.05458,9140.0],[3.82635,51.08989,9140.0]]},"properties":{"ef_share":0.0,"ef_tj":0.0}},{"type":"Feature","geometry":{"type":"LineString","coordinates":[[3.82635,51.08989,9140.0],[3.67385,51.12349,9140.0]]},"properties":{"ef_share":0.0,"ef_tj":0.0}},{"type":"Feature","geometry":{"type":"LineString","coordinates":[[3.67385,51.12349,9140.0],[3.52328,51.15523,9140.0]]},"properties":{"ef_share":0.0,"ef_tj":0.0}},{"type":"Feature","geometry":{"type":"LineString","coordinates":[[3.52328,51.15523,9140.0],[3.37038,51.18471,9140.0]]},"properties":{"ef_share":0.0,"ef_tj":0.0}},{"type":"Feature","geometry":{"type":"LineString","coordinates":[[3.37038,51.18471,9140.0],[3.21282,51.21542,9140.0]]},"properties":{"ef_share":0.0,"ef_tj":0.0}},{"type":"Feature","geometry":{"type":"LineString","coordinates":[[3.21282,51.21542,9140.0],[3.05398,51.24618,9140.0]]},"properties":{"ef_share":0.0,"ef_tj":0.0}},{"type":"Feature","geometry":{"type":"LineString","coordinates":[[3.05398,51.24618,9140.0],[2.89587,51.27642,9140.0]]},"properties":{"ef_share":0.0,"ef_tj":0.0}},{"type":"Feature","geometry":{"type":"LineString","coordinates":[[2.89587,51.27642,9140.0],[2.73829,51.30634,9140.0]]},"properties":{"ef_share":0.0,"ef_tj":0.0}},{"type":"Feature","geometry":{"type":"LineString","coordinates":[[2.73829,51.30634,9140.0],[2.57996,51.33614,9140.0]]},"properties":{"ef_share":0.0,"ef_tj":0.0}},{"type":"Feature","geometry":{"type":"LineString","coordinates":[[2.57996,51.33614,9140.0],[2.42009,51.36591,9140.0]]},"properties":{"ef_share":0.0,"ef_tj":0.0}},{"type":"Feature","geometry":{"type":"LineString","coordinates":[[2.42009,51.36591,9140.0],[2.25897,51.39573,9140.0]]},"properties":{"ef_share":0.0,"ef_tj":0.0}},{"type":"Feature","geometry":{"type":"LineString","coordinates":[[2.25897,51.39573,9140.0],[2.09751,51.4253,9140.0]]},"properties":{"ef_share":0.0,"ef_tj":0.0}},{"type":"Feature","geometry":{"type":"LineString","coordinates":[[2.09751,51.4253,9140.0],[1.93475,51.4528,9140.0]]},"properties":{"ef_share":0.0,"ef_tj":0.0}},{"type":"Feature","geometry":{"type":"LineString","coordinates":[[1.93475,51.4528,9140.0],[1.76963,51.47254,9140.0]]},"properties":{"ef_share":0.0,"ef_tj":0.0}},{"type":"Feature","geometry":{"type":"LineString","coordinates":[[1.76963,51.47254,9140.0],[1.60657,51.49032,9140.0]]},"properties":{"ef_share":0.0,"ef_tj":0.0}},{"type":"Feature","geometry":{"type":"LineString","coordinates":[[1.60657,51.49032,9140.0],[1.44555,51.50823,9140.0]]},"properties":{"ef_share":0.0,"ef_tj":0.0}},{"type":"Feature","geometry":{"type":"LineString","coordinates":[[1.44555,51.50823,9140.0],[1.2864,51.52591,9140.0]]},"properties":{"ef_share":0.0,"ef_tj":0.0}},{"type":"Feature","geometry":{"type":"LineString","coordinates":[[1.2864,51.52591,9140.0],[1.12933,51.54349,9130.0]]},"properties":{"ef_share":0.0,"ef_tj":0.0}},{"type":"Feature","geometry":{"type":"LineString","coordinates":[[1.12933,51.54349,9130.0],[0.97242,51.56025,9140.0]]},"properties":{"ef_share":0.0,"ef_tj":0.0}},{"type":"Feature","geometry":{"type":"LineString","coordinates":[[0.97242,51.56025,9140.0],[0.81459,51.57736,9140.0]]},"properties":{"ef_share":0.0,"ef_tj":0.0}},{"type":"Feature","geometry":{"type":"LineString","coordinates":[[0.81459,51.57736,9140.0],[0.65562,51.59416,9140.0]]},"properties":{"ef_share":0.0,"ef_tj":0.0}},{"type":"Feature","geometry":{"type":"LineString","coordinates":[[0.65562,51.59416,9140.0],[0.498,51.61061,9130.0]]},"properties":{"ef_share":0.0,"ef_tj":0.0}},{"type":"Feature","geometry":{"type":"LineString","coordinates":[[0.498,51.61061,9130.0],[0.34251,51.62663,9140.0]]},"properties":{"ef_share":0.0,"ef_tj":0.0}},{"type":"Feature","geometry":{"type":"LineString","coordinates":[[0.34251,51.62663,9140.0],[0.18932,51.64302,9140.0]]},"properties":{"ef_share":0.0,"ef_tj":0.0}},{"type":"Feature","geometry":{"type":"LineString","coordinates":[[0.18932,51.64302,9140.0],[0.08182,51.70343,9140.0]]},"properties":{"ef_share":0.0,"ef_tj":0.0}},{"type":"Feature","geometry":{"type":"LineString","coordinates":[[0.08182,51.70343,9140.0],[-0.00599,51.7758,9140.0]]},"properties":{"ef_share":0.0,"ef_tj":0.0}},{"type":"Feature","geometry":{"type":"LineString","coordinates":[[-0.00599,51.7758,9140.0],[-0.09311,51.84809,9140.0]]},"properties":{"ef_share":0.0,"ef_tj":0.0}},{"type":"Feature","geometry":{"type":"LineString","coordinates":[[-0.09311,51.84809,9140.0],[-0.18109,51.91982,9140.0]]},"properties":{"ef_share":0.0,"ef_tj":0.0}},{"type":"Feature","geometry":{"type":"LineString","coordinates":[[-0.18109,51.91982,9140.0],[-0.26993,51.99195,9140.0]]},"properties":{"ef_share":0.0,"ef_tj":0.0}},{"type":"Feature","geometry":{"type":"LineString","coordinates":[[-0.26993,51.99195,9140.0],[-0.35992,52.06488,9140.0]]},"properties":{"ef_share":0.0,"ef_tj":0.0}},{"type":"Feature","geometry":{"type":"LineString","coordinates":[[-0.35992,52.06488,9140.0],[-0.45077,52.13823,9140.0]]},"properties":{"ef_share":0.0,"ef_tj":0.0}},{"type":"Feature","geometry":{"type":"LineString","coordinates":[[-0.45077,52.13823,9140.0],[-0.54233,52.21185,9140.0]]},"properties":{"ef_share":0.0,"ef_tj":0.0}},{"type":"Feature","geometry":{"type":"LineString","coordinates":[[-0.54233,52.21185,9140.0],[-0.63427,52.28544,9140.0]]},"properties":{"ef_share":0.0,"ef_tj":0.0}},{"type":"Feature","geometry":{"type":"LineString","coordinates":[[-0.63427,52.28544,9140.0],[-0.72679,52.35912,9130.0]]},"properties":{"ef_share":0.0,"ef_tj":0.0}},{"type":"Feature","geometry":{"type":"LineString","coordinates":[[-0.72679,52.35912,9130.0],[-0.81943,52.43271,9140.0]]},"properties":{"ef_share":0.0,"ef_tj":0.0}},{"type":"Feature","geometry":{"type":"LineString","coordinates":[[-0.81943,52.43271,9140.0],[-0.9126,52.50621,9140.0]]},"properties":{"ef_share":0.0,"ef_tj":0.0}},{"type":"Feature","geometry":{"type":"LineString","coordinates":[[-0.9126,52.50621,9140.0],[-1.00614,52.57981,9140.0]]},"properties":{"ef_share":0.0,"ef_tj":0.0}},{"type":"Feature","geometry":{"type":"LineString","coordinates":[[-1.00614,52.57981,9140.0],[-1.09967,52.65304,9140.0]]},"properties":{"ef_share":0.0,"ef_tj":0.0}},{"type":"Feature","geometry":{"type":"LineString","coordinates":[[-1.09967,52.65304,9140.0],[-1.19325,52.72601,9140.0]]},"properties":{"ef_share":0.0,"ef_tj":0.0}},{"type":"Feature","geometry":{"type":"LineString","coordinates":[[-1.19325,52.72601,9140.0],[-1.28646,52.79838,9140.0]]},"properties":{"ef_share":0.0,"ef_tj":0.0}},{"type":"Feature","geometry":{"type":"LineString","coordinates":[[-1.28646,52.79838,9140.0],[-1.3795,52.87023,9140.0]]},"properties":{"ef_share":0.0,"ef_tj":0.0}},{"type":"Feature","geometry":{"type":"LineString","coordinates":[[-1.3795,52.87023,9140.0],[-1.47316,52.94227,9140.0]]},"properties":{"ef_share":0.0,"ef_tj":0.0}},{"type":"Feature","geometry":{"type":"LineString","coordinates":[[-1.47316,52.94227,9140.0],[-1.56713,53.0143,9140.0]]},"properties":{"ef_share":0.0,"ef_tj":0.0}},{"type":"Feature","geometry":{"type":"LineString","coordinates":[[-1.56713,53.0143,9140.0],[-1.66072,53.0858,9140.0]]},"properties":{"ef_share":0.0,"ef_tj":0.0}},{"type":"Feature","geometry":{"type":"LineString","coordinates":[[-1.66072,53.0858,9140.0],[-1.7544,53.15682,9140.0]]},"properties":{"ef_share":0.0,"ef_tj":0.0}},{"type":"Feature","geometry":{"type":"LineString","coordinates":[[-1.7544,53.15682,9140.0],[-1.84903,53.22746,9140.0]]},"properties":{"ef_share":0.0,"ef_tj":0.0}},{"type":"Feature","geometry":{"type":"LineString","coordinates":[[-1.84903,53.22746,9140.0],[-1.97539,53.27223,9140.0]]},"properties":{"ef_share":0.0,"ef_tj":0.0}},{"type":"Feature","geometry":{"type":"LineString","coordinates":[[-1.97539,53.27223,9140.0],[-2.10616,53.31103,9140.0]]},"properties":{"ef_share":0.0,"ef_tj":0.0}},{"type":"Feature","geometry":{"type":"LineString","coordinates":[[-2.10616,53.31103,9140.0],[-2.23371,53.34852,9130.0]]},"properties":{"ef_share":0.0,"ef_tj":0.0}},{"type":"Feature","geometry":{"type":"LineString","coordinates":[[-2.23371,53.34852,9130.0],[-2.36429,53.3766,9140.0]]},"properties":{"ef_share":0.0,"ef_tj":0.0}},{"type":"Feature","geometry":{"type":"LineString","coordinates":[[-2.36429,53.3766,9140.0],[-2.49675,53.4018,9140.0]]},"properties":{"ef_share":0.0,"ef_tj":0.0}},{"type":"Feature","geometry":{"type":"LineString","coordinates":[[-2.49675,53.4018,9140.0],[-2.63091,53.42708,9140.0]]},"properties":{"ef_share":0.0,"ef_tj":0.0}},{"type":"Feature","geometry":{"type":"LineString","coordinates":[[-2.63091,53.42708,9140.0],[-2.76585,53.45237,9140.0]]},"properties":{"ef_share":0.0,"ef_tj":0.0}},{"type":"Feature","geometry":{"type":"LineString","coordinates":[[-2.76585,53.45237,9140.0],[-2.90183,53.47771,9140.0]]},"properties":{"ef_share":0.0,"ef_tj":0.0}},{"type":"Feature","geometry":{"type":"LineString","coordinates":[[-2.90183,53.47771,9140.0],[-3.03898,53.50299,9140.0]]},"properties":{"ef_share":0.0,"ef_tj":0.0}},{"type":"Feature","geometry":{"type":"LineString","coordinates":[[-3.03898,53.50299,9140.0],[-3.17615,53.52816,9140.0]]},"properties":{"ef_share":0.0,"ef_tj":0.0}},{"type":"Feature","geometry":{"type":"LineString","coordinates":[[-3.17615,53.52816,9140.0],[-3.31253,53.55298,9140.0]]},"properties":{"ef_share":0.0,"ef_tj":0.0}},{"type":"Feature","geometry":{"type":"LineString","coordinates":[[-3.31253,53.55298,9140.0],[-3.44892,53.57762,9140.0]]},"properties":{"ef_share":0.0,"ef_tj":0.0}},{"type":"Feature","geometry":{"type":"LineString","coordinates":[[-3.44892,53.57762,9140.0],[-3.58473,53.60199,9140.0]]},"properties":{"ef_share":0.0,"ef_tj":0.0}},{"type":"Feature","geometry":{"type":"LineString","coordinates":[[-3.58473,53.60199,9140.0],[-3.72297,53.61855,9140.0]]},"properties":{"ef_share":0.0,"ef_tj":0.0}},{"type":"Feature","geometry":{"type":"LineString","coordinates":[[-3.72297,53.61855,9140.0],[-3.86455,53.62441,9140.0]]},"properties":{"ef_share":0.0,"ef_tj":0.0}},{"type":"Feature","geometry":{"type":"LineString","coordinates":[[-3.86455,53.62441,9140.0],[-4.00577,53.62997,9140.0]]},"properties":{"ef_share":0.0,"ef_tj":0.0}},{"type":"Feature","geometry":{"type":"LineString","coordinates":[[-4.00577,53.62997,9140.0],[-4.14724,53.63557,9140.0]]},"properties":{"ef_share":0.0,"ef_tj":0.0}},{"type":"Feature","geometry":{"type":"LineString","coordinates":[[-4.14724,53.63557,9140.0],[-4.28888,53.64098,9140.0]]},"properties":{"ef_share":0.0,"ef_tj":0.0}},{"type":"Feature","geometry":{"type":"LineString","coordinates":[[-4.28888,53.64098,9140.0],[-4.43019,53.64611,9140.0]]},"properties":{"ef_share":0.0,"ef_tj":0.0}},{"type":"Feature","geometry":{"type":"LineString","coordinates":[[-4.43019,53.64611,9140.0],[-4.57134,53.65116,9140.0]]},"properties":{"ef_share":0.0,"ef_tj":0.0}},{"type":"Feature","geometry":{"type":"LineString","coordinates":[[-4.57134,53.65116,9140.0],[-4.71306,53.65602,9140.0]]},"properties":{"ef_share":0.0,"ef_tj":0.0}},{"type":"Feature","geometry":{"type":"LineString","coordinates":[[-4.71306,53.65602,9140.0],[-4.85517,53.66073,9140.0]]},"properties":{"ef_share":0.0,"ef_tj":0.0}},{"type":"Feature","geometry":{"type":"LineString","coordinates":[[-4.85517,53.66073,9140.0],[-4.99788,53.66531,9140.0]]},"properties":{"ef_share":0.0,"ef_tj":0.0}},{"type":"Feature","geometry":{"type":"LineString","coordinates":[[-4.99788,53.66531,9140.0],[-5.14107,53.66972,9140.0]]},"properties":{"ef_share":0.0,"ef_tj":0.0}},{"type":"Feature","geometry":{"type":"LineString","coordinates":[[-5.14107,53.66972,9140.0],[-5.28587,53.67399,9140.0]]},"properties":{"ef_share":0.0,"ef_tj":0.0}},{"type":"Feature","geometry":{"type":"LineString","coordinates":[[-5.28587,53.67399,9140.0],[-5.43005,53.67808,9140.0]]},"properties":{"ef_share":0.0,"ef_tj":0.0}},{"type":"Feature","geometry":{"type":"LineString","coordinates":[[-5.43005,53.67808,9140.0],[-5.57182,53.69367,9140.0]]},"properties":{"ef_share":0.0,"ef_tj":0.0}},{"type":"Feature","geometry":{"type":"LineString","coordinates":[[-5.57182,53.69367,9140.0],[-5.711,53.72059,9140.0]]},"properties":{"ef_share":0.0,"ef_tj":0.0}},{"type":"Feature","geometry":{"type":"LineString","coordinates":[[-5.711,53.72059,9140.0],[-5.8509,53.74724,9140.0]]},"properties":{"ef_share":0.0,"ef_tj":0.0}},{"type":"Feature","geometry":{"type":"LineString","coordinates":[[-5.8509,53.74724,9140.0],[-5.9912,53.77368,9140.0]]},"properties":{"ef_share":0.0,"ef_tj":0.0}},{"type":"Feature","geometry":{"type":"LineString","coordinates":[[-5.9912,53.77368,9140.0],[-6.13127,53.79987,9140.0]]},"properties":{"ef_share":0.0,"ef_tj":0.0}},{"type":"Feature","geometry":{"type":"LineString","coordinates":[[-6.13127,53.79987,9140.0],[-6.27142,53.82604,9140.0]]},"properties":{"ef_share":0.0,"ef_tj":0.0}},{"type":"Feature","geometry":{"type":"LineString","coordinates":[[-6.27142,53.82604,9140.0],[-6.41197,53.85195,9140.0]]},"properties":{"ef_share":0.0,"ef_tj":0.0}},{"type":"Feature","geometry":{"type":"LineString","coordinates":[[-6.41197,53.85195,9140.0],[-6.55252,53.87772,9140.0]]},"properties":{"ef_share":0.0,"ef_tj":0.0}},{"type":"Feature","geometry":{"type":"LineString","coordinates":[[-6.55252,53.87772,9140.0],[-6.69397,53.90344,9140.0]]},"properties":{"ef_share":0.0,"ef_tj":0.0}},{"type":"Feature","geometry":{"type":"LineString","coordinates":[[-6.69397,53.90344,9140.0],[-6.83544,53.92895,9140.0]]},"properties":{"ef_share":0.0,"ef_tj":0.0}},{"type":"Feature","geometry":{"type":"LineString","coordinates":[[-6.83544,53.92895,9140.0],[-6.97634,53.95415,9140.0]]},"properties":{"ef_share":0.0,"ef_tj":0.0}},{"type":"Feature","geometry":{"type":"LineString","coordinates":[[-6.97634,53.95415,9140.0],[-7.11733,53.97928,9140.0]]},"properties":{"ef_share":0.0,"ef_tj":0.0}},{"type":"Feature","geometry":{"type":"LineString","coordinates":[[-7.11733,53.97928,9140.0],[-7.258,54.00409,9140.0]]},"properties":{"ef_share":0.0,"ef_tj":0.0}},{"type":"Feature","geometry":{"type":"LineString","coordinates":[[-7.258,54.00409,9140.0],[-7.39731,54.02845,9140.0]]},"properties":{"ef_share":0.0,"ef_tj":0.0}},{"type":"Feature","geometry":{"type":"LineString","coordinates":[[-7.39731,54.02845,9140.0],[-7.53531,54.05241,9140.0]]},"properties":{"ef_share":0.0,"ef_tj":0.0}},{"type":"Feature","geometry":{"type":"LineString","coordinates":[[-7.53531,54.05241,9140.0],[-7.67361,54.07618,9140.0]]},"properties":{"ef_share":0.0,"ef_tj":0.0}},{"type":"Feature","geometry":{"type":"LineString","coordinates":[[-7.67361,54.07618,9140.0],[-7.81097,54.09971,9140.0]]},"properties":{"ef_share":0.0,"ef_tj":0.0}},{"type":"Feature","geometry":{"type":"LineString","coordinates":[[-7.81097,54.09971,9140.0],[-7.9482,54.12294,9140.0]]},"properties":{"ef_share":0.0,"ef_tj":0.0}},{"type":"Feature","geometry":{"type":"LineString","coordinates":[[-7.9482,54.12294,9140.0],[-8.08619,54.14614,9140.0]]},"properties":{"ef_share":0.0,"ef_tj":0.0}},{"type":"Feature","geometry":{"type":"LineString","coordinates":[[-8.08619,54.14614,9140.0],[-8.22466,54.1693,9140.0]]},"properties":{"ef_share":0.0,"ef_tj":0.0}},{"type":"Feature","geometry":{"type":"LineString","coordinates":[[-8.22466,54.1693,9140.0],[-8.36205,54.192,9140.0]]},"properties":{"ef_share":0.0,"ef_tj":0.0}},{"type":"Feature","geometry":{"type":"LineString","coordinates":[[-8.36205,54.192,9140.0],[-8.4981,54.21436,9140.0]]},"properties":{"ef_share":-0.056,"ef_tj":-0.176959}},{"type":"Feature","geometry":{"type":"LineString","coordinates":[[-8.4981,54.21436,9140.0],[-8.634,54.23648,9140.0]]},"properties":{"ef_share":0.0,"ef_tj":0.0}},{"type":"Feature","geometry":{"type":"LineString","coordinates":[[-8.634,54.23648,9140.0],[-8.7718,54.25877,9140.0]]},"properties":{"ef_share":0.0,"ef_tj":0.0}},{"type":"Feature","geometry":{"type":"LineString","coordinates":[[-8.7718,54.25877,9140.0],[-8.91217,54.28137,9140.0]]},"properties":{"ef_share":0.0,"ef_tj":0.0}},{"type":"Feature","geometry":{"type":"LineString","coordinates":[[-8.91217,54.28137,9140.0],[-9.05261,54.31229,9140.0]]},"properties":{"ef_share":0.0,"ef_tj":0.0}},{"type":"Feature","geometry":{"type":"LineString","coordinates":[[-9.05261,54.31229,9140.0],[-9.18913,54.35447,9140.0]]},"properties":{"ef_share":0.0,"ef_tj":0.0}},{"type":"Feature","geometry":{"type":"LineString","coordinates":[[-9.18913,54.35447,9140.0],[-9.33343,54.40027,9140.0]]},"properties":{"ef_share":0.0,"ef_tj":0.0}},{"type":"Feature","geometry":{"type":"LineString","coordinates":[[-9.33343,54.40027,9140.0],[-9.48311,54.44805,9140.0]]},"properties":{"ef_share":0.0,"ef_tj":0.0}},{"type":"Feature","geometry":{"type":"LineString","coordinates":[[-9.48311,54.44805,9140.0],[-9.63281,54.49516,9140.0]]},"properties":{"ef_share":0.0,"ef_tj":0.0}},{"type":"Feature","geometry":{"type":"LineString","coordinates":[[-9.63281,54.49516,9140.0],[-9.78173,54.54165,9140.0]]},"properties":{"ef_share":0.0,"ef_tj":0.0}},{"type":"Feature","geometry":{"type":"LineString","coordinates":[[-9.78173,54.54165,9140.0],[-9.93095,54.58798,9140.0]]},"properties":{"ef_share":0.0,"ef_tj":0.0}},{"type":"Feature","geometry":{"type":"LineString","coordinates":[[-9.93095,54.58798,9140.0],[-10.08299,54.63503,9140.0]]},"properties":{"ef_share":0.0,"ef_tj":0.0}},{"type":"Feature","geometry":{"type":"LineString","coordinates":[[-10.08299,54.63503,9140.0],[-10.2331,54.68116,9140.0]]},"properties":{"ef_share":0.0,"ef_tj":0.0}},{"type":"Feature","geometry":{"type":"LineString","coordinates":[[-10.2331,54.68116,9140.0],[-10.38137,54.72633,9140.0]]},"properties":{"ef_share":0.0,"ef_tj":0.0}},{"type":"Feature","geometry":{"type":"LineString","coordinates":[[-10.38137,54.72633,9140.0],[-10.52999,54.77137,9140.0]]},"properties":{"ef_share":0.0,"ef_tj":0.0}},{"type":"Feature","geometry":{"type":"LineString","coordinates":[[-10.52999,54.77137,9140.0],[-10.68046,54.81678,9140.0]]},"properties":{"ef_share":0.0,"ef_tj":0.0}},{"type":"Feature","geometry":{"type":"LineString","coordinates":[[-10.68046,54.81678,9140.0],[-10.83112,54.8618,9140.0]]},"properties":{"ef_share":0.0,"ef_tj":0.0}},{"type":"Feature","geometry":{"type":"LineString","coordinates":[[-10.83112,54.8618,9140.0],[-10.98299,54.90707,9140.0]]},"properties":{"ef_share":0.0,"ef_tj":0.0}},{"type":"Feature","geometry":{"type":"LineString","coordinates":[[-10.98299,54.90707,9140.0],[-11.13636,54.95231,9140.0]]},"properties":{"ef_share":0.0,"ef_tj":0.0}},{"type":"Feature","geometry":{"type":"LineString","coordinates":[[-11.13636,54.95231,9140.0],[-11.28992,54.99742,9140.0]]},"properties":{"ef_share":0.0,"ef_tj":0.0}},{"type":"Feature","geometry":{"type":"LineString","coordinates":[[-11.28992,54.99742,9140.0],[-11.44433,55.04251,9140.0]]},"properties":{"ef_share":0.0,"ef_tj":0.0}},{"type":"Feature","geometry":{"type":"LineString","coordinates":[[-11.44433,55.04251,9140.0],[-11.59792,55.08699,9140.0]]},"properties":{"ef_share":0.0,"ef_tj":0.0}},{"type":"Feature","geometry":{"type":"LineString","coordinates":[[-11.59792,55.08699,9140.0],[-11.7517,55.13114,9140.0]]},"properties":{"ef_share":0.0,"ef_tj":0.0}},{"type":"Feature","geometry":{"type":"LineString","coordinates":[[-11.7517,55.13114,9140.0],[-11.90523,55.17515,9140.0]]},"properties":{"ef_share":0.0,"ef_tj":0.0}},{"type":"Feature","geometry":{"type":"LineString","coordinates":[[-11.90523,55.17515,9140.0],[-12.06111,55.21945,9140.0]]},"properties":{"ef_share":0.0,"ef_tj":0.0}},{"type":"Feature","geometry":{"type":"LineString","coordinates":[[-12.06111,55.21945,9140.0],[-12.2183,55.26372,9140.0]]},"properties":{"ef_share":0.0,"ef_tj":0.0}},{"type":"Feature","geometry":{"type":"LineString","coordinates":[[-12.2183,55.26372,9140.0],[-12.3775,55.30845,9140.0]]},"properties":{"ef_share":0.0,"ef_tj":0.0}},{"type":"Feature","geometry":{"type":"LineString","coordinates":[[-12.3775,55.30845,9140.0],[-12.53533,55.35222,9140.0]]},"properties":{"ef_share":0.0,"ef_tj":0.0}},{"type":"Feature","geometry":{"type":"LineString","coordinates":[[-12.53533,55.35222,9140.0],[-12.69278,55.39582,9140.0]]},"properties":{"ef_share":0.0,"ef_tj":0.0}}]}