{"type":"FeatureCollection","properties":{"icao24":"a1f4c5","registration":"N225NE","owner_label":"New England Patriots","combined_co2e_central":46013.2,"fuel_co2_kg":43315.3,"contrail_co2e_central":2697.9,"tier":"high"},"features":[{"type":"Feature","geometry":{"type":"LineString","coordinates":[[7.51514,49.43621,1290.0],[7.42341,49.45122,2110.0]]},"properties":{"ef_share":0.0,"ef_tj":0.0}},{"type":"Feature","geometry":{"type":"LineString","coordinates":[[7.42341,49.45122,2110.0],[7.32444,49.48426,3310.0]]},"properties":{"ef_share":0.0,"ef_tj":0.0}},{"type":"Feature","geometry":{"type":"LineString","coordinates":[[7.32444,49.48426,3310.0],[7.35814,49.56992,4110.0]]},"properties":{"ef_share":0.0,"ef_tj":0.0}},{"type":"Feature","geometry":{"type":"LineString","coordinates":[[7.35814,49.56992,4110.0],[7.51723,49.59796,5330.0]]},"properties":{"ef_share":0.0,"ef_tj":0.0}},{"type":"Feature","geometry":{"type":"LineString","coordinates":[[7.51723,49.59796,5330.0],[7.69435,49.61143,6290.0]]},"properties":{"ef_share":0.0,"ef_tj":0.0}},{"type":"Feature","geometry":{"type":"LineString","coordinates":[[7.69435,49.61143,6290.0],[7.88082,49.62214,7170.0]]},"properties":{"ef_share":0.0,"ef_tj":0.0}},{"type":"Feature","geometry":{"type":"LineString","coordinates":[[7.88082,49.62214,7170.0],[8.07606,49.63215,7320.0]]},"properties":{"ef_share":0.0,"ef_tj":0.0}},{"type":"Feature","geometry":{"type":"LineString","coordinates":[[8.07606,49.63215,7320.0],[8.26976,49.64343,7810.0]]},"properties":{"ef_share":0.0,"ef_tj":0.0}},{"type":"Feature","geometry":{"type":"LineString","coordinates":[[8.26976,49.64343,7810.0],[8.47095,49.65508,8530.0]]},"properties":{"ef_share":0.0,"ef_tj":0.0}},{"type":"Feature","geometry":{"type":"LineString","coordinates":[[8.47095,49.65508,8530.0],[8.67902,49.6666,9260.0]]},"properties":{"ef_share":0.0,"ef_tj":0.0}},{"type":"Feature","geometry":{"type":"LineString","coordinates":[[8.67902,49.6666,9260.0],[8.88486,49.67771,10130.0]]},"properties":{"ef_share":0.0,"ef_tj":0.0}},{"type":"Feature","geometry":{"type":"LineString","coordinates":[[8.88486,49.67771,10130.0],[9.08812,49.68823,10780.0]]},"properties":{"ef_share":0.0,"ef_tj":0.0}},{"type":"Feature","geometry":{"type":"LineString","coordinates":[[9.08812,49.68823,10780.0],[9.29096,49.69835,11270.0]]},"properties":{"ef_share":0.0,"ef_tj":0.0}},{"type":"Feature","geometry":{"type":"LineString","coordinates":[[9.29096,49.69835,11270.0],[9.49631,49.70834,11290.0]]},"properties":{"ef_share":0.0,"ef_tj":0.0}},{"type":"Feature","geometry":{"type":"LineString","coordinates":[[9.49631,49.70834,11290.0],[9.70085,49.7178,11280.0]]},"properties":{"ef_share":0.003,"ef_tj":0.002184}},{"type":"Feature","geometry":{"type":"LineString","coordinates":[[9.70085,49.7178,11280.0],[9.90382,49.72689,11280.0]]},"properties":{"ef_share":0.121,"ef_tj":0.093857}},{"type":"Feature","geometry":{"type":"LineString","coordinates":[[9.90382,49.72689,11280.0],[10.10593,49.73554,11280.0]]},"properties":{"ef_share":0.268,"ef_tj":0.207634}},{"type":"Feature","geometry":{"type":"LineString","coordinates":[[10.10593,49.73554,11280.0],[10.30719,49.74391,11290.0]]},"properties":{"ef_share":0.339,"ef_tj":0.262656}},{"type":"Feature","geometry":{"type":"LineString","coordinates":[[10.30719,49.74391,11290.0],[10.50798,49.7519,11280.0]]},"properties":{"ef_share":0.462,"ef_tj":0.358591}},{"type":"Feature","geometry":{"type":"LineString","coordinates":[[10.50798,49.7519,11280.0],[10.70834,49.74552,11280.0]]},"properties":{"ef_share":0.524,"ef_tj":0.406095}},{"type":"Feature","geometry":{"type":"LineString","coordinates":[[10.70834,49.74552,11280.0],[10.9066,49.72202,11280.0]]},"properties":{"ef_share":0.538,"ef_tj":0.417437}},{"type":"Feature","geometry":{"type":"LineString","coordinates":[[10.9066,49.72202,11280.0],[11.10457,49.69779,11280.0]]},"properties":{"ef_share":0.578,"ef_tj":0.448648}},{"type":"Feature","geometry":{"type":"LineString","coordinates":[[11.10457,49.69779,11280.0],[11.30248,49.67281,11280.0]]},"properties":{"ef_share":0.615,"ef_tj":0.477261}},{"type":"Feature","geometry":{"type":"LineString","coordinates":[[11.30248,49.67281,11280.0],[11.5004,49.64754,11280.0]]},"properties":{"ef_share":0.665,"ef_tj":0.515958}},{"type":"Feature","geometry":{"type":"LineString","coordinates":[[11.5004,49.64754,11280.0],[11.69832,49.62193,11290.0]]},"properties":{"ef_share":0.728,"ef_tj":0.564646}},{"type":"Feature","geometry":{"type":"LineString","coordinates":[[11.69832,49.62193,11290.0],[11.89653,49.59587,11280.0]]},"properties":{"ef_share":0.796,"ef_tj":0.617502}},{"type":"Feature","geometry":{"type":"LineString","coordinates":[[11.89653,49.59587,11280.0],[12.09443,49.56955,11280.0]]},"properties":{"ef_share":0.836,"ef_tj":0.648757}},{"type":"Feature","geometry":{"type":"LineString","coordinates":[[12.09443,49.56955,11280.0],[12.29203,49.5429,11280.0]]},"properties":{"ef_share":0.863,"ef_tj":0.669557}},{"type":"Feature","geometry":{"type":"LineString","coordinates":[[12.29203,49.5429,11280.0],[12.48913,49.51598,11280.0]]},"properties":{"ef_share":0.908,"ef_tj":0.703893}},{"type":"Feature","geometry":{"type":"LineString","coordinates":[[12.48913,49.51598,11280.0],[12.68585,49.48873,11280.0]]},"properties":{"ef_share":1.0,"ef_tj":0.775599}},{"type":"Feature","geometry":{"type":"LineString","coordinates":[[12.68585,49.48873,11280.0],[12.88149,49.46127,11280.0]]},"properties":{"ef_share":0.978,"ef_tj":0.758251}},{"type":"Feature","geometry":{"type":"LineString","coordinates":[[12.88149,49.46127,11280.0],[13.07708,49.43333,11280.0]]},"properties":{"ef_share":0.905,"ef_tj":0.701613}},{"type":"Feature","geometry":{"type":"LineString","coordinates":[[13.07708,49.43333,11280.0],[13.27214,49.40523,11280.0]]},"properties":{"ef_share":0.655,"ef_tj":0.508148}},{"type":"Feature","geometry":{"type":"LineString","coordinates":[[13.27214,49.40523,11280.0],[13.46712,49.37681,11280.0]]},"properties":{"ef_share":0.443,"ef_tj":0.343477}},{"type":"Feature","geometry":{"type":"LineString","coordinates":[[13.46712,49.37681,11280.0],[13.66205,49.34801,11290.0]]},"properties":{"ef_share":0.0,"ef_tj":0.0}},{"type":"Feature","geometry":{"type":"LineString","coordinates":[[13.66205,49.34801,11290.0],[13.85692,49.31874,11290.0]]},"properties":{"ef_share":0.0,"ef_tj":0.0}},{"type":"Feature","geometry":{"type":"LineString","coordinates":[[13.85692,49.31874,11290.0],[14.052,49.28912,11290.0]]},"properties":{"ef_share":0.0,"ef_tj":0.0}},{"type":"Feature","geometry":{"type":"LineString","coordinates":[[14.052,49.28912,11290.0],[14.24715,49.25918,11280.0]]},"properties":{"ef_share":0.0,"ef_tj":0.0}},{"type":"Feature","geometry":{"type":"LineString","coordinates":[[14.24715,49.25918,11280.0],[14.44242,49.22891,11290.0]]},"properties":{"ef_share":0.0,"ef_tj":0.0}},{"type":"Feature","geometry":{"type":"LineString","coordinates":[[14.44242,49.22891,11290.0],[14.63756,49.19815,11280.0]]},"properties":{"ef_share":0.0,"ef_tj":0.0}},{"type":"Feature","geometry":{"type":"LineString","coordinates":[[14.63756,49.19815,11280.0],[14.83206,49.16726,11280.0]]},"properties":{"ef_share":0.0,"ef_tj":0.0}},{"type":"Feature","geometry":{"type":"LineString","coordinates":[[14.83206,49.16726,11280.0],[15.0267,49.13591,11280.0]]},"properties":{"ef_share":0.0,"ef_tj":0.0}},{"type":"Feature","geometry":{"type":"LineString","coordinates":[[15.0267,49.13591,11280.0],[15.22057,49.1043,11280.0]]},"properties":{"ef_share":0.0,"ef_tj":0.0}},{"type":"Feature","geometry":{"type":"LineString","coordinates":[[15.22057,49.1043,11280.0],[15.41424,49.07235,11280.0]]},"properties":{"ef_share":0.0,"ef_tj":0.0}},{"type":"Feature","geometry":{"type":"LineString","coordinates":[[15.41424,49.07235,11280.0],[15.60745,49.04018,11280.0]]},"properties":{"ef_share":0.0,"ef_tj":0.0}},{"type":"Feature","geometry":{"type":"LineString","coordinates":[[15.60745,49.04018,11280.0],[15.79999,49.00772,11280.0]]},"properties":{"ef_share":0.0,"ef_tj":0.0}},{"type":"Feature","geometry":{"type":"LineString","coordinates":[[15.79999,49.00772,11280.0],[15.99152,48.9751,11290.0]]},"properties":{"ef_share":0.0,"ef_tj":0.0}},{"type":"Feature","geometry":{"type":"LineString","coordinates":[[15.99152,48.9751,11290.0],[16.18225,48.94219,11280.0]]},"properties":{"ef_share":0.0,"ef_tj":0.0}},{"type":"Feature","geometry":{"type":"LineString","coordinates":[[16.18225,48.94219,11280.0],[16.372,48.90908,11280.0]]},"properties":{"ef_share":0.0,"ef_tj":0.0}},{"type":"Feature","geometry":{"type":"LineString","coordinates":[[16.372,48.90908,11280.0],[16.56138,48.87577,11280.0]]},"properties":{"ef_share":0.0,"ef_tj":0.0}},{"type":"Feature","geometry":{"type":"LineString","coordinates":[[16.56138,48.87577,11280.0],[16.74971,48.8423,11280.0]]},"properties":{"ef_share":0.0,"ef_tj":0.0}},{"type":"Feature","geometry":{"type":"LineString","coordinates":[[16.74971,48.8423,11280.0],[16.93744,48.80854,11290.0]]},"properties":{"ef_share":0.0,"ef_tj":0.0}},{"type":"Feature","geometry":{"type":"LineString","coordinates":[[16.93744,48.80854,11290.0],[17.1211,48.76716,11280.0]]},"properties":{"ef_share":0.0,"ef_tj":0.0}},{"type":"Feature","geometry":{"type":"LineString","coordinates":[[17.1211,48.76716,11280.0],[17.29275,48.70728,11290.0]]},"properties":{"ef_share":0.0,"ef_tj":0.0}},{"type":"Feature","geometry":{"type":"LineString","coordinates":[[17.29275,48.70728,11290.0],[17.46227,48.6459,11280.0]]},"properties":{"ef_share":0.0,"ef_tj":0.0}},{"type":"Feature","geometry":{"type":"LineString","coordinates":[[17.46227,48.6459,11280.0],[17.61609,48.5701,11280.0]]},"properties":{"ef_share":0.0,"ef_tj":0.0}},{"type":"Feature","geometry":{"type":"LineString","coordinates":[[17.61609,48.5701,11280.0],[17.75408,48.48207,11280.0]]},"properties":{"ef_share":0.0,"ef_tj":0.0}},{"type":"Feature","geometry":{"type":"LineString","coordinates":[[17.75408,48.48207,11280.0],[17.89098,48.39357,11280.0]]},"properties":{"ef_share":0.0,"ef_tj":0.0}},{"type":"Feature","geometry":{"type":"LineString","coordinates":[[17.89098,48.39357,11280.0],[18.02767,48.30525,11280.0]]},"properties":{"ef_share":0.0,"ef_tj":0.0}},{"type":"Feature","geometry":{"type":"LineString","coordinates":[[18.02767,48.30525,11280.0],[18.16033,48.21435,11280.0]]},"properties":{"ef_share":0.0,"ef_tj":0.0}},{"type":"Feature","geometry":{"type":"LineString","coordinates":[[18.16033,48.21435,11280.0],[18.2907,48.12194,11280.0]]},"properties":{"ef_share":0.0,"ef_tj":0.0}},{"type":"Feature","geometry":{"type":"LineString","coordinates":[[18.2907,48.12194,11280.0],[18.42121,48.02991,11280.0]]},"properties":{"ef_share":0.0,"ef_tj":0.0}},{"type":"Feature","geometry":{"type":"LineString","coordinates":[[18.42121,48.02991,11280.0],[18.5515,47.93778,11290.0]]},"properties":{"ef_share":0.0,"ef_tj":0.0}},{"type":"Feature","geometry":{"type":"LineString","coordinates":[[18.5515,47.93778,11290.0],[18.68125,47.84553,11280.0]]},"properties":{"ef_share":0.0,"ef_tj":0.0}},{"type":"Feature","geometry":{"type":"LineString","coordinates":[[18.68125,47.84553,11280.0],[18.82356,47.76306,11280.0]]},"properties":{"ef_share":0.0,"ef_tj":0.0}},{"type":"Feature","geometry":{"type":"LineString","coordinates":[[18.82356,47.76306,11280.0],[18.97445,47.68804,11290.0]]},"properties":{"ef_share":0.0,"ef_tj":0.0}},{"type":"Feature","geometry":{"type":"LineString","coordinates":[[18.97445,47.68804,11290.0],[19.12498,47.61294,11280.0]]},"properties":{"ef_share":0.0,"ef_tj":0.0}},{"type":"Feature","geometry":{"type":"LineString","coordinates":[[19.12498,47.61294,11280.0],[19.2747,47.53758,11280.0]]},"properties":{"ef_share":0.0,"ef_tj":0.0}},{"type":"Feature","geometry":{"type":"LineString","coordinates":[[19.2747,47.53758,11280.0],[19.42375,47.46202,11290.0]]},"properties":{"ef_share":0.0,"ef_tj":0.0}},{"type":"Feature","geometry":{"type":"LineString","coordinates":[[19.42375,47.46202,11290.0],[19.57236,47.3863,11290.0]]},"properties":{"ef_share":0.0,"ef_tj":0.0}},{"type":"Feature","geometry":{"type":"LineString","coordinates":[[19.57236,47.3863,11290.0],[19.72007,47.31074,11280.0]]},"properties":{"ef_share":0.0,"ef_tj":0.0}},{"type":"Feature","geometry":{"type":"LineString","coordinates":[[19.72007,47.31074,11280.0],[19.8667,47.23512,11280.0]]},"properties":{"ef_share":0.0,"ef_tj":0.0}},{"type":"Feature","geometry":{"type":"LineString","coordinates":[[19.8667,47.23512,11280.0],[20.01243,47.15973,11280.0]]},"properties":{"ef_share":0.0,"ef_tj":0.0}},{"type":"Feature","geometry":{"type":"LineString","coordinates":[[20.01243,47.15973,11280.0],[20.15756,47.08428,11280.0]]},"properties":{"ef_share":0.0,"ef_tj":0.0}},{"type":"Feature","geometry":{"type":"LineString","coordinates":[[20.15756,47.08428,11280.0],[20.30158,47.00896,11290.0]]},"properties":{"ef_share":0.0,"ef_tj":0.0}},{"type":"Feature","geometry":{"type":"LineString","coordinates":[[20.30158,47.00896,11290.0],[20.44483,46.9336,11280.0]]},"properties":{"ef_share":0.0,"ef_tj":0.0}},{"type":"Feature","geometry":{"type":"LineString","coordinates":[[20.44483,46.9336,11280.0],[20.58715,46.8584,11280.0]]},"properties":{"ef_share":0.0,"ef_tj":0.0}},{"type":"Feature","geometry":{"type":"LineString","coordinates":[[20.58715,46.8584,11280.0],[20.72836,46.78339,11280.0]]},"properties":{"ef_share":0.0,"ef_tj":0.0}},{"type":"Feature","geometry":{"type":"LineString","coordinates":[[20.72836,46.78339,11280.0],[20.86905,46.70828,11280.0]]},"properties":{"ef_share":0.0,"ef_tj":0.0}},{"type":"Feature","geometry":{"type":"LineString","coordinates":[[20.86905,46.70828,11280.0],[21.00911,46.6331,11280.0]]},"properties":{"ef_share":0.0,"ef_tj":0.0}},{"type":"Feature","geometry":{"type":"LineString","coordinates":[[21.00911,46.6331,11280.0],[21.14856,46.55789,11280.0]]},"properties":{"ef_share":0.0,"ef_tj":0.0}},{"type":"Feature","geometry":{"type":"LineString","coordinates":[[21.14856,46.55789,11280.0],[21.28961,46.48499,11280.0]]},"properties":{"ef_share":0.0,"ef_tj":0.0}},{"type":"Feature","geometry":{"type":"LineString","coordinates":[[21.28961,46.48499,11280.0],[21.43612,46.41848,11280.0]]},"properties":{"ef_share":0.0,"ef_tj":0.0}},{"type":"Feature","geometry":{"type":"LineString","coordinates":[[21.43612,46.41848,11280.0],[21.58461,46.35551,11280.0]]},"properties":{"ef_share":0.0,"ef_tj":0.0}},{"type":"Feature","geometry":{"type":"LineString","coordinates":[[21.58461,46.35551,11280.0],[21.733,46.29208,11280.0]]},"properties":{"ef_share":0.0,"ef_tj":0.0}},{"type":"Feature","geometry":{"type":"LineString","coordinates":[[21.733,46.29208,11280.0],[21.88109,46.22808,11290.0]]},"properties":{"ef_share":0.0,"ef_tj":0.0}},{"type":"Feature","geometry":{"type":"LineString","coordinates":[[21.88109,46.22808,11290.0],[22.02879,46.16371,11290.0]]},"properties":{"ef_share":0.0,"ef_tj":0.0}},{"type":"Feature","geometry":{"type":"LineString","coordinates":[[22.02879,46.16371,11290.0],[22.17624,46.09912,11290.0]]},"properties":{"ef_share":0.0,"ef_tj":0.0}},{"type":"Feature","geometry":{"type":"LineString","coordinates":[[22.17624,46.09912,11290.0],[22.32399,46.03408,11280.0]]},"properties":{"ef_share":0.0,"ef_tj":0.0}},{"type":"Feature","geometry":{"type":"LineString","coordinates":[[22.32399,46.03408,11280.0],[22.47179,45.96872,11280.0]]},"properties":{"ef_share":0.0,"ef_tj":0.0}},{"type":"Feature","geometry":{"type":"LineString","coordinates":[[22.47179,45.96872,11280.0],[22.6191,45.90316,11290.0]]},"properties":{"ef_share":0.0,"ef_tj":0.0}},{"type":"Feature","geometry":{"type":"LineString","coordinates":[[22.6191,45.90316,11290.0],[22.76643,45.83724,11280.0]]},"properties":{"ef_share":0.0,"ef_tj":0.0}},{"type":"Feature","geometry":{"type":"LineString","coordinates":[[22.76643,45.83724,11280.0],[22.91307,45.77133,11280.0]]},"properties":{"ef_share":0.0,"ef_tj":0.0}},{"type":"Feature","geometry":{"type":"LineString","coordinates":[[22.91307,45.77133,11280.0],[23.05908,45.70537,11280.0]]},"properties":{"ef_share":0.0,"ef_tj":0.0}},{"type":"Feature","geometry":{"type":"LineString","coordinates":[[23.05908,45.70537,11280.0],[23.20448,45.63932,11290.0]]},"properties":{"ef_share":0.0,"ef_tj":0.0}},{"type":"Feature","geometry":{"type":"LineString","coordinates":[[23.20448,45.63932,11290.0],[23.34941,45.57316,11280.0]]},"properties":{"ef_share":0.0,"ef_tj":0.0}},{"type":"Feature","geometry":{"type":"LineString","coordinates":[[23.34941,45.57316,11280.0],[23.49383,45.50691,11280.0]]},"properties":{"ef_share":0.0,"ef_tj":0.0}},{"type":"Feature","geometry":{"type":"LineString","coordinates":[[23.49383,45.50691,11280.0],[23.63788,45.44039,11280.0]]},"properties":{"ef_share":0.0,"ef_tj":0.0}},{"type":"Feature","geometry":{"type":"LineString","coordinates":[[23.63788,45.44039,11280.0],[23.78129,45.374,11290.0]]},"properties":{"ef_share":0.0,"ef_tj":0.0}},{"type":"Feature","geometry":{"type":"LineString","coordinates":[[23.78129,45.374,11290.0],[23.92448,45.30728,11280.0]]},"properties":{"ef_share":0.0,"ef_tj":0.0}},{"type":"Feature","geometry":{"type":"LineString","coordinates":[[23.92448,45.30728,11280.0],[24.06716,45.24043,11290.0]]},"properties":{"ef_share":0.0,"ef_tj":0.0}},{"type":"Feature","geometry":{"type":"LineString","coordinates":[[24.06716,45.24043,11290.0],[24.20966,45.17336,11280.0]]},"properties":{"ef_share":0.0,"ef_tj":0.0}},{"type":"Feature","geometry":{"type":"LineString","coordinates":[[24.20966,45.17336,11280.0],[24.35217,45.10595,11280.0]]},"properties":{"ef_share":0.0,"ef_tj":0.0}},{"type":"Feature","geometry":{"type":"LineString","coordinates":[[24.35217,45.10595,11280.0],[24.49568,45.03773,11290.0]]},"properties":{"ef_share":0.0,"ef_tj":0.0}},{"type":"Feature","geometry":{"type":"LineString","coordinates":[[24.49568,45.03773,11290.0],[24.63966,44.969,11290.0]]},"properties":{"ef_share":0.0,"ef_tj":0.0}},{"type":"Feature","geometry":{"type":"LineString","coordinates":[[24.63966,44.969,11290.0],[24.78306,44.90012,11290.0]]},"properties":{"ef_share":0.0,"ef_tj":0.0}},{"type":"Feature","geometry":{"type":"LineString","coordinates":[[24.78306,44.90012,11290.0],[24.92588,44.83112,11290.0]]},"properties":{"ef_share":0.0,"ef_tj":0.0}},{"type":"Feature","geometry":{"type":"LineString","coordinates":[[24.92588,44.83112,11290.0],[25.06811,44.76212,11280.0]]},"properties":{"ef_share":0.0,"ef_tj":0.0}},{"type":"Feature","geometry":{"type":"LineString","coordinates":[[25.06811,44.76212,11280.0],[25.20976,44.69307,11280.0]]},"properties":{"ef_share":0.0,"ef_tj":0.0}},{"type":"Feature","geometry":{"type":"LineString","coordinates":[[25.20976,44.69307,11280.0],[25.3509,44.62405,11280.0]]},"properties":{"ef_share":0.0,"ef_tj":0.0}},{"type":"Feature","geometry":{"type":"LineString","coordinates":[[25.3509,44.62405,11280.0],[25.49179,44.55459,11280.0]]},"properties":{"ef_share":0.0,"ef_tj":0.0}},{"type":"Feature","geometry":{"type":"LineString","coordinates":[[25.49179,44.55459,11280.0],[25.63222,44.48516,11280.0]]},"properties":{"ef_share":0.0,"ef_tj":0.0}},{"type":"Feature","geometry":{"type":"LineString","coordinates":[[25.63222,44.48516,11280.0],[25.77232,44.41554,11290.0]]},"properties":{"ef_share":0.0,"ef_tj":0.0}},{"type":"Feature","geometry":{"type":"LineString","coordinates":[[25.77232,44.41554,11290.0],[25.91223,44.34562,11290.0]]},"properties":{"ef_share":0.0,"ef_tj":0.0}},{"type":"Feature","geometry":{"type":"LineString","coordinates":[[25.91223,44.34562,11290.0],[26.05205,44.27541,11280.0]]},"properties":{"ef_share":0.0,"ef_tj":0.0}},{"type":"Feature","geometry":{"type":"LineString","coordinates":[[26.05205,44.27541,11280.0],[26.19131,44.20515,11280.0]]},"properties":{"ef_share":0.0,"ef_tj":0.0}},{"type":"Feature","geometry":{"type":"LineString","coordinates":[[26.19131,44.20515,11280.0],[26.33078,44.13458,11290.0]]},"properties":{"ef_share":0.0,"ef_tj":0.0}},{"type":"Feature","geometry":{"type":"LineString","coordinates":[[26.33078,44.13458,11290.0],[26.47085,44.06327,11280.0]]},"properties":{"ef_share":0.0,"ef_tj":0.0}},{"type":"Feature","geometry":{"type":"LineString","coordinates":[[26.47085,44.06327,11280.0],[26.61157,43.99111,11290.0]]},"properties":{"ef_share":0.0,"ef_tj":0.0}},{"type":"Feature","geometry":{"type":"LineString","coordinates":[[26.61157,43.99111,11290.0],[26.75238,43.91887,11280.0]]},"properties":{"ef_share":0.0,"ef_tj":0.0}},{"type":"Feature","geometry":{"type":"LineString","coordinates":[[26.75238,43.91887,11280.0],[26.89313,43.84603,11280.0]]},"properties":{"ef_share":0.0,"ef_tj":0.0}},{"type":"Feature","geometry":{"type":"LineString","coordinates":[[26.89313,43.84603,11280.0],[27.03378,43.77309,11290.0]]},"properties":{"ef_share":0.0,"ef_tj":0.0}},{"type":"Feature","geometry":{"type":"LineString","coordinates":[[27.03378,43.77309,11290.0],[27.17425,43.69974,11280.0]]},"properties":{"ef_share":0.0,"ef_tj":0.0}},{"type":"Feature","geometry":{"type":"LineString","coordinates":[[27.17425,43.69974,11280.0],[27.31413,43.62646,11280.0]]},"properties":{"ef_share":0.0,"ef_tj":0.0}},{"type":"Feature","geometry":{"type":"LineString","coordinates":[[27.31413,43.62646,11280.0],[27.45416,43.55275,11280.0]]},"properties":{"ef_share":0.0,"ef_tj":0.0}},{"type":"Feature","geometry":{"type":"LineString","coordinates":[[27.45416,43.55275,11280.0],[27.59368,43.47884,11290.0]]},"properties":{"ef_share":0.0,"ef_tj":0.0}},{"type":"Feature","geometry":{"type":"LineString","coordinates":[[27.59368,43.47884,11290.0],[27.73414,43.40421,11280.0]]},"properties":{"ef_share":0.0,"ef_tj":0.0}},{"type":"Feature","geometry":{"type":"LineString","coordinates":[[27.73414,43.40421,11280.0],[27.87452,43.32919,11280.0]]},"properties":{"ef_share":0.0,"ef_tj":0.0}},{"type":"Feature","geometry":{"type":"LineString","coordinates":[[27.87452,43.32919,11280.0],[28.0154,43.25362,11290.0]]},"properties":{"ef_share":0.0,"ef_tj":0.0}},{"type":"Feature","geometry":{"type":"LineString","coordinates":[[28.0154,43.25362,11290.0],[28.15588,43.17781,11290.0]]},"properties":{"ef_share":0.0,"ef_tj":0.0}},{"type":"Feature","geometry":{"type":"LineString","coordinates":[[28.15588,43.17781,11290.0],[28.29603,43.10184,11290.0]]},"properties":{"ef_share":0.0,"ef_tj":0.0}},{"type":"Feature","geometry":{"type":"LineString","coordinates":[[28.29603,43.10184,11290.0],[28.43578,43.02568,11280.0]]},"properties":{"ef_share":0.0,"ef_tj":0.0}},{"type":"Feature","geometry":{"type":"LineString","coordinates":[[28.43578,43.02568,11280.0],[28.57495,42.94956,11280.0]]},"properties":{"ef_share":0.0,"ef_tj":0.0}},{"type":"Feature","geometry":{"type":"LineString","coordinates":[[28.57495,42.94956,11280.0],[28.71353,42.87342,11280.0]]},"properties":{"ef_share":0.0,"ef_tj":0.0}},{"type":"Feature","geometry":{"type":"LineString","coordinates":[[28.71353,42.87342,11280.0],[28.85164,42.79722,11280.0]]},"properties":{"ef_share":0.0,"ef_tj":0.0}},{"type":"Feature","geometry":{"type":"LineString","coordinates":[[28.85164,42.79722,11280.0],[28.98912,42.72073,11280.0]]},"properties":{"ef_share":0.0,"ef_tj":0.0}},{"type":"Feature","geometry":{"type":"LineString","coordinates":[[28.98912,42.72073,11280.0],[29.12639,42.64417,11280.0]]},"properties":{"ef_share":0.0,"ef_tj":0.0}},{"type":"Feature","geometry":{"type":"LineString","coordinates":[[29.12639,42.64417,11280.0],[29.26288,42.56782,11280.0]]},"properties":{"ef_share":0.0,"ef_tj":0.0}},{"type":"Feature","geometry":{"type":"LineString","coordinates":[[29.26288,42.56782,11280.0],[29.39938,42.49095,11290.0]]},"properties":{"ef_share":0.0,"ef_tj":0.0}},{"type":"Feature","geometry":{"type":"LineString","coordinates":[[29.39938,42.49095,11290.0],[29.53575,42.41393,11280.0]]},"properties":{"ef_share":0.0,"ef_tj":0.0}}]}