{"type":"FeatureCollection","properties":{"icao24":"a1f4c5","registration":"N225NE","owner_label":"New England Patriots","combined_co2e_central":64005.4,"fuel_co2_kg":66051.2,"contrail_co2e_central":-2045.8,"tier":"high"},"features":[{"type":"Feature","geometry":{"type":"LineString","coordinates":[[-103.92099,37.22748,10970.0],[-104.04562,37.30053,10980.0]]},"properties":{"ef_share":0.0,"ef_tj":0.0}},{"type":"Feature","geometry":{"type":"LineString","coordinates":[[-104.04562,37.30053,10980.0],[-104.17014,37.37335,10980.0]]},"properties":{"ef_share":0.0,"ef_tj":0.0}},{"type":"Feature","geometry":{"type":"LineString","coordinates":[[-104.17014,37.37335,10980.0],[-104.29498,37.44606,11210.0]]},"properties":{"ef_share":0.0,"ef_tj":0.0}},{"type":"Feature","geometry":{"type":"LineString","coordinates":[[-104.29498,37.44606,11210.0],[-104.41942,37.51817,11580.0]]},"properties":{"ef_share":0.0,"ef_tj":0.0}},{"type":"Feature","geometry":{"type":"LineString","coordinates":[[-104.41942,37.51817,11580.0],[-104.54664,37.59155,11580.0]]},"properties":{"ef_share":0.0,"ef_tj":0.0}},{"type":"Feature","geometry":{"type":"LineString","coordinates":[[-104.54664,37.59155,11580.0],[-104.67437,37.66455,11580.0]]},"properties":{"ef_share":0.0,"ef_tj":0.0}},{"type":"Feature","geometry":{"type":"LineString","coordinates":[[-104.67437,37.66455,11580.0],[-104.80329,37.73719,11590.0]]},"properties":{"ef_share":0.0,"ef_tj":0.0}},{"type":"Feature","geometry":{"type":"LineString","coordinates":[[-104.80329,37.73719,11590.0],[-104.93178,37.80933,11580.0]]},"properties":{"ef_share":0.0,"ef_tj":0.0}},{"type":"Feature","geometry":{"type":"LineString","coordinates":[[-104.93178,37.80933,11580.0],[-105.06017,37.88138,11590.0]]},"properties":{"ef_share":0.0,"ef_tj":0.0}},{"type":"Feature","geometry":{"type":"LineString","coordinates":[[-105.06017,37.88138,11590.0],[-105.188,37.95274,11580.0]]},"properties":{"ef_share":0.0,"ef_tj":0.0}},{"type":"Feature","geometry":{"type":"LineString","coordinates":[[-105.188,37.95274,11580.0],[-105.31575,38.02368,11590.0]]},"properties":{"ef_share":0.0,"ef_tj":0.0}},{"type":"Feature","geometry":{"type":"LineString","coordinates":[[-105.31575,38.02368,11590.0],[-105.44306,38.09431,11580.0]]},"properties":{"ef_share":0.0,"ef_tj":0.0}},{"type":"Feature","geometry":{"type":"LineString","coordinates":[[-105.44306,38.09431,11580.0],[-105.57061,38.1645,11590.0]]},"properties":{"ef_share":0.0,"ef_tj":0.0}},{"type":"Feature","geometry":{"type":"LineString","coordinates":[[-105.57061,38.1645,11590.0],[-105.69849,38.23477,11590.0]]},"properties":{"ef_share":0.0,"ef_tj":0.0}},{"type":"Feature","geometry":{"type":"LineString","coordinates":[[-105.69849,38.23477,11590.0],[-105.82616,38.30455,11590.0]]},"properties":{"ef_share":0.0,"ef_tj":0.0}},{"type":"Feature","geometry":{"type":"LineString","coordinates":[[-105.82616,38.30455,11590.0],[-105.953,38.3738,11590.0]]},"properties":{"ef_share":0.0,"ef_tj":0.0}},{"type":"Feature","geometry":{"type":"LineString","coordinates":[[-105.953,38.3738,11590.0],[-106.07917,38.44226,11580.0]]},"properties":{"ef_share":0.0,"ef_tj":0.0}},{"type":"Feature","geometry":{"type":"LineString","coordinates":[[-106.07917,38.44226,11580.0],[-106.20562,38.51064,11580.0]]},"properties":{"ef_share":0.0,"ef_tj":0.0}},{"type":"Feature","geometry":{"type":"LineString","coordinates":[[-106.20562,38.51064,11580.0],[-106.3326,38.57901,11580.0]]},"properties":{"ef_share":0.0,"ef_tj":0.0}},{"type":"Feature","geometry":{"type":"LineString","coordinates":[[-106.3326,38.57901,11580.0],[-106.45991,38.64733,11580.0]]},"properties":{"ef_share":0.0,"ef_tj":0.0}},{"type":"Feature","geometry":{"type":"LineString","coordinates":[[-106.45991,38.64733,11580.0],[-106.58703,38.71535,11590.0]]},"properties":{"ef_share":0.0,"ef_tj":0.0}},{"type":"Feature","geometry":{"type":"LineString","coordinates":[[-106.58703,38.71535,11590.0],[-106.71513,38.78349,11580.0]]},"properties":{"ef_share":0.0,"ef_tj":0.0}},{"type":"Feature","geometry":{"type":"LineString","coordinates":[[-106.71513,38.78349,11580.0],[-106.84327,38.85229,11590.0]]},"properties":{"ef_share":0.0,"ef_tj":0.0}},{"type":"Feature","geometry":{"type":"LineString","coordinates":[[-106.84327,38.85229,11590.0],[-106.97096,38.92106,11590.0]]},"properties":{"ef_share":0.0,"ef_tj":0.0}},{"type":"Feature","geometry":{"type":"LineString","coordinates":[[-106.97096,38.92106,11590.0],[-107.09857,38.9892,11580.0]]},"properties":{"ef_share":0.0,"ef_tj":0.0}},{"type":"Feature","geometry":{"type":"LineString","coordinates":[[-107.09857,38.9892,11580.0],[-107.22622,39.05716,11590.0]]},"properties":{"ef_share":0.0,"ef_tj":0.0}},{"type":"Feature","geometry":{"type":"LineString","coordinates":[[-107.22622,39.05716,11590.0],[-107.35422,39.12463,11580.0]]},"properties":{"ef_share":0.0,"ef_tj":0.0}},{"type":"Feature","geometry":{"type":"LineString","coordinates":[[-107.35422,39.12463,11580.0],[-107.4831,39.19073,11590.0]]},"properties":{"ef_share":0.0,"ef_tj":0.0}},{"type":"Feature","geometry":{"type":"LineString","coordinates":[[-107.4831,39.19073,11590.0],[-107.61246,39.25703,11580.0]]},"properties":{"ef_share":0.0,"ef_tj":0.0}},{"type":"Feature","geometry":{"type":"LineString","coordinates":[[-107.61246,39.25703,11580.0],[-107.74188,39.32319,11580.0]]},"properties":{"ef_share":0.0,"ef_tj":0.0}},{"type":"Feature","geometry":{"type":"LineString","coordinates":[[-107.74188,39.32319,11580.0],[-107.87204,39.38945,11590.0]]},"properties":{"ef_share":0.0,"ef_tj":0.0}},{"type":"Feature","geometry":{"type":"LineString","coordinates":[[-107.87204,39.38945,11590.0],[-108.00212,39.45534,11590.0]]},"properties":{"ef_share":0.0,"ef_tj":0.0}},{"type":"Feature","geometry":{"type":"LineString","coordinates":[[-108.00212,39.45534,11590.0],[-108.13216,39.52096,11580.0]]},"properties":{"ef_share":0.0,"ef_tj":0.0}},{"type":"Feature","geometry":{"type":"LineString","coordinates":[[-108.13216,39.52096,11580.0],[-108.26284,39.5866,11580.0]]},"properties":{"ef_share":0.0,"ef_tj":0.0}},{"type":"Feature","geometry":{"type":"LineString","coordinates":[[-108.26284,39.5866,11580.0],[-108.39331,39.65187,11580.0]]},"properties":{"ef_share":0.0,"ef_tj":0.0}},{"type":"Feature","geometry":{"type":"LineString","coordinates":[[-108.39331,39.65187,11580.0],[-108.5237,39.7168,11580.0]]},"properties":{"ef_share":0.0,"ef_tj":0.0}},{"type":"Feature","geometry":{"type":"LineString","coordinates":[[-108.5237,39.7168,11580.0],[-108.65347,39.78222,11580.0]]},"properties":{"ef_share":0.0,"ef_tj":0.0}},{"type":"Feature","geometry":{"type":"LineString","coordinates":[[-108.65347,39.78222,11580.0],[-108.77903,39.84969,11580.0]]},"properties":{"ef_share":0.0,"ef_tj":0.0}},{"type":"Feature","geometry":{"type":"LineString","coordinates":[[-108.77903,39.84969,11580.0],[-108.90459,39.91716,11580.0]]},"properties":{"ef_share":0.0,"ef_tj":0.0}},{"type":"Feature","geometry":{"type":"LineString","coordinates":[[-108.90459,39.91716,11580.0],[-109.03015,39.98462,11580.0]]},"properties":{"ef_share":0.0,"ef_tj":0.0}},{"type":"Feature","geometry":{"type":"LineString","coordinates":[[-109.03015,39.98462,11580.0],[-109.15571,40.05209,11580.0]]},"properties":{"ef_share":0.0,"ef_tj":0.0}},{"type":"Feature","geometry":{"type":"LineString","coordinates":[[-109.15571,40.05209,11580.0],[-109.28127,40.11955,11580.0]]},"properties":{"ef_share":0.0,"ef_tj":0.0}},{"type":"Feature","geometry":{"type":"LineString","coordinates":[[-109.28127,40.11955,11580.0],[-109.40683,40.18702,11580.0]]},"properties":{"ef_share":0.0,"ef_tj":0.0}},{"type":"Feature","geometry":{"type":"LineString","coordinates":[[-109.40683,40.18702,11580.0],[-109.53319,40.25404,11580.0]]},"properties":{"ef_share":0.0,"ef_tj":0.0}},{"type":"Feature","geometry":{"type":"LineString","coordinates":[[-109.53319,40.25404,11580.0],[-109.66042,40.32057,11580.0]]},"properties":{"ef_share":0.0,"ef_tj":0.0}},{"type":"Feature","geometry":{"type":"LineString","coordinates":[[-109.66042,40.32057,11580.0],[-109.78765,40.3871,11580.0]]},"properties":{"ef_share":0.0,"ef_tj":0.0}},{"type":"Feature","geometry":{"type":"LineString","coordinates":[[-109.78765,40.3871,11580.0],[-109.91489,40.45364,11580.0]]},"properties":{"ef_share":0.0,"ef_tj":0.0}},{"type":"Feature","geometry":{"type":"LineString","coordinates":[[-109.91489,40.45364,11580.0],[-110.04212,40.52017,11580.0]]},"properties":{"ef_share":0.0,"ef_tj":0.0}},{"type":"Feature","geometry":{"type":"LineString","coordinates":[[-110.04212,40.52017,11580.0],[-110.16935,40.58671,11580.0]]},"properties":{"ef_share":0.0,"ef_tj":0.0}},{"type":"Feature","geometry":{"type":"LineString","coordinates":[[-110.16935,40.58671,11580.0],[-110.29658,40.65324,11580.0]]},"properties":{"ef_share":0.0,"ef_tj":0.0}},{"type":"Feature","geometry":{"type":"LineString","coordinates":[[-110.29658,40.65324,11580.0],[-110.42206,40.72162,11590.0]]},"properties":{"ef_share":0.0,"ef_tj":0.0}},{"type":"Feature","geometry":{"type":"LineString","coordinates":[[-110.42206,40.72162,11590.0],[-110.54739,40.79033,11580.0]]},"properties":{"ef_share":0.0,"ef_tj":0.0}},{"type":"Feature","geometry":{"type":"LineString","coordinates":[[-110.54739,40.79033,11580.0],[-110.67302,40.85889,11580.0]]},"properties":{"ef_share":0.0,"ef_tj":0.0}},{"type":"Feature","geometry":{"type":"LineString","coordinates":[[-110.67302,40.85889,11580.0],[-110.79877,40.92739,11580.0]]},"properties":{"ef_share":0.0,"ef_tj":0.0}},{"type":"Feature","geometry":{"type":"LineString","coordinates":[[-110.79877,40.92739,11580.0],[-110.92535,40.99601,11580.0]]},"properties":{"ef_share":0.0,"ef_tj":0.0}},{"type":"Feature","geometry":{"type":"LineString","coordinates":[[-110.92535,40.99601,11580.0],[-111.05282,41.06479,11580.0]]},"properties":{"ef_share":0.0,"ef_tj":0.0}},{"type":"Feature","geometry":{"type":"LineString","coordinates":[[-111.05282,41.06479,11580.0],[-111.18047,41.13346,11580.0]]},"properties":{"ef_share":-0.447,"ef_tj":-0.972077}},{"type":"Feature","geometry":{"type":"LineString","coordinates":[[-111.18047,41.13346,11580.0],[-111.30616,41.20554,11590.0]]},"properties":{"ef_share":-0.058,"ef_tj":-0.125058}},{"type":"Feature","geometry":{"type":"LineString","coordinates":[[-111.30616,41.20554,11590.0],[-111.42905,41.28172,11580.0]]},"properties":{"ef_share":0.375,"ef_tj":0.815606}},{"type":"Feature","geometry":{"type":"LineString","coordinates":[[-111.42905,41.28172,11580.0],[-111.55235,41.35801,11580.0]]},"properties":{"ef_share":0.846,"ef_tj":1.837246}},{"type":"Feature","geometry":{"type":"LineString","coordinates":[[-111.55235,41.35801,11580.0],[-111.67637,41.4346,11580.0]]},"properties":{"ef_share":0.945,"ef_tj":2.052136}},{"type":"Feature","geometry":{"type":"LineString","coordinates":[[-111.67637,41.4346,11580.0],[-111.80093,41.51092,11580.0]]},"properties":{"ef_share":0.785,"ef_tj":1.705657}},{"type":"Feature","geometry":{"type":"LineString","coordinates":[[-111.80093,41.51092,11580.0],[-111.92612,41.58741,11580.0]]},"properties":{"ef_share":0.204,"ef_tj":0.442818}},{"type":"Feature","geometry":{"type":"LineString","coordinates":[[-111.92612,41.58741,11580.0],[-112.0515,41.66371,11580.0]]},"properties":{"ef_share":-0.266,"ef_tj":-0.577447}},{"type":"Feature","geometry":{"type":"LineString","coordinates":[[-112.0515,41.66371,11580.0],[-112.17727,41.73994,11580.0]]},"properties":{"ef_share":-0.628,"ef_tj":-1.365077}},{"type":"Feature","geometry":{"type":"LineString","coordinates":[[-112.17727,41.73994,11580.0],[-112.30407,41.8156,11580.0]]},"properties":{"ef_share":-1.0,"ef_tj":-2.172652}},{"type":"Feature","geometry":{"type":"LineString","coordinates":[[-112.30407,41.8156,11580.0],[-112.4373,41.88424,11580.0]]},"properties":{"ef_share":-0.931,"ef_tj":-2.021853}},{"type":"Feature","geometry":{"type":"LineString","coordinates":[[-112.4373,41.88424,11580.0],[-112.57235,41.95134,11580.0]]},"properties":{"ef_share":-0.575,"ef_tj":-1.248614}},{"type":"Feature","geometry":{"type":"LineString","coordinates":[[-112.57235,41.95134,11580.0],[-112.70793,42.01842,11580.0]]},"properties":{"ef_share":-0.519,"ef_tj":-1.128209}},{"type":"Feature","geometry":{"type":"LineString","coordinates":[[-112.70793,42.01842,11580.0],[-112.84305,42.08513,11590.0]]},"properties":{"ef_share":-0.598,"ef_tj":-1.299653}},{"type":"Feature","geometry":{"type":"LineString","coordinates":[[-112.84305,42.08513,11590.0],[-112.97851,42.1517,11580.0]]},"properties":{"ef_share":-0.455,"ef_tj":-0.988771}},{"type":"Feature","geometry":{"type":"LineString","coordinates":[[-112.97851,42.1517,11580.0],[-113.11361,42.21779,11580.0]]},"properties":{"ef_share":-0.468,"ef_tj":-1.016906}},{"type":"Feature","geometry":{"type":"LineString","coordinates":[[-113.11361,42.21779,11580.0],[-113.24873,42.28355,11580.0]]},"properties":{"ef_share":-0.11,"ef_tj":-0.238422}},{"type":"Feature","geometry":{"type":"LineString","coordinates":[[-113.24873,42.28355,11580.0],[-113.38457,42.34943,11580.0]]},"properties":{"ef_share":-0.074,"ef_tj":-0.160013}},{"type":"Feature","geometry":{"type":"LineString","coordinates":[[-113.38457,42.34943,11580.0],[-113.52036,42.41494,11580.0]]},"properties":{"ef_share":-0.068,"ef_tj":-0.14674}},{"type":"Feature","geometry":{"type":"LineString","coordinates":[[-113.52036,42.41494,11580.0],[-113.65635,42.48016,11590.0]]},"properties":{"ef_share":-0.107,"ef_tj":-0.232898}},{"type":"Feature","geometry":{"type":"LineString","coordinates":[[-113.65635,42.48016,11590.0],[-113.79258,42.54536,11590.0]]},"properties":{"ef_share":-0.122,"ef_tj":-0.265494}},{"type":"Feature","geometry":{"type":"LineString","coordinates":[[-113.79258,42.54536,11590.0],[-113.92609,42.61533,11580.0]]},"properties":{"ef_share":-0.02,"ef_tj":-0.043688}},{"type":"Feature","geometry":{"type":"LineString","coordinates":[[-113.92609,42.61533,11580.0],[-114.05671,42.69077,11580.0]]},"properties":{"ef_share":-0.018,"ef_tj":-0.038583}},{"type":"Feature","geometry":{"type":"LineString","coordinates":[[-114.05671,42.69077,11580.0],[-114.188,42.76653,11590.0]]},"properties":{"ef_share":-0.001,"ef_tj":-0.001554}},{"type":"Feature","geometry":{"type":"LineString","coordinates":[[-114.188,42.76653,11590.0],[-114.32007,42.84233,11580.0]]},"properties":{"ef_share":0.0,"ef_tj":0.0}},{"type":"Feature","geometry":{"type":"LineString","coordinates":[[-114.32007,42.84233,11580.0],[-114.45244,42.91795,11590.0]]},"properties":{"ef_share":0.0,"ef_tj":0.0}},{"type":"Feature","geometry":{"type":"LineString","coordinates":[[-114.45244,42.91795,11590.0],[-114.58506,42.9933,11590.0]]},"properties":{"ef_share":0.0,"ef_tj":0.0}},{"type":"Feature","geometry":{"type":"LineString","coordinates":[[-114.58506,42.9933,11590.0],[-114.71843,43.06874,11580.0]]},"properties":{"ef_share":0.0,"ef_tj":0.0}},{"type":"Feature","geometry":{"type":"LineString","coordinates":[[-114.71843,43.06874,11580.0],[-114.85239,43.14426,11580.0]]},"properties":{"ef_share":0.0,"ef_tj":0.0}},{"type":"Feature","geometry":{"type":"LineString","coordinates":[[-114.85239,43.14426,11580.0],[-114.98634,43.21945,11580.0]]},"properties":{"ef_share":0.0,"ef_tj":0.0}},{"type":"Feature","geometry":{"type":"LineString","coordinates":[[-114.98634,43.21945,11580.0],[-115.11949,43.29381,11580.0]]},"properties":{"ef_share":0.0,"ef_tj":0.0}},{"type":"Feature","geometry":{"type":"LineString","coordinates":[[-115.11949,43.29381,11580.0],[-115.25434,43.36869,11580.0]]},"properties":{"ef_share":0.0,"ef_tj":0.0}},{"type":"Feature","geometry":{"type":"LineString","coordinates":[[-115.25434,43.36869,11580.0],[-115.38897,43.44321,11580.0]]},"properties":{"ef_share":0.0,"ef_tj":0.0}},{"type":"Feature","geometry":{"type":"LineString","coordinates":[[-115.38897,43.44321,11580.0],[-115.5246,43.51799,11590.0]]},"properties":{"ef_share":0.0,"ef_tj":0.0}},{"type":"Feature","geometry":{"type":"LineString","coordinates":[[-115.5246,43.51799,11590.0],[-115.66079,43.59252,11580.0]]},"properties":{"ef_share":0.0,"ef_tj":0.0}},{"type":"Feature","geometry":{"type":"LineString","coordinates":[[-115.66079,43.59252,11580.0],[-115.79739,43.66606,11580.0]]},"properties":{"ef_share":0.0,"ef_tj":0.0}},{"type":"Feature","geometry":{"type":"LineString","coordinates":[[-115.79739,43.66606,11580.0],[-115.93695,43.73615,11580.0]]},"properties":{"ef_share":0.0,"ef_tj":0.0}},{"type":"Feature","geometry":{"type":"LineString","coordinates":[[-115.93695,43.73615,11580.0],[-116.07683,43.80679,11590.0]]},"properties":{"ef_share":0.0,"ef_tj":0.0}},{"type":"Feature","geometry":{"type":"LineString","coordinates":[[-116.07683,43.80679,11590.0],[-116.2172,43.87756,11580.0]]},"properties":{"ef_share":0.0,"ef_tj":0.0}},{"type":"Feature","geometry":{"type":"LineString","coordinates":[[-116.2172,43.87756,11580.0],[-116.35847,43.94855,11580.0]]},"properties":{"ef_share":0.0,"ef_tj":0.0}},{"type":"Feature","geometry":{"type":"LineString","coordinates":[[-116.35847,43.94855,11580.0],[-116.50005,44.01903,11580.0]]},"properties":{"ef_share":0.0,"ef_tj":0.0}},{"type":"Feature","geometry":{"type":"LineString","coordinates":[[-116.50005,44.01903,11580.0],[-116.64162,44.08939,11590.0]]},"properties":{"ef_share":0.0,"ef_tj":0.0}},{"type":"Feature","geometry":{"type":"LineString","coordinates":[[-116.64162,44.08939,11590.0],[-116.78391,44.15964,11580.0]]},"properties":{"ef_share":0.0,"ef_tj":0.0}},{"type":"Feature","geometry":{"type":"LineString","coordinates":[[-116.78391,44.15964,11580.0],[-116.92699,44.22982,11590.0]]},"properties":{"ef_share":0.0,"ef_tj":0.0}},{"type":"Feature","geometry":{"type":"LineString","coordinates":[[-116.92699,44.22982,11590.0],[-117.07032,44.29996,11590.0]]},"properties":{"ef_share":0.0,"ef_tj":0.0}},{"type":"Feature","geometry":{"type":"LineString","coordinates":[[-117.07032,44.29996,11590.0],[-117.21313,44.37162,11590.0]]},"properties":{"ef_share":0.0,"ef_tj":0.0}},{"type":"Feature","geometry":{"type":"LineString","coordinates":[[-117.21313,44.37162,11590.0],[-117.35369,44.44893,11590.0]]},"properties":{"ef_share":0.0,"ef_tj":0.0}},{"type":"Feature","geometry":{"type":"LineString","coordinates":[[-117.35369,44.44893,11590.0],[-117.49499,44.52722,11580.0]]},"properties":{"ef_share":0.0,"ef_tj":0.0}},{"type":"Feature","geometry":{"type":"LineString","coordinates":[[-117.49499,44.52722,11580.0],[-117.63753,44.6057,11590.0]]},"properties":{"ef_share":0.0,"ef_tj":0.0}},{"type":"Feature","geometry":{"type":"LineString","coordinates":[[-117.63753,44.6057,11590.0],[-117.78134,44.68468,11580.0]]},"properties":{"ef_share":0.0,"ef_tj":0.0}},{"type":"Feature","geometry":{"type":"LineString","coordinates":[[-117.78134,44.68468,11580.0],[-117.92563,44.76319,11580.0]]},"properties":{"ef_share":0.0,"ef_tj":0.0}},{"type":"Feature","geometry":{"type":"LineString","coordinates":[[-117.92563,44.76319,11580.0],[-118.07024,44.84142,11580.0]]},"properties":{"ef_share":0.0,"ef_tj":0.0}},{"type":"Feature","geometry":{"type":"LineString","coordinates":[[-118.07024,44.84142,11580.0],[-118.21537,44.91986,11590.0]]},"properties":{"ef_share":0.0,"ef_tj":0.0}},{"type":"Feature","geometry":{"type":"LineString","coordinates":[[-118.21537,44.91986,11590.0],[-118.36095,44.99667,11590.0]]},"properties":{"ef_share":0.0,"ef_tj":0.0}},{"type":"Feature","geometry":{"type":"LineString","coordinates":[[-118.36095,44.99667,11590.0],[-118.50833,45.06791,11580.0]]},"properties":{"ef_share":0.0,"ef_tj":0.0}},{"type":"Feature","geometry":{"type":"LineString","coordinates":[[-118.50833,45.06791,11580.0],[-118.65648,45.13828,11590.0]]},"properties":{"ef_share":0.0,"ef_tj":0.0}},{"type":"Feature","geometry":{"type":"LineString","coordinates":[[-118.65648,45.13828,11590.0],[-118.80558,45.20872,11590.0]]},"properties":{"ef_share":0.0,"ef_tj":0.0}},{"type":"Feature","geometry":{"type":"LineString","coordinates":[[-118.80558,45.20872,11590.0],[-118.95393,45.27866,11580.0]]},"properties":{"ef_share":0.0,"ef_tj":0.0}},{"type":"Feature","geometry":{"type":"LineString","coordinates":[[-118.95393,45.27866,11580.0],[-119.10169,45.34774,11590.0]]},"properties":{"ef_share":0.0,"ef_tj":0.0}},{"type":"Feature","geometry":{"type":"LineString","coordinates":[[-119.10169,45.34774,11590.0],[-119.24998,45.41687,11580.0]]},"properties":{"ef_share":0.0,"ef_tj":0.0}},{"type":"Feature","geometry":{"type":"LineString","coordinates":[[-119.24998,45.41687,11580.0],[-119.3989,45.48553,11580.0]]},"properties":{"ef_share":0.0,"ef_tj":0.0}},{"type":"Feature","geometry":{"type":"LineString","coordinates":[[-119.3989,45.48553,11580.0],[-119.54855,45.5545,11580.0]]},"properties":{"ef_share":0.0,"ef_tj":0.0}},{"type":"Feature","geometry":{"type":"LineString","coordinates":[[-119.54855,45.5545,11580.0],[-119.69956,45.62386,11590.0]]},"properties":{"ef_share":0.0,"ef_tj":0.0}},{"type":"Feature","geometry":{"type":"LineString","coordinates":[[-119.69956,45.62386,11590.0],[-119.85213,45.69327,11590.0]]},"properties":{"ef_share":0.0,"ef_tj":0.0}},{"type":"Feature","geometry":{"type":"LineString","coordinates":[[-119.85213,45.69327,11590.0],[-120.00659,45.76319,11580.0]]},"properties":{"ef_share":0.0,"ef_tj":0.0}},{"type":"Feature","geometry":{"type":"LineString","coordinates":[[-120.00659,45.76319,11580.0],[-120.16234,45.83353,11590.0]]},"properties":{"ef_share":0.0,"ef_tj":0.0}},{"type":"Feature","geometry":{"type":"LineString","coordinates":[[-120.16234,45.83353,11590.0],[-120.31947,45.90382,11580.0]]},"properties":{"ef_share":0.0,"ef_tj":0.0}},{"type":"Feature","geometry":{"type":"LineString","coordinates":[[-120.31947,45.90382,11580.0],[-120.47798,45.97462,11580.0]]},"properties":{"ef_share":0.0,"ef_tj":0.0}},{"type":"Feature","geometry":{"type":"LineString","coordinates":[[-120.47798,45.97462,11580.0],[-120.63755,46.04534,11590.0]]},"properties":{"ef_share":0.0,"ef_tj":0.0}},{"type":"Feature","geometry":{"type":"LineString","coordinates":[[-120.63755,46.04534,11590.0],[-120.79793,46.11608,11580.0]]},"properties":{"ef_share":0.0,"ef_tj":0.0}},{"type":"Feature","geometry":{"type":"LineString","coordinates":[[-120.79793,46.11608,11580.0],[-120.9587,46.18641,11580.0]]},"properties":{"ef_share":0.0,"ef_tj":0.0}},{"type":"Feature","geometry":{"type":"LineString","coordinates":[[-120.9587,46.18641,11580.0],[-121.11972,46.25641,11580.0]]},"properties":{"ef_share":0.0,"ef_tj":0.0}},{"type":"Feature","geometry":{"type":"LineString","coordinates":[[-121.11972,46.25641,11580.0],[-121.28067,46.3262,11580.0]]},"properties":{"ef_share":0.0,"ef_tj":0.0}},{"type":"Feature","geometry":{"type":"LineString","coordinates":[[-121.28067,46.3262,11580.0],[-121.44108,46.39524,11580.0]]},"properties":{"ef_share":0.0,"ef_tj":0.0}},{"type":"Feature","geometry":{"type":"LineString","coordinates":[[-121.44108,46.39524,11580.0],[-121.60059,46.46569,11580.0]]},"properties":{"ef_share":0.0,"ef_tj":0.0}},{"type":"Feature","geometry":{"type":"LineString","coordinates":[[-121.60059,46.46569,11580.0],[-121.73608,46.56326,11590.0]]},"properties":{"ef_share":0.0,"ef_tj":0.0}},{"type":"Feature","geometry":{"type":"LineString","coordinates":[[-121.73608,46.56326,11590.0],[-121.86391,46.66741,11590.0]]},"properties":{"ef_share":0.0,"ef_tj":0.0}},{"type":"Feature","geometry":{"type":"LineString","coordinates":[[-121.86391,46.66741,11590.0],[-121.99179,46.77094,11580.0]]},"properties":{"ef_share":0.0,"ef_tj":0.0}},{"type":"Feature","geometry":{"type":"LineString","coordinates":[[-121.99179,46.77094,11580.0],[-122.12032,46.87354,11580.0]]},"properties":{"ef_share":0.0,"ef_tj":0.0}},{"type":"Feature","geometry":{"type":"LineString","coordinates":[[-122.12032,46.87354,11580.0],[-122.24967,46.97612,11580.0]]},"properties":{"ef_share":0.0,"ef_tj":0.0}},{"type":"Feature","geometry":{"type":"LineString","coordinates":[[-122.24967,46.97612,11580.0],[-122.37928,47.07868,11580.0]]},"properties":{"ef_share":0.0,"ef_tj":0.0}},{"type":"Feature","geometry":{"type":"LineString","coordinates":[[-122.37928,47.07868,11580.0],[-122.50969,47.18116,11580.0]]},"properties":{"ef_share":0.0,"ef_tj":0.0}},{"type":"Feature","geometry":{"type":"LineString","coordinates":[[-122.50969,47.18116,11580.0],[-122.64099,47.28391,11580.0]]},"properties":{"ef_share":0.0,"ef_tj":0.0}},{"type":"Feature","geometry":{"type":"LineString","coordinates":[[-122.64099,47.28391,11580.0],[-122.77281,47.38652,11590.0]]},"properties":{"ef_share":0.0,"ef_tj":0.0}},{"type":"Feature","geometry":{"type":"LineString","coordinates":[[-122.77281,47.38652,11590.0],[-122.90486,47.48879,11580.0]]},"properties":{"ef_share":0.0,"ef_tj":0.0}},{"type":"Feature","geometry":{"type":"LineString","coordinates":[[-122.90486,47.48879,11580.0],[-123.03733,47.59074,11580.0]]},"properties":{"ef_share":0.0,"ef_tj":0.0}},{"type":"Feature","geometry":{"type":"LineString","coordinates":[[-123.03733,47.59074,11580.0],[-123.17002,47.69232,11580.0]]},"properties":{"ef_share":0.0,"ef_tj":0.0}},{"type":"Feature","geometry":{"type":"LineString","coordinates":[[-123.17002,47.69232,11580.0],[-123.30272,47.79346,11580.0]]},"properties":{"ef_share":0.0,"ef_tj":0.0}},{"type":"Feature","geometry":{"type":"LineString","coordinates":[[-123.30272,47.79346,11580.0],[-123.43618,47.89438,11580.0]]},"properties":{"ef_share":0.0,"ef_tj":0.0}},{"type":"Feature","geometry":{"type":"LineString","coordinates":[[-123.43618,47.89438,11580.0],[-123.57035,47.99536,11580.0]]},"properties":{"ef_share":0.0,"ef_tj":0.0}},{"type":"Feature","geometry":{"type":"LineString","coordinates":[[-123.57035,47.99536,11580.0],[-123.70544,48.09678,11590.0]]},"properties":{"ef_share":0.0,"ef_tj":0.0}},{"type":"Feature","geometry":{"type":"LineString","coordinates":[[-123.70544,48.09678,11590.0],[-123.84202,48.19853,11580.0]]},"properties":{"ef_share":0.0,"ef_tj":0.0}},{"type":"Feature","geometry":{"type":"LineString","coordinates":[[-123.84202,48.19853,11580.0],[-123.97927,48.30013,11580.0]]},"properties":{"ef_share":0.0,"ef_tj":0.0}},{"type":"Feature","geometry":{"type":"LineString","coordinates":[[-123.97927,48.30013,11580.0],[-124.11809,48.40266,11590.0]]},"properties":{"ef_share":0.0,"ef_tj":0.0}},{"type":"Feature","geometry":{"type":"LineString","coordinates":[[-124.11809,48.40266,11590.0],[-124.25794,48.50501,11590.0]]},"properties":{"ef_share":0.0,"ef_tj":0.0}},{"type":"Feature","geometry":{"type":"LineString","coordinates":[[-124.25794,48.50501,11590.0],[-124.39824,48.60721,11580.0]]},"properties":{"ef_share":0.0,"ef_tj":0.0}},{"type":"Feature","geometry":{"type":"LineString","coordinates":[[-124.39824,48.60721,11580.0],[-124.53957,48.70961,11580.0]]},"properties":{"ef_share":0.0,"ef_tj":0.0}},{"type":"Feature","geometry":{"type":"LineString","coordinates":[[-124.53957,48.70961,11580.0],[-124.68115,48.81142,11580.0]]},"properties":{"ef_share":0.0,"ef_tj":0.0}},{"type":"Feature","geometry":{"type":"LineString","coordinates":[[-124.68115,48.81142,11580.0],[-124.82297,48.91306,11590.0]]},"properties":{"ef_share":0.0,"ef_tj":0.0}},{"type":"Feature","geometry":{"type":"LineString","coordinates":[[-124.82297,48.91306,11590.0],[-124.96546,49.0144,11590.0]]},"properties":{"ef_share":0.0,"ef_tj":0.0}},{"type":"Feature","geometry":{"type":"LineString","coordinates":[[-124.96546,49.0144,11590.0],[-125.1086,49.11563,11580.0]]},"properties":{"ef_share":0.0,"ef_tj":0.0}},{"type":"Feature","geometry":{"type":"LineString","coordinates":[[-125.1086,49.11563,11580.0],[-125.25144,49.21625,11580.0]]},"properties":{"ef_share":0.0,"ef_tj":0.0}},{"type":"Feature","geometry":{"type":"LineString","coordinates":[[-125.25144,49.21625,11580.0],[-125.39472,49.31661,11580.0]]},"properties":{"ef_share":0.0,"ef_tj":0.0}},{"type":"Feature","geometry":{"type":"LineString","coordinates":[[-125.39472,49.31661,11580.0],[-125.53939,49.4172,11590.0]]},"properties":{"ef_share":0.0,"ef_tj":0.0}},{"type":"Feature","geometry":{"type":"LineString","coordinates":[[-125.53939,49.4172,11590.0],[-125.68401,49.517,11580.0]]},"properties":{"ef_share":0.0,"ef_tj":0.0}},{"type":"Feature","geometry":{"type":"LineString","coordinates":[[-125.68401,49.517,11580.0],[-125.82798,49.61616,11580.0]]},"properties":{"ef_share":0.0,"ef_tj":0.0}},{"type":"Feature","geometry":{"type":"LineString","coordinates":[[-125.82798,49.61616,11580.0],[-125.97251,49.71479,11580.0]]},"properties":{"ef_share":0.0,"ef_tj":0.0}},{"type":"Feature","geometry":{"type":"LineString","coordinates":[[-125.97251,49.71479,11580.0],[-126.11756,49.81326,11590.0]]},"properties":{"ef_share":0.0,"ef_tj":0.0}},{"type":"Feature","geometry":{"type":"LineString","coordinates":[[-126.11756,49.81326,11590.0],[-126.26276,49.91133,11580.0]]},"properties":{"ef_share":0.0,"ef_tj":0.0}},{"type":"Feature","geometry":{"type":"LineString","coordinates":[[-126.26276,49.91133,11580.0],[-126.40859,50.00913,11580.0]]},"properties":{"ef_share":0.0,"ef_tj":0.0}},{"type":"Feature","geometry":{"type":"LineString","coordinates":[[-126.40859,50.00913,11580.0],[-126.55451,50.10659,11580.0]]},"properties":{"ef_share":0.0,"ef_tj":0.0}},{"type":"Feature","geometry":{"type":"LineString","coordinates":[[-126.55451,50.10659,11580.0],[-126.70074,50.20357,11580.0]]},"properties":{"ef_share":0.0,"ef_tj":0.0}},{"type":"Feature","geometry":{"type":"LineString","coordinates":[[-126.70074,50.20357,11580.0],[-126.84796,50.30069,11590.0]]},"properties":{"ef_share":0.0,"ef_tj":0.0}},{"type":"Feature","geometry":{"type":"LineString","coordinates":[[-126.84796,50.30069,11590.0],[-126.99616,50.39778,11580.0]]},"properties":{"ef_share":0.0,"ef_tj":0.0}},{"type":"Feature","geometry":{"type":"LineString","coordinates":[[-126.99616,50.39778,11580.0],[-127.14552,50.49505,11580.0]]},"properties":{"ef_share":0.0,"ef_tj":0.0}},{"type":"Feature","geometry":{"type":"LineString","coordinates":[[-127.14552,50.49505,11580.0],[-127.29525,50.59202,11590.0]]},"properties":{"ef_share":0.0,"ef_tj":0.0}},{"type":"Feature","geometry":{"type":"LineString","coordinates":[[-127.29525,50.59202,11590.0],[-127.44567,50.68872,11580.0]]},"properties":{"ef_share":0.0,"ef_tj":0.0}},{"type":"Feature","geometry":{"type":"LineString","coordinates":[[-127.44567,50.68872,11580.0],[-127.59636,50.78505,11580.0]]},"properties":{"ef_share":0.0,"ef_tj":0.0}},{"type":"Feature","geometry":{"type":"LineString","coordinates":[[-127.59636,50.78505,11580.0],[-127.74705,50.88097,11580.0]]},"properties":{"ef_share":0.0,"ef_tj":0.0}},{"type":"Feature","geometry":{"type":"LineString","coordinates":[[-127.74705,50.88097,11580.0],[-127.89769,50.97622,11580.0]]},"properties":{"ef_share":0.0,"ef_tj":0.0}},{"type":"Feature","geometry":{"type":"LineString","coordinates":[[-127.89769,50.97622,11580.0],[-128.04946,51.07145,11590.0]]},"properties":{"ef_share":0.0,"ef_tj":0.0}},{"type":"Feature","geometry":{"type":"LineString","coordinates":[[-128.04946,51.07145,11590.0],[-128.20204,51.1666,11590.0]]},"properties":{"ef_share":0.0,"ef_tj":0.0}},{"type":"Feature","geometry":{"type":"LineString","coordinates":[[-128.20204,51.1666,11590.0],[-128.34599,51.26802,11580.0]]},"properties":{"ef_share":0.0,"ef_tj":0.0}},{"type":"Feature","geometry":{"type":"LineString","coordinates":[[-128.34599,51.26802,11580.0],[-128.4887,51.37082,11580.0]]},"properties":{"ef_share":0.0,"ef_tj":0.0}},{"type":"Feature","geometry":{"type":"LineString","coordinates":[[-128.4887,51.37082,11580.0],[-128.63141,51.47362,11580.0]]},"properties":{"ef_share":0.0,"ef_tj":0.0}},{"type":"Feature","geometry":{"type":"LineString","coordinates":[[-128.63141,51.47362,11580.0],[-128.77412,51.57642,11580.0]]},"properties":{"ef_share":0.0,"ef_tj":0.0}},{"type":"Feature","geometry":{"type":"LineString","coordinates":[[-128.77412,51.57642,11580.0],[-128.91684,51.67922,11580.0]]},"properties":{"ef_share":0.0,"ef_tj":0.0}},{"type":"Feature","geometry":{"type":"LineString","coordinates":[[-128.91684,51.67922,11580.0],[-129.05955,51.78202,11580.0]]},"properties":{"ef_share":0.0,"ef_tj":0.0}},{"type":"Feature","geometry":{"type":"LineString","coordinates":[[-129.05955,51.78202,11580.0],[-129.20598,51.88379,11580.0]]},"properties":{"ef_share":0.0,"ef_tj":0.0}},{"type":"Feature","geometry":{"type":"LineString","coordinates":[[-129.20598,51.88379,11580.0],[-129.35254,51.98553,11580.0]]},"properties":{"ef_share":0.0,"ef_tj":0.0}},{"type":"Feature","geometry":{"type":"LineString","coordinates":[[-129.35254,51.98553,11580.0],[-129.49909,52.08728,11580.0]]},"properties":{"ef_share":0.0,"ef_tj":0.0}},{"type":"Feature","geometry":{"type":"LineString","coordinates":[[-129.49909,52.08728,11580.0],[-129.64565,52.18902,11580.0]]},"properties":{"ef_share":0.0,"ef_tj":0.0}},{"type":"Feature","geometry":{"type":"LineString","coordinates":[[-129.64565,52.18902,11580.0],[-129.79221,52.29076,11580.0]]},"properties":{"ef_share":0.0,"ef_tj":0.0}},{"type":"Feature","geometry":{"type":"LineString","coordinates":[[-129.79221,52.29076,11580.0],[-129.93913,52.39241,11580.0]]},"properties":{"ef_share":0.0,"ef_tj":0.0}},{"type":"Feature","geometry":{"type":"LineString","coordinates":[[-129.93913,52.39241,11580.0],[-130.08967,52.49304,11580.0]]},"properties":{"ef_share":0.0,"ef_tj":0.0}},{"type":"Feature","geometry":{"type":"LineString","coordinates":[[-130.08967,52.49304,11580.0],[-130.24022,52.59368,11580.0]]},"properties":{"ef_share":0.0,"ef_tj":0.0}},{"type":"Feature","geometry":{"type":"LineString","coordinates":[[-130.24022,52.59368,11580.0],[-130.39077,52.69431,11580.0]]},"properties":{"ef_share":0.0,"ef_tj":0.0}},{"type":"Feature","geometry":{"type":"LineString","coordinates":[[-130.39077,52.69431,11580.0],[-130.54132,52.79495,11580.0]]},"properties":{"ef_share":0.0,"ef_tj":0.0}},{"type":"Feature","geometry":{"type":"LineString","coordinates":[[-130.54132,52.79495,11580.0],[-130.69187,52.89558,11580.0]]},"properties":{"ef_share":0.0,"ef_tj":0.0}},{"type":"Feature","geometry":{"type":"LineString","coordinates":[[-130.69187,52.89558,11580.0],[-130.8433,52.99597,11580.0]]},"properties":{"ef_share":0.0,"ef_tj":0.0}},{"type":"Feature","geometry":{"type":"LineString","coordinates":[[-130.8433,52.99597,11580.0],[-130.99799,53.09545,11580.0]]},"properties":{"ef_share":0.0,"ef_tj":0.0}},{"type":"Feature","geometry":{"type":"LineString","coordinates":[[-130.99799,53.09545,11580.0],[-131.15268,53.19492,11580.0]]},"properties":{"ef_share":0.0,"ef_tj":0.0}},{"type":"Feature","geometry":{"type":"LineString","coordinates":[[-131.15268,53.19492,11580.0],[-131.30737,53.2944,11580.0]]},"properties":{"ef_share":0.0,"ef_tj":0.0}},{"type":"Feature","geometry":{"type":"LineString","coordinates":[[-131.30737,53.2944,11580.0],[-131.46207,53.39387,11580.0]]},"properties":{"ef_share":0.0,"ef_tj":0.0}},{"type":"Feature","geometry":{"type":"LineString","coordinates":[[-131.46207,53.39387,11580.0],[-131.61676,53.49334,11580.0]]},"properties":{"ef_share":0.0,"ef_tj":0.0}},{"type":"Feature","geometry":{"type":"LineString","coordinates":[[-131.61676,53.49334,11580.0],[-131.77289,53.59241,11580.0]]},"properties":{"ef_share":0.0,"ef_tj":0.0}},{"type":"Feature","geometry":{"type":"LineString","coordinates":[[-131.77289,53.59241,11580.0],[-131.93188,53.69067,11580.0]]},"properties":{"ef_share":0.0,"ef_tj":0.0}},{"type":"Feature","geometry":{"type":"LineString","coordinates":[[-131.93188,53.69067,11580.0],[-132.09087,53.78892,11580.0]]},"properties":{"ef_share":0.0,"ef_tj":0.0}},{"type":"Feature","geometry":{"type":"LineString","coordinates":[[-132.09087,53.78892,11580.0],[-132.24986,53.88718,11580.0]]},"properties":{"ef_share":0.0,"ef_tj":0.0}},{"type":"Feature","geometry":{"type":"LineString","coordinates":[[-132.24986,53.88718,11580.0],[-132.40885,53.98543,11580.0]]},"properties":{"ef_share":0.0,"ef_tj":0.0}},{"type":"Feature","geometry":{"type":"LineString","coordinates":[[-132.40885,53.98543,11580.0],[-132.56784,54.08369,11580.0]]},"properties":{"ef_share":0.0,"ef_tj":0.0}},{"type":"Feature","geometry":{"type":"LineString","coordinates":[[-132.56784,54.08369,11580.0],[-132.70852,54.19248,11590.0]]},"properties":{"ef_share":0.0,"ef_tj":0.0}},{"type":"Feature","geometry":{"type":"LineString","coordinates":[[-132.70852,54.19248,11590.0],[-132.82841,54.31338,11590.0]]},"properties":{"ef_share":0.0,"ef_tj":0.0}},{"type":"Feature","geometry":{"type":"LineString","coordinates":[[-132.82841,54.31338,11590.0],[-132.9491,54.43521,11590.0]]},"properties":{"ef_share":0.0,"ef_tj":0.0}},{"type":"Feature","geometry":{"type":"LineString","coordinates":[[-132.9491,54.43521,11590.0],[-133.07196,54.55668,11580.0]]},"properties":{"ef_share":0.0,"ef_tj":0.0}},{"type":"Feature","geometry":{"type":"LineString","coordinates":[[-133.07196,54.55668,11580.0],[-133.21403,54.66941,11590.0]]},"properties":{"ef_share":0.0,"ef_tj":0.0}},{"type":"Feature","geometry":{"type":"LineString","coordinates":[[-133.21403,54.66941,11590.0],[-133.36404,54.7792,11580.0]]},"properties":{"ef_share":0.0,"ef_tj":0.0}},{"type":"Feature","geometry":{"type":"LineString","coordinates":[[-133.36404,54.7792,11580.0],[-133.51449,54.88849,11580.0]]},"properties":{"ef_share":0.0,"ef_tj":0.0}},{"type":"Feature","geometry":{"type":"LineString","coordinates":[[-133.51449,54.88849,11580.0],[-133.66648,54.99797,11580.0]]},"properties":{"ef_share":0.0,"ef_tj":0.0}},{"type":"Feature","geometry":{"type":"LineString","coordinates":[[-133.66648,54.99797,11580.0],[-133.81952,55.10763,11580.0]]},"properties":{"ef_share":0.0,"ef_tj":0.0}},{"type":"Feature","geometry":{"type":"LineString","coordinates":[[-133.81952,55.10763,11580.0],[-133.97291,55.21676,11580.0]]},"properties":{"ef_share":0.0,"ef_tj":0.0}},{"type":"Feature","geometry":{"type":"LineString","coordinates":[[-133.97291,55.21676,11580.0],[-134.12674,55.32551,11590.0]]},"properties":{"ef_share":0.0,"ef_tj":0.0}},{"type":"Feature","geometry":{"type":"LineString","coordinates":[[-134.12674,55.32551,11590.0],[-134.28224,55.43437,11590.0]]},"properties":{"ef_share":0.0,"ef_tj":0.0}},{"type":"Feature","geometry":{"type":"LineString","coordinates":[[-134.28224,55.43437,11590.0],[-134.43784,55.54279,11580.0]]},"properties":{"ef_share":0.0,"ef_tj":0.0}},{"type":"Feature","geometry":{"type":"LineString","coordinates":[[-134.43784,55.54279,11580.0],[-134.59476,55.65114,11590.0]]},"properties":{"ef_share":0.0,"ef_tj":0.0}},{"type":"Feature","geometry":{"type":"LineString","coordinates":[[-134.59476,55.65114,11590.0],[-134.75265,55.75929,11590.0]]},"properties":{"ef_share":0.0,"ef_tj":0.0}},{"type":"Feature","geometry":{"type":"LineString","coordinates":[[-134.75265,55.75929,11590.0],[-134.91099,55.86716,11580.0]]},"properties":{"ef_share":0.0,"ef_tj":0.0}},{"type":"Feature","geometry":{"type":"LineString","coordinates":[[-134.91099,55.86716,11580.0],[-135.07028,55.97478,11590.0]]},"properties":{"ef_share":0.0,"ef_tj":0.0}},{"type":"Feature","geometry":{"type":"LineString","coordinates":[[-135.07028,55.97478,11590.0],[-135.22989,56.08192,11580.0]]},"properties":{"ef_share":0.0,"ef_tj":0.0}},{"type":"Feature","geometry":{"type":"LineString","coordinates":[[-135.22989,56.08192,11580.0],[-135.38986,56.18833,11580.0]]},"properties":{"ef_share":0.0,"ef_tj":0.0}},{"type":"Feature","geometry":{"type":"LineString","coordinates":[[-135.38986,56.18833,11580.0],[-135.55017,56.2941,11580.0]]},"properties":{"ef_share":0.0,"ef_tj":0.0}},{"type":"Feature","geometry":{"type":"LineString","coordinates":[[-135.55017,56.2941,11580.0],[-135.71109,56.39969,11580.0]]},"properties":{"ef_share":0.0,"ef_tj":0.0}},{"type":"Feature","geometry":{"type":"LineString","coordinates":[[-135.71109,56.39969,11580.0],[-135.87231,56.50453,11580.0]]},"properties":{"ef_share":0.0,"ef_tj":0.0}}]}