{"type":"FeatureCollection","properties":{"icao24":"a1f4c5","registration":"N225NE","owner_label":"New England Patriots","combined_co2e_central":41456.7,"fuel_co2_kg":40114.9,"contrail_co2e_central":1341.8,"tier":"high"},"features":[{"type":"Feature","geometry":{"type":"LineString","coordinates":[[7.68601,49.44395,1090.0],[7.72617,49.49609,1660.0]]},"properties":{"ef_share":0.0,"ef_tj":0.0}},{"type":"Feature","geometry":{"type":"LineString","coordinates":[[7.72617,49.49609,1660.0],[7.82261,49.52563,2480.0]]},"properties":{"ef_share":0.0,"ef_tj":0.0}},{"type":"Feature","geometry":{"type":"LineString","coordinates":[[7.82261,49.52563,2480.0],[7.89407,49.57918,3190.0]]},"properties":{"ef_share":0.0,"ef_tj":0.0}},{"type":"Feature","geometry":{"type":"LineString","coordinates":[[7.89407,49.57918,3190.0],[7.8037,49.65318,3550.0]]},"properties":{"ef_share":0.0,"ef_tj":0.0}},{"type":"Feature","geometry":{"type":"LineString","coordinates":[[7.8037,49.65318,3550.0],[7.67494,49.73208,4280.0]]},"properties":{"ef_share":0.0,"ef_tj":0.0}},{"type":"Feature","geometry":{"type":"LineString","coordinates":[[7.67494,49.73208,4280.0],[7.53742,49.81498,5030.0]]},"properties":{"ef_share":0.0,"ef_tj":0.0}},{"type":"Feature","geometry":{"type":"LineString","coordinates":[[7.53742,49.81498,5030.0],[7.38909,49.89719,5180.0]]},"properties":{"ef_share":0.0,"ef_tj":0.0}},{"type":"Feature","geometry":{"type":"LineString","coordinates":[[7.38909,49.89719,5180.0],[7.20832,49.94747,5290.0]]},"properties":{"ef_share":0.0,"ef_tj":0.0}},{"type":"Feature","geometry":{"type":"LineString","coordinates":[[7.20832,49.94747,5290.0],[7.0098,49.97784,5780.0]]},"properties":{"ef_share":0.0,"ef_tj":0.0}},{"type":"Feature","geometry":{"type":"LineString","coordinates":[[7.0098,49.97784,5780.0],[6.80978,50.01111,5790.0]]},"properties":{"ef_share":0.0,"ef_tj":0.0}},{"type":"Feature","geometry":{"type":"LineString","coordinates":[[6.80978,50.01111,5790.0],[6.60867,50.03764,5800.0]]},"properties":{"ef_share":0.0,"ef_tj":0.0}},{"type":"Feature","geometry":{"type":"LineString","coordinates":[[6.60867,50.03764,5800.0],[6.40253,50.04462,5800.0]]},"properties":{"ef_share":0.0,"ef_tj":0.0}},{"type":"Feature","geometry":{"type":"LineString","coordinates":[[6.40253,50.04462,5800.0],[6.19574,50.05585,6420.0]]},"properties":{"ef_share":0.0,"ef_tj":0.0}},{"type":"Feature","geometry":{"type":"LineString","coordinates":[[6.19574,50.05585,6420.0],[6.00418,50.10496,7040.0]]},"properties":{"ef_share":0.0,"ef_tj":0.0}},{"type":"Feature","geometry":{"type":"LineString","coordinates":[[6.00418,50.10496,7040.0],[5.84692,50.19118,7640.0]]},"properties":{"ef_share":0.0,"ef_tj":0.0}},{"type":"Feature","geometry":{"type":"LineString","coordinates":[[5.84692,50.19118,7640.0],[5.67828,50.27401,8230.0]]},"properties":{"ef_share":0.0,"ef_tj":0.0}},{"type":"Feature","geometry":{"type":"LineString","coordinates":[[5.67828,50.27401,8230.0],[5.51186,50.35504,9030.0]]},"properties":{"ef_share":0.0,"ef_tj":0.0}},{"type":"Feature","geometry":{"type":"LineString","coordinates":[[5.51186,50.35504,9030.0],[5.34718,50.43616,9140.0]]},"properties":{"ef_share":0.0,"ef_tj":0.0}},{"type":"Feature","geometry":{"type":"LineString","coordinates":[[5.34718,50.43616,9140.0],[5.18254,50.51676,9140.0]]},"properties":{"ef_share":0.0,"ef_tj":0.0}},{"type":"Feature","geometry":{"type":"LineString","coordinates":[[5.18254,50.51676,9140.0],[5.01801,50.59662,9140.0]]},"properties":{"ef_share":0.0,"ef_tj":0.0}},{"type":"Feature","geometry":{"type":"LineString","coordinates":[[5.01801,50.59662,9140.0],[4.84819,50.67442,9140.0]]},"properties":{"ef_share":0.0,"ef_tj":0.0}},{"type":"Feature","geometry":{"type":"LineString","coordinates":[[4.84819,50.67442,9140.0],[4.65662,50.73597,9140.0]]},"properties":{"ef_share":0.0,"ef_tj":0.0}},{"type":"Feature","geometry":{"type":"LineString","coordinates":[[4.65662,50.73597,9140.0],[4.46444,50.79364,9140.0]]},"properties":{"ef_share":0.0,"ef_tj":0.0}},{"type":"Feature","geometry":{"type":"LineString","coordinates":[[4.46444,50.79364,9140.0],[4.2727,50.84984,9150.0]]},"properties":{"ef_share":0.0,"ef_tj":0.0}},{"type":"Feature","geometry":{"type":"LineString","coordinates":[[4.2727,50.84984,9150.0],[4.08108,50.9054,9150.0]]},"properties":{"ef_share":0.0,"ef_tj":0.0}},{"type":"Feature","geometry":{"type":"LineString","coordinates":[[4.08108,50.9054,9150.0],[3.88918,50.96064,9140.0]]},"properties":{"ef_share":0.0,"ef_tj":0.0}},{"type":"Feature","geometry":{"type":"LineString","coordinates":[[3.88918,50.96064,9140.0],[3.69615,51.0158,9140.0]]},"properties":{"ef_share":0.0,"ef_tj":0.0}},{"type":"Feature","geometry":{"type":"LineString","coordinates":[[3.69615,51.0158,9140.0],[3.50218,51.07084,9150.0]]},"properties":{"ef_share":0.0,"ef_tj":0.0}},{"type":"Feature","geometry":{"type":"LineString","coordinates":[[3.50218,51.07084,9150.0],[3.30737,51.12571,9140.0]]},"properties":{"ef_share":0.0,"ef_tj":0.0}},{"type":"Feature","geometry":{"type":"LineString","coordinates":[[3.30737,51.12571,9140.0],[3.11057,51.17822,9140.0]]},"properties":{"ef_share":0.0,"ef_tj":0.0}},{"type":"Feature","geometry":{"type":"LineString","coordinates":[[3.11057,51.17822,9140.0],[2.90979,51.2261,9140.0]]},"properties":{"ef_share":0.0,"ef_tj":0.0}},{"type":"Feature","geometry":{"type":"LineString","coordinates":[[2.90979,51.2261,9140.0],[2.70937,51.27436,9140.0]]},"properties":{"ef_share":0.0,"ef_tj":0.0}},{"type":"Feature","geometry":{"type":"LineString","coordinates":[[2.70937,51.27436,9140.0],[2.50979,51.32249,9140.0]]},"properties":{"ef_share":0.0,"ef_tj":0.0}},{"type":"Feature","geometry":{"type":"LineString","coordinates":[[2.50979,51.32249,9140.0],[2.31029,51.3701,9150.0]]},"properties":{"ef_share":0.0,"ef_tj":0.0}},{"type":"Feature","geometry":{"type":"LineString","coordinates":[[2.31029,51.3701,9150.0],[2.11073,51.41721,9220.0]]},"properties":{"ef_share":0.0,"ef_tj":0.0}},{"type":"Feature","geometry":{"type":"LineString","coordinates":[[2.11073,51.41721,9220.0],[1.90757,51.4545,9740.0]]},"properties":{"ef_share":0.0,"ef_tj":0.0}},{"type":"Feature","geometry":{"type":"LineString","coordinates":[[1.90757,51.4545,9740.0],[1.70085,51.47899,9750.0]]},"properties":{"ef_share":0.0,"ef_tj":0.0}},{"type":"Feature","geometry":{"type":"LineString","coordinates":[[1.70085,51.47899,9750.0],[1.49501,51.5022,9750.0]]},"properties":{"ef_share":0.0,"ef_tj":0.0}},{"type":"Feature","geometry":{"type":"LineString","coordinates":[[1.49501,51.5022,9750.0],[1.28887,51.52537,9760.0]]},"properties":{"ef_share":0.0,"ef_tj":0.0}},{"type":"Feature","geometry":{"type":"LineString","coordinates":[[1.28887,51.52537,9760.0],[1.0826,51.54814,9760.0]]},"properties":{"ef_share":0.0,"ef_tj":0.0}},{"type":"Feature","geometry":{"type":"LineString","coordinates":[[1.0826,51.54814,9760.0],[0.88116,51.57932,9750.0]]},"properties":{"ef_share":0.0,"ef_tj":0.0}},{"type":"Feature","geometry":{"type":"LineString","coordinates":[[0.88116,51.57932,9750.0],[0.72755,51.662,9760.0]]},"properties":{"ef_share":0.0,"ef_tj":0.0}},{"type":"Feature","geometry":{"type":"LineString","coordinates":[[0.72755,51.662,9760.0],[0.58587,51.7526,9750.0]]},"properties":{"ef_share":0.0,"ef_tj":0.0}},{"type":"Feature","geometry":{"type":"LineString","coordinates":[[0.58587,51.7526,9750.0],[0.44414,51.84316,9750.0]]},"properties":{"ef_share":0.0,"ef_tj":0.0}},{"type":"Feature","geometry":{"type":"LineString","coordinates":[[0.44414,51.84316,9750.0],[0.30182,51.9333,9750.0]]},"properties":{"ef_share":0.0,"ef_tj":0.0}},{"type":"Feature","geometry":{"type":"LineString","coordinates":[[0.30182,51.9333,9750.0],[0.15687,52.02211,9750.0]]},"properties":{"ef_share":0.0,"ef_tj":0.0}},{"type":"Feature","geometry":{"type":"LineString","coordinates":[[0.15687,52.02211,9750.0],[-0.00312,52.10144,9750.0]]},"properties":{"ef_share":0.0,"ef_tj":0.0}},{"type":"Feature","geometry":{"type":"LineString","coordinates":[[-0.00312,52.10144,9750.0],[-0.16313,52.18145,9760.0]]},"properties":{"ef_share":0.0,"ef_tj":0.0}},{"type":"Feature","geometry":{"type":"LineString","coordinates":[[-0.16313,52.18145,9760.0],[-0.32358,52.26182,9750.0]]},"properties":{"ef_share":0.0,"ef_tj":0.0}},{"type":"Feature","geometry":{"type":"LineString","coordinates":[[-0.32358,52.26182,9750.0],[-0.4841,52.34266,9750.0]]},"properties":{"ef_share":0.0,"ef_tj":0.0}},{"type":"Feature","geometry":{"type":"LineString","coordinates":[[-0.4841,52.34266,9750.0],[-0.64416,52.42378,9760.0]]},"properties":{"ef_share":0.0,"ef_tj":0.0}},{"type":"Feature","geometry":{"type":"LineString","coordinates":[[-0.64416,52.42378,9760.0],[-0.80426,52.50526,9760.0]]},"properties":{"ef_share":0.0,"ef_tj":0.0}},{"type":"Feature","geometry":{"type":"LineString","coordinates":[[-0.80426,52.50526,9760.0],[-0.96426,52.58719,9760.0]]},"properties":{"ef_share":0.0,"ef_tj":0.0}},{"type":"Feature","geometry":{"type":"LineString","coordinates":[[-0.96426,52.58719,9760.0],[-1.12388,52.66933,9750.0]]},"properties":{"ef_share":0.0,"ef_tj":0.0}},{"type":"Feature","geometry":{"type":"LineString","coordinates":[[-1.12388,52.66933,9750.0],[-1.28301,52.75142,9760.0]]},"properties":{"ef_share":0.0,"ef_tj":0.0}},{"type":"Feature","geometry":{"type":"LineString","coordinates":[[-1.28301,52.75142,9760.0],[-1.44191,52.83383,9760.0]]},"properties":{"ef_share":0.0,"ef_tj":0.0}},{"type":"Feature","geometry":{"type":"LineString","coordinates":[[-1.44191,52.83383,9760.0],[-1.60058,52.91644,9750.0]]},"properties":{"ef_share":0.0,"ef_tj":0.0}},{"type":"Feature","geometry":{"type":"LineString","coordinates":[[-1.60058,52.91644,9750.0],[-1.75573,53.00138,9750.0]]},"properties":{"ef_share":0.0,"ef_tj":0.0}},{"type":"Feature","geometry":{"type":"LineString","coordinates":[[-1.75573,53.00138,9750.0],[-1.8738,53.10739,9750.0]]},"properties":{"ef_share":0.0,"ef_tj":0.0}},{"type":"Feature","geometry":{"type":"LineString","coordinates":[[-1.8738,53.10739,9750.0],[-1.9914,53.21376,9750.0]]},"properties":{"ef_share":0.0,"ef_tj":0.0}},{"type":"Feature","geometry":{"type":"LineString","coordinates":[[-1.9914,53.21376,9750.0],[-2.10816,53.32046,9760.0]]},"properties":{"ef_share":0.0,"ef_tj":0.0}},{"type":"Feature","geometry":{"type":"LineString","coordinates":[[-2.10816,53.32046,9760.0],[-2.23141,53.42381,9750.0]]},"properties":{"ef_share":0.0,"ef_tj":0.0}},{"type":"Feature","geometry":{"type":"LineString","coordinates":[[-2.23141,53.42381,9750.0],[-2.41704,53.47333,9760.0]]},"properties":{"ef_share":0.0,"ef_tj":0.0}},{"type":"Feature","geometry":{"type":"LineString","coordinates":[[-2.41704,53.47333,9760.0],[-2.61764,53.49796,9750.0]]},"properties":{"ef_share":0.0,"ef_tj":0.0}},{"type":"Feature","geometry":{"type":"LineString","coordinates":[[-2.61764,53.49796,9750.0],[-2.81857,53.52115,9760.0]]},"properties":{"ef_share":0.0,"ef_tj":0.0}},{"type":"Feature","geometry":{"type":"LineString","coordinates":[[-2.81857,53.52115,9760.0],[-3.01961,53.54413,9750.0]]},"properties":{"ef_share":0.0,"ef_tj":0.0}},{"type":"Feature","geometry":{"type":"LineString","coordinates":[[-3.01961,53.54413,9750.0],[-3.22157,53.56711,9750.0]]},"properties":{"ef_share":0.0,"ef_tj":0.0}},{"type":"Feature","geometry":{"type":"LineString","coordinates":[[-3.22157,53.56711,9750.0],[-3.42413,53.5897,9760.0]]},"properties":{"ef_share":0.0,"ef_tj":0.0}},{"type":"Feature","geometry":{"type":"LineString","coordinates":[[-3.42413,53.5897,9760.0],[-3.62869,53.6118,9750.0]]},"properties":{"ef_share":0.0,"ef_tj":0.0}},{"type":"Feature","geometry":{"type":"LineString","coordinates":[[-3.62869,53.6118,9750.0],[-3.83667,53.62341,9750.0]]},"properties":{"ef_share":0.0,"ef_tj":0.0}},{"type":"Feature","geometry":{"type":"LineString","coordinates":[[-3.83667,53.62341,9750.0],[-4.04721,53.63176,9760.0]]},"properties":{"ef_share":0.0,"ef_tj":0.0}},{"type":"Feature","geometry":{"type":"LineString","coordinates":[[-4.04721,53.63176,9760.0],[-4.25877,53.63978,9760.0]]},"properties":{"ef_share":0.0,"ef_tj":0.0}},{"type":"Feature","geometry":{"type":"LineString","coordinates":[[-4.25877,53.63978,9760.0],[-4.47056,53.64758,9750.0]]},"properties":{"ef_share":0.0,"ef_tj":0.0}},{"type":"Feature","geometry":{"type":"LineString","coordinates":[[-4.47056,53.64758,9750.0],[-4.68048,53.66612,9750.0]]},"properties":{"ef_share":0.0,"ef_tj":0.0}},{"type":"Feature","geometry":{"type":"LineString","coordinates":[[-4.68048,53.66612,9750.0],[-4.88557,53.70159,9750.0]]},"properties":{"ef_share":0.0,"ef_tj":0.0}},{"type":"Feature","geometry":{"type":"LineString","coordinates":[[-4.88557,53.70159,9750.0],[-5.09036,53.73721,9760.0]]},"properties":{"ef_share":0.0,"ef_tj":0.0}},{"type":"Feature","geometry":{"type":"LineString","coordinates":[[-5.09036,53.73721,9760.0],[-5.29417,53.77243,9750.0]]},"properties":{"ef_share":0.0,"ef_tj":0.0}},{"type":"Feature","geometry":{"type":"LineString","coordinates":[[-5.29417,53.77243,9750.0],[-5.4969,53.80709,9750.0]]},"properties":{"ef_share":0.0,"ef_tj":0.0}},{"type":"Feature","geometry":{"type":"LineString","coordinates":[[-5.4969,53.80709,9750.0],[-5.69902,53.84113,9760.0]]},"properties":{"ef_share":0.0,"ef_tj":0.0}},{"type":"Feature","geometry":{"type":"LineString","coordinates":[[-5.69902,53.84113,9760.0],[-5.90076,53.87474,9760.0]]},"properties":{"ef_share":0.0,"ef_tj":0.0}},{"type":"Feature","geometry":{"type":"LineString","coordinates":[[-5.90076,53.87474,9760.0],[-6.10222,53.90792,9760.0]]},"properties":{"ef_share":0.0,"ef_tj":0.0}},{"type":"Feature","geometry":{"type":"LineString","coordinates":[[-6.10222,53.90792,9760.0],[-6.30331,53.9406,9760.0]]},"properties":{"ef_share":0.0,"ef_tj":0.0}},{"type":"Feature","geometry":{"type":"LineString","coordinates":[[-6.30331,53.9406,9760.0],[-6.50364,53.97287,9750.0]]},"properties":{"ef_share":0.0,"ef_tj":0.0}},{"type":"Feature","geometry":{"type":"LineString","coordinates":[[-6.50364,53.97287,9750.0],[-6.70329,54.00457,9750.0]]},"properties":{"ef_share":0.0,"ef_tj":0.0}},{"type":"Feature","geometry":{"type":"LineString","coordinates":[[-6.70329,54.00457,9750.0],[-6.9031,54.03594,9760.0]]},"properties":{"ef_share":0.0,"ef_tj":0.0}},{"type":"Feature","geometry":{"type":"LineString","coordinates":[[-6.9031,54.03594,9760.0],[-7.10354,54.06699,9750.0]]},"properties":{"ef_share":0.0,"ef_tj":0.0}},{"type":"Feature","geometry":{"type":"LineString","coordinates":[[-7.10354,54.06699,9750.0],[-7.30482,54.09778,9750.0]]},"properties":{"ef_share":0.0,"ef_tj":0.0}},{"type":"Feature","geometry":{"type":"LineString","coordinates":[[-7.30482,54.09778,9750.0],[-7.50585,54.12821,9750.0]]},"properties":{"ef_share":0.0,"ef_tj":0.0}},{"type":"Feature","geometry":{"type":"LineString","coordinates":[[-7.50585,54.12821,9750.0],[-7.70679,54.1583,9750.0]]},"properties":{"ef_share":0.0,"ef_tj":0.0}},{"type":"Feature","geometry":{"type":"LineString","coordinates":[[-7.70679,54.1583,9750.0],[-7.90791,54.18796,9750.0]]},"properties":{"ef_share":0.0,"ef_tj":0.0}},{"type":"Feature","geometry":{"type":"LineString","coordinates":[[-7.90791,54.18796,9750.0],[-8.10852,54.21716,9750.0]]},"properties":{"ef_share":-0.945,"ef_tj":-4.907041}},{"type":"Feature","geometry":{"type":"LineString","coordinates":[[-8.10852,54.21716,9750.0],[-8.30867,54.24594,9750.0]]},"properties":{"ef_share":-1.0,"ef_tj":-5.191842}},{"type":"Feature","geometry":{"type":"LineString","coordinates":[[-8.30867,54.24594,9750.0],[-8.50918,54.27438,9760.0]]},"properties":{"ef_share":-0.899,"ef_tj":-4.668821}},{"type":"Feature","geometry":{"type":"LineString","coordinates":[[-8.50918,54.27438,9760.0],[-8.70902,54.30238,9760.0]]},"properties":{"ef_share":-0.708,"ef_tj":-3.674353}},{"type":"Feature","geometry":{"type":"LineString","coordinates":[[-8.70902,54.30238,9760.0],[-8.90724,54.32978,9750.0]]},"properties":{"ef_share":-0.359,"ef_tj":-1.862904}},{"type":"Feature","geometry":{"type":"LineString","coordinates":[[-8.90724,54.32978,9750.0],[-9.10615,54.35688,9750.0]]},"properties":{"ef_share":-0.302,"ef_tj":-1.565469}},{"type":"Feature","geometry":{"type":"LineString","coordinates":[[-9.10615,54.35688,9750.0],[-9.30559,54.38374,9760.0]]},"properties":{"ef_share":-0.228,"ef_tj":-1.185168}},{"type":"Feature","geometry":{"type":"LineString","coordinates":[[-9.30559,54.38374,9760.0],[-9.50395,54.41008,9760.0]]},"properties":{"ef_share":-0.19,"ef_tj":-0.98829}},{"type":"Feature","geometry":{"type":"LineString","coordinates":[[-9.50395,54.41008,9760.0],[-9.70141,54.43591,9750.0]]},"properties":{"ef_share":-0.144,"ef_tj":-0.746367}},{"type":"Feature","geometry":{"type":"LineString","coordinates":[[-9.70141,54.43591,9750.0],[-9.89895,54.46148,9750.0]]},"properties":{"ef_share":-0.105,"ef_tj":-0.543281}},{"type":"Feature","geometry":{"type":"LineString","coordinates":[[-9.89895,54.46148,9750.0],[-10.0967,54.48658,9760.0]]},"properties":{"ef_share":-0.063,"ef_tj":-0.327018}},{"type":"Feature","geometry":{"type":"LineString","coordinates":[[-10.0967,54.48658,9760.0],[-10.29361,54.51137,9760.0]]},"properties":{"ef_share":-0.018,"ef_tj":-0.093361}},{"type":"Feature","geometry":{"type":"LineString","coordinates":[[-10.29361,54.51137,9760.0],[-10.49147,54.53592,9750.0]]},"properties":{"ef_share":0.021,"ef_tj":0.108324}},{"type":"Feature","geometry":{"type":"LineString","coordinates":[[-10.49147,54.53592,9750.0],[-10.6884,54.55985,9750.0]]},"properties":{"ef_share":0.055,"ef_tj":0.287563}},{"type":"Feature","geometry":{"type":"LineString","coordinates":[[-10.6884,54.55985,9750.0],[-10.88675,54.5837,9760.0]]},"properties":{"ef_share":0.152,"ef_tj":0.78826}},{"type":"Feature","geometry":{"type":"LineString","coordinates":[[-10.88675,54.5837,9760.0],[-11.08624,54.60734,9750.0]]},"properties":{"ef_share":0.186,"ef_tj":0.964211}},{"type":"Feature","geometry":{"type":"LineString","coordinates":[[-11.08624,54.60734,9750.0],[-11.28634,54.6307,9750.0]]},"properties":{"ef_share":0.256,"ef_tj":1.328572}},{"type":"Feature","geometry":{"type":"LineString","coordinates":[[-11.28634,54.6307,9750.0],[-11.48662,54.65372,9750.0]]},"properties":{"ef_share":0.321,"ef_tj":1.666381}},{"type":"Feature","geometry":{"type":"LineString","coordinates":[[-11.48662,54.65372,9750.0],[-11.6878,54.67652,9760.0]]},"properties":{"ef_share":0.391,"ef_tj":2.029425}},{"type":"Feature","geometry":{"type":"LineString","coordinates":[[-11.6878,54.67652,9760.0],[-11.88854,54.6988,9750.0]]},"properties":{"ef_share":0.463,"ef_tj":2.405384}},{"type":"Feature","geometry":{"type":"LineString","coordinates":[[-11.88854,54.6988,9750.0],[-12.08748,54.72065,9750.0]]},"properties":{"ef_share":0.519,"ef_tj":2.693351}},{"type":"Feature","geometry":{"type":"LineString","coordinates":[[-12.08748,54.72065,9750.0],[-12.28623,54.74202,9760.0]]},"properties":{"ef_share":0.55,"ef_tj":2.857994}},{"type":"Feature","geometry":{"type":"LineString","coordinates":[[-12.28623,54.74202,9760.0],[-12.48413,54.76294,9750.0]]},"properties":{"ef_share":0.514,"ef_tj":2.670445}},{"type":"Feature","geometry":{"type":"LineString","coordinates":[[-12.48413,54.76294,9750.0],[-12.68352,54.78383,9760.0]]},"properties":{"ef_share":0.722,"ef_tj":3.748285}},{"type":"Feature","geometry":{"type":"LineString","coordinates":[[-12.68352,54.78383,9760.0],[-12.88253,54.80426,9760.0]]},"properties":{"ef_share":0.723,"ef_tj":3.751267}},{"type":"Feature","geometry":{"type":"LineString","coordinates":[[-12.88253,54.80426,9760.0],[-13.08241,54.82438,9760.0]]},"properties":{"ef_share":0.586,"ef_tj":3.042047}},{"type":"Feature","geometry":{"type":"LineString","coordinates":[[-13.08241,54.82438,9760.0],[-13.28136,54.84402,9750.0]]},"properties":{"ef_share":0.41,"ef_tj":2.128377}},{"type":"Feature","geometry":{"type":"LineString","coordinates":[[-13.28136,54.84402,9750.0],[-13.48018,54.86327,9750.0]]},"properties":{"ef_share":0.0,"ef_tj":0.0}}]}