{"type":"FeatureCollection","properties":{"icao24":"a40b24","registration":"N36NE","owner_label":"New England Patriots","combined_co2e_central":38531.5,"fuel_co2_kg":38311.1,"contrail_co2e_central":220.4,"tier":"high"},"features":[{"type":"Feature","geometry":{"type":"LineString","coordinates":[[-72.36177,51.64408,10970.0],[-72.43428,51.52376,10970.0]]},"properties":{"ef_share":0.0,"ef_tj":0.0}},{"type":"Feature","geometry":{"type":"LineString","coordinates":[[-72.43428,51.52376,10970.0],[-72.50657,51.40289,10980.0]]},"properties":{"ef_share":0.0,"ef_tj":0.0}},{"type":"Feature","geometry":{"type":"LineString","coordinates":[[-72.50657,51.40289,10980.0],[-72.5789,51.28147,10980.0]]},"properties":{"ef_share":0.0,"ef_tj":0.0}},{"type":"Feature","geometry":{"type":"LineString","coordinates":[[-72.5789,51.28147,10980.0],[-72.65109,51.15942,10970.0]]},"properties":{"ef_share":0.0,"ef_tj":0.0}},{"type":"Feature","geometry":{"type":"LineString","coordinates":[[-72.65109,51.15942,10970.0],[-72.72298,51.03737,10980.0]]},"properties":{"ef_share":0.0,"ef_tj":0.0}},{"type":"Feature","geometry":{"type":"LineString","coordinates":[[-72.72298,51.03737,10980.0],[-72.79475,50.91476,10980.0]]},"properties":{"ef_share":0.0,"ef_tj":0.0}},{"type":"Feature","geometry":{"type":"LineString","coordinates":[[-72.79475,50.91476,10980.0],[-72.86631,50.79194,10970.0]]},"properties":{"ef_share":0.0,"ef_tj":0.0}},{"type":"Feature","geometry":{"type":"LineString","coordinates":[[-72.86631,50.79194,10970.0],[-72.9372,50.66939,10970.0]]},"properties":{"ef_share":0.0,"ef_tj":0.0}},{"type":"Feature","geometry":{"type":"LineString","coordinates":[[-72.9372,50.66939,10970.0],[-73.00752,50.54731,10970.0]]},"properties":{"ef_share":0.0,"ef_tj":0.0}},{"type":"Feature","geometry":{"type":"LineString","coordinates":[[-73.00752,50.54731,10970.0],[-73.07738,50.42535,10970.0]]},"properties":{"ef_share":0.0,"ef_tj":0.0}},{"type":"Feature","geometry":{"type":"LineString","coordinates":[[-73.07738,50.42535,10970.0],[-73.14628,50.30432,10970.0]]},"properties":{"ef_share":0.0,"ef_tj":0.0}},{"type":"Feature","geometry":{"type":"LineString","coordinates":[[-73.14628,50.30432,10970.0],[-73.21437,50.18429,10970.0]]},"properties":{"ef_share":0.0,"ef_tj":0.0}},{"type":"Feature","geometry":{"type":"LineString","coordinates":[[-73.21437,50.18429,10970.0],[-73.28233,50.06362,10970.0]]},"properties":{"ef_share":0.0,"ef_tj":0.0}},{"type":"Feature","geometry":{"type":"LineString","coordinates":[[-73.28233,50.06362,10970.0],[-73.34998,49.94274,10970.0]]},"properties":{"ef_share":0.0,"ef_tj":0.0}},{"type":"Feature","geometry":{"type":"LineString","coordinates":[[-73.34998,49.94274,10970.0],[-73.41736,49.82186,10970.0]]},"properties":{"ef_share":0.0,"ef_tj":0.0}},{"type":"Feature","geometry":{"type":"LineString","coordinates":[[-73.41736,49.82186,10970.0],[-73.48405,49.70164,10970.0]]},"properties":{"ef_share":0.0,"ef_tj":0.0}},{"type":"Feature","geometry":{"type":"LineString","coordinates":[[-73.48405,49.70164,10970.0],[-73.55078,49.58063,10980.0]]},"properties":{"ef_share":0.0,"ef_tj":0.0}},{"type":"Feature","geometry":{"type":"LineString","coordinates":[[-73.55078,49.58063,10980.0],[-73.61719,49.4594,10980.0]]},"properties":{"ef_share":0.0,"ef_tj":0.0}},{"type":"Feature","geometry":{"type":"LineString","coordinates":[[-73.61719,49.4594,10980.0],[-73.68388,49.33764,10980.0]]},"properties":{"ef_share":0.0,"ef_tj":0.0}},{"type":"Feature","geometry":{"type":"LineString","coordinates":[[-73.68388,49.33764,10980.0],[-73.74975,49.21625,10980.0]]},"properties":{"ef_share":0.0,"ef_tj":0.0}},{"type":"Feature","geometry":{"type":"LineString","coordinates":[[-73.74975,49.21625,10980.0],[-73.81516,49.09477,10970.0]]},"properties":{"ef_share":0.0,"ef_tj":0.0}},{"type":"Feature","geometry":{"type":"LineString","coordinates":[[-73.81516,49.09477,10970.0],[-73.87996,48.97434,10970.0]]},"properties":{"ef_share":0.0,"ef_tj":0.0}},{"type":"Feature","geometry":{"type":"LineString","coordinates":[[-73.87996,48.97434,10970.0],[-73.94351,48.85521,10980.0]]},"properties":{"ef_share":0.0,"ef_tj":0.0}},{"type":"Feature","geometry":{"type":"LineString","coordinates":[[-73.94351,48.85521,10980.0],[-74.00622,48.73729,10970.0]]},"properties":{"ef_share":0.0,"ef_tj":0.0}},{"type":"Feature","geometry":{"type":"LineString","coordinates":[[-74.00622,48.73729,10970.0],[-74.06852,48.61965,10970.0]]},"properties":{"ef_share":0.0,"ef_tj":0.0}},{"type":"Feature","geometry":{"type":"LineString","coordinates":[[-74.06852,48.61965,10970.0],[-74.13066,48.50185,10970.0]]},"properties":{"ef_share":0.0,"ef_tj":0.0}},{"type":"Feature","geometry":{"type":"LineString","coordinates":[[-74.13066,48.50185,10970.0],[-74.19273,48.38348,10980.0]]},"properties":{"ef_share":0.0,"ef_tj":0.0}},{"type":"Feature","geometry":{"type":"LineString","coordinates":[[-74.19273,48.38348,10980.0],[-74.25454,48.2644,10980.0]]},"properties":{"ef_share":0.0,"ef_tj":0.0}},{"type":"Feature","geometry":{"type":"LineString","coordinates":[[-74.25454,48.2644,10980.0],[-74.31641,48.14557,10970.0]]},"properties":{"ef_share":0.0,"ef_tj":0.0}},{"type":"Feature","geometry":{"type":"LineString","coordinates":[[-74.31641,48.14557,10970.0],[-74.37792,48.02614,10980.0]]},"properties":{"ef_share":0.0,"ef_tj":0.0}},{"type":"Feature","geometry":{"type":"LineString","coordinates":[[-74.37792,48.02614,10980.0],[-74.43913,47.90711,10970.0]]},"properties":{"ef_share":0.0,"ef_tj":0.0}},{"type":"Feature","geometry":{"type":"LineString","coordinates":[[-74.43913,47.90711,10970.0],[-74.49988,47.78834,10970.0]]},"properties":{"ef_share":0.0,"ef_tj":0.0}},{"type":"Feature","geometry":{"type":"LineString","coordinates":[[-74.49988,47.78834,10970.0],[-74.55986,47.6702,10970.0]]},"properties":{"ef_share":0.0,"ef_tj":0.0}},{"type":"Feature","geometry":{"type":"LineString","coordinates":[[-74.55986,47.6702,10970.0],[-74.62004,47.5517,10970.0]]},"properties":{"ef_share":0.0,"ef_tj":0.0}},{"type":"Feature","geometry":{"type":"LineString","coordinates":[[-74.62004,47.5517,10970.0],[-74.67998,47.43278,10980.0]]},"properties":{"ef_share":0.0,"ef_tj":0.0}},{"type":"Feature","geometry":{"type":"LineString","coordinates":[[-74.67998,47.43278,10980.0],[-74.73926,47.31405,10980.0]]},"properties":{"ef_share":0.0,"ef_tj":0.0}},{"type":"Feature","geometry":{"type":"LineString","coordinates":[[-74.73926,47.31405,10980.0],[-74.79913,47.19453,10970.0]]},"properties":{"ef_share":0.0,"ef_tj":0.0}},{"type":"Feature","geometry":{"type":"LineString","coordinates":[[-74.79913,47.19453,10970.0],[-74.85805,47.07538,10980.0]]},"properties":{"ef_share":0.0,"ef_tj":0.0}},{"type":"Feature","geometry":{"type":"LineString","coordinates":[[-74.85805,47.07538,10980.0],[-74.91695,46.95656,10980.0]]},"properties":{"ef_share":0.0,"ef_tj":0.0}},{"type":"Feature","geometry":{"type":"LineString","coordinates":[[-74.91695,46.95656,10980.0],[-74.97516,46.83819,10970.0]]},"properties":{"ef_share":0.0,"ef_tj":0.0}},{"type":"Feature","geometry":{"type":"LineString","coordinates":[[-74.97516,46.83819,10970.0],[-75.03238,46.72147,10980.0]]},"properties":{"ef_share":0.0,"ef_tj":0.0}},{"type":"Feature","geometry":{"type":"LineString","coordinates":[[-75.03238,46.72147,10980.0],[-75.08916,46.60506,10970.0]]},"properties":{"ef_share":0.0,"ef_tj":0.0}},{"type":"Feature","geometry":{"type":"LineString","coordinates":[[-75.08916,46.60506,10970.0],[-75.14533,46.48944,10970.0]]},"properties":{"ef_share":0.0,"ef_tj":0.0}},{"type":"Feature","geometry":{"type":"LineString","coordinates":[[-75.14533,46.48944,10970.0],[-75.2011,46.37408,10970.0]]},"properties":{"ef_share":0.0,"ef_tj":0.0}},{"type":"Feature","geometry":{"type":"LineString","coordinates":[[-75.2011,46.37408,10970.0],[-75.25626,46.25907,10980.0]]},"properties":{"ef_share":0.0,"ef_tj":0.0}},{"type":"Feature","geometry":{"type":"LineString","coordinates":[[-75.25626,46.25907,10980.0],[-75.31148,46.14401,10980.0]]},"properties":{"ef_share":0.0,"ef_tj":0.0}},{"type":"Feature","geometry":{"type":"LineString","coordinates":[[-75.31148,46.14401,10980.0],[-75.36641,46.02878,10970.0]]},"properties":{"ef_share":0.0,"ef_tj":0.0}},{"type":"Feature","geometry":{"type":"LineString","coordinates":[[-75.36641,46.02878,10970.0],[-75.42078,45.91427,10980.0]]},"properties":{"ef_share":0.0,"ef_tj":0.0}},{"type":"Feature","geometry":{"type":"LineString","coordinates":[[-75.42078,45.91427,10980.0],[-75.47459,45.80011,10970.0]]},"properties":{"ef_share":0.0,"ef_tj":0.0}},{"type":"Feature","geometry":{"type":"LineString","coordinates":[[-75.47459,45.80011,10970.0],[-75.52834,45.68603,10970.0]]},"properties":{"ef_share":0.0,"ef_tj":0.0}},{"type":"Feature","geometry":{"type":"LineString","coordinates":[[-75.52834,45.68603,10970.0],[-75.58198,45.5716,10970.0]]},"properties":{"ef_share":0.0,"ef_tj":0.0}},{"type":"Feature","geometry":{"type":"LineString","coordinates":[[-75.58198,45.5716,10970.0],[-75.63549,45.457,10980.0]]},"properties":{"ef_share":0.0,"ef_tj":0.0}},{"type":"Feature","geometry":{"type":"LineString","coordinates":[[-75.63549,45.457,10980.0],[-75.68868,45.3425,10980.0]]},"properties":{"ef_share":0.0,"ef_tj":0.0}},{"type":"Feature","geometry":{"type":"LineString","coordinates":[[-75.68868,45.3425,10980.0],[-75.74105,45.22922,10970.0]]},"properties":{"ef_share":0.0,"ef_tj":0.0}},{"type":"Feature","geometry":{"type":"LineString","coordinates":[[-75.74105,45.22922,10970.0],[-75.79262,45.11714,10970.0]]},"properties":{"ef_share":0.0,"ef_tj":0.0}},{"type":"Feature","geometry":{"type":"LineString","coordinates":[[-75.79262,45.11714,10970.0],[-75.84378,45.00571,10970.0]]},"properties":{"ef_share":0.0,"ef_tj":0.0}},{"type":"Feature","geometry":{"type":"LineString","coordinates":[[-75.84378,45.00571,10970.0],[-75.89486,44.89404,10970.0]]},"properties":{"ef_share":0.0,"ef_tj":0.0}},{"type":"Feature","geometry":{"type":"LineString","coordinates":[[-75.89486,44.89404,10970.0],[-75.94581,44.78215,10970.0]]},"properties":{"ef_share":0.0,"ef_tj":0.0}},{"type":"Feature","geometry":{"type":"LineString","coordinates":[[-75.94581,44.78215,10970.0],[-75.98581,44.66584,10970.0]]},"properties":{"ef_share":0.0,"ef_tj":0.0}},{"type":"Feature","geometry":{"type":"LineString","coordinates":[[-75.98581,44.66584,10970.0],[-75.99966,44.54357,10970.0]]},"properties":{"ef_share":0.0,"ef_tj":0.0}},{"type":"Feature","geometry":{"type":"LineString","coordinates":[[-75.99966,44.54357,10970.0],[-76.01235,44.42344,10980.0]]},"properties":{"ef_share":0.0,"ef_tj":0.0}},{"type":"Feature","geometry":{"type":"LineString","coordinates":[[-76.01235,44.42344,10980.0],[-76.0258,44.30401,10980.0]]},"properties":{"ef_share":0.0,"ef_tj":0.0}},{"type":"Feature","geometry":{"type":"LineString","coordinates":[[-76.0258,44.30401,10980.0],[-76.03904,44.1844,10980.0]]},"properties":{"ef_share":0.0,"ef_tj":0.0}},{"type":"Feature","geometry":{"type":"LineString","coordinates":[[-76.03904,44.1844,10980.0],[-76.05205,44.06561,10970.0]]},"properties":{"ef_share":0.0,"ef_tj":0.0}},{"type":"Feature","geometry":{"type":"LineString","coordinates":[[-76.05205,44.06561,10970.0],[-76.06504,43.94718,10980.0]]},"properties":{"ef_share":0.0,"ef_tj":0.0}},{"type":"Feature","geometry":{"type":"LineString","coordinates":[[-76.06504,43.94718,10980.0],[-76.08599,43.83164,10970.0]]},"properties":{"ef_share":0.0,"ef_tj":0.0}},{"type":"Feature","geometry":{"type":"LineString","coordinates":[[-76.08599,43.83164,10970.0],[-76.10704,43.71713,10970.0]]},"properties":{"ef_share":0.0,"ef_tj":0.0}},{"type":"Feature","geometry":{"type":"LineString","coordinates":[[-76.10704,43.71713,10970.0],[-76.12686,43.60254,10980.0]]},"properties":{"ef_share":0.0,"ef_tj":0.0}},{"type":"Feature","geometry":{"type":"LineString","coordinates":[[-76.12686,43.60254,10980.0],[-76.147,43.48857,10970.0]]},"properties":{"ef_share":0.0,"ef_tj":0.0}},{"type":"Feature","geometry":{"type":"LineString","coordinates":[[-76.147,43.48857,10970.0],[-76.16697,43.37461,10980.0]]},"properties":{"ef_share":0.0,"ef_tj":0.0}},{"type":"Feature","geometry":{"type":"LineString","coordinates":[[-76.16697,43.37461,10980.0],[-76.18676,43.26123,10970.0]]},"properties":{"ef_share":0.0,"ef_tj":0.0}},{"type":"Feature","geometry":{"type":"LineString","coordinates":[[-76.18676,43.26123,10970.0],[-76.20671,43.14803,10970.0]]},"properties":{"ef_share":0.0,"ef_tj":0.0}},{"type":"Feature","geometry":{"type":"LineString","coordinates":[[-76.20671,43.14803,10970.0],[-76.23204,43.03701,10970.0]]},"properties":{"ef_share":0.0,"ef_tj":0.0}},{"type":"Feature","geometry":{"type":"LineString","coordinates":[[-76.23204,43.03701,10970.0],[-76.25705,42.9257,10980.0]]},"properties":{"ef_share":0.0,"ef_tj":0.0}},{"type":"Feature","geometry":{"type":"LineString","coordinates":[[-76.25705,42.9257,10980.0],[-76.28164,42.8133,10970.0]]},"properties":{"ef_share":0.0,"ef_tj":0.0}},{"type":"Feature","geometry":{"type":"LineString","coordinates":[[-76.28164,42.8133,10970.0],[-76.30677,42.69855,10970.0]]},"properties":{"ef_share":0.0,"ef_tj":0.0}},{"type":"Feature","geometry":{"type":"LineString","coordinates":[[-76.30677,42.69855,10970.0],[-76.33228,42.58206,10980.0]]},"properties":{"ef_share":0.005,"ef_tj":0.001193}},{"type":"Feature","geometry":{"type":"LineString","coordinates":[[-76.33228,42.58206,10980.0],[-76.3578,42.46485,10980.0]]},"properties":{"ef_share":0.013,"ef_tj":0.003384}},{"type":"Feature","geometry":{"type":"LineString","coordinates":[[-76.3578,42.46485,10980.0],[-76.38352,42.34687,10970.0]]},"properties":{"ef_share":0.014,"ef_tj":0.003646}},{"type":"Feature","geometry":{"type":"LineString","coordinates":[[-76.38352,42.34687,10970.0],[-76.40923,42.22854,10980.0]]},"properties":{"ef_share":0.146,"ef_tj":0.038407}},{"type":"Feature","geometry":{"type":"LineString","coordinates":[[-76.40923,42.22854,10980.0],[-76.43486,42.10985,10970.0]]},"properties":{"ef_share":0.411,"ef_tj":0.108297}},{"type":"Feature","geometry":{"type":"LineString","coordinates":[[-76.43486,42.10985,10970.0],[-76.46028,41.99148,10970.0]]},"properties":{"ef_share":1.0,"ef_tj":0.263187}},{"type":"Feature","geometry":{"type":"LineString","coordinates":[[-76.46028,41.99148,10970.0],[-76.48566,41.87351,10970.0]]},"properties":{"ef_share":0.743,"ef_tj":0.195513}},{"type":"Feature","geometry":{"type":"LineString","coordinates":[[-76.48566,41.87351,10970.0],[-76.51079,41.75552,10970.0]]},"properties":{"ef_share":0.611,"ef_tj":0.160823}},{"type":"Feature","geometry":{"type":"LineString","coordinates":[[-76.51079,41.75552,10970.0],[-76.53595,41.63744,10980.0]]},"properties":{"ef_share":0.0,"ef_tj":0.0}},{"type":"Feature","geometry":{"type":"LineString","coordinates":[[-76.53595,41.63744,10980.0],[-76.56108,41.519,10970.0]]},"properties":{"ef_share":0.0,"ef_tj":0.0}},{"type":"Feature","geometry":{"type":"LineString","coordinates":[[-76.56108,41.519,10970.0],[-76.58626,41.40008,10980.0]]},"properties":{"ef_share":0.0,"ef_tj":0.0}},{"type":"Feature","geometry":{"type":"LineString","coordinates":[[-76.58626,41.40008,10980.0],[-76.61128,41.28082,10980.0]]},"properties":{"ef_share":0.0,"ef_tj":0.0}},{"type":"Feature","geometry":{"type":"LineString","coordinates":[[-76.61128,41.28082,10980.0],[-76.63636,41.16109,10980.0]]},"properties":{"ef_share":0.0,"ef_tj":0.0}},{"type":"Feature","geometry":{"type":"LineString","coordinates":[[-76.63636,41.16109,10980.0],[-76.66142,41.04196,10970.0]]},"properties":{"ef_share":0.0,"ef_tj":0.0}},{"type":"Feature","geometry":{"type":"LineString","coordinates":[[-76.66142,41.04196,10970.0],[-76.6926,40.92938,10970.0]]},"properties":{"ef_share":0.0,"ef_tj":0.0}},{"type":"Feature","geometry":{"type":"LineString","coordinates":[[-76.6926,40.92938,10970.0],[-76.73158,40.82065,10980.0]]},"properties":{"ef_share":0.0,"ef_tj":0.0}},{"type":"Feature","geometry":{"type":"LineString","coordinates":[[-76.73158,40.82065,10980.0],[-76.7708,40.71087,10970.0]]},"properties":{"ef_share":0.0,"ef_tj":0.0}},{"type":"Feature","geometry":{"type":"LineString","coordinates":[[-76.7708,40.71087,10970.0],[-76.80937,40.60049,10980.0]]},"properties":{"ef_share":0.0,"ef_tj":0.0}},{"type":"Feature","geometry":{"type":"LineString","coordinates":[[-76.80937,40.60049,10980.0],[-76.84792,40.48917,10980.0]]},"properties":{"ef_share":0.0,"ef_tj":0.0}},{"type":"Feature","geometry":{"type":"LineString","coordinates":[[-76.84792,40.48917,10980.0],[-76.88646,40.37718,10970.0]]},"properties":{"ef_share":0.0,"ef_tj":0.0}},{"type":"Feature","geometry":{"type":"LineString","coordinates":[[-76.88646,40.37718,10970.0],[-76.92509,40.26489,10970.0]]},"properties":{"ef_share":0.0,"ef_tj":0.0}},{"type":"Feature","geometry":{"type":"LineString","coordinates":[[-76.92509,40.26489,10970.0],[-76.96389,40.15207,10980.0]]},"properties":{"ef_share":0.0,"ef_tj":0.0}},{"type":"Feature","geometry":{"type":"LineString","coordinates":[[-76.96389,40.15207,10980.0],[-77.00278,40.03806,10970.0]]},"properties":{"ef_share":0.0,"ef_tj":0.0}},{"type":"Feature","geometry":{"type":"LineString","coordinates":[[-77.00278,40.03806,10970.0],[-77.04192,39.92324,10980.0]]},"properties":{"ef_share":0.0,"ef_tj":0.0}},{"type":"Feature","geometry":{"type":"LineString","coordinates":[[-77.04192,39.92324,10980.0],[-77.08122,39.80734,10970.0]]},"properties":{"ef_share":0.0,"ef_tj":0.0}},{"type":"Feature","geometry":{"type":"LineString","coordinates":[[-77.08122,39.80734,10970.0],[-77.1205,39.69107,10970.0]]},"properties":{"ef_share":0.0,"ef_tj":0.0}},{"type":"Feature","geometry":{"type":"LineString","coordinates":[[-77.1205,39.69107,10970.0],[-77.15998,39.57471,10970.0]]},"properties":{"ef_share":0.0,"ef_tj":0.0}},{"type":"Feature","geometry":{"type":"LineString","coordinates":[[-77.15998,39.57471,10970.0],[-77.20424,39.46013,10980.0]]},"properties":{"ef_share":0.0,"ef_tj":0.0}},{"type":"Feature","geometry":{"type":"LineString","coordinates":[[-77.20424,39.46013,10980.0],[-77.25206,39.34676,10970.0]]},"properties":{"ef_share":0.0,"ef_tj":0.0}},{"type":"Feature","geometry":{"type":"LineString","coordinates":[[-77.25206,39.34676,10970.0],[-77.30019,39.233,10980.0]]},"properties":{"ef_share":0.0,"ef_tj":0.0}},{"type":"Feature","geometry":{"type":"LineString","coordinates":[[-77.30019,39.233,10980.0],[-77.34784,39.11869,10970.0]]},"properties":{"ef_share":0.0,"ef_tj":0.0}},{"type":"Feature","geometry":{"type":"LineString","coordinates":[[-77.34784,39.11869,10970.0],[-77.3952,39.00409,10970.0]]},"properties":{"ef_share":0.0,"ef_tj":0.0}},{"type":"Feature","geometry":{"type":"LineString","coordinates":[[-77.3952,39.00409,10970.0],[-77.44224,38.88979,10970.0]]},"properties":{"ef_share":0.0,"ef_tj":0.0}},{"type":"Feature","geometry":{"type":"LineString","coordinates":[[-77.44224,38.88979,10970.0],[-77.48868,38.77658,10970.0]]},"properties":{"ef_share":0.0,"ef_tj":0.0}},{"type":"Feature","geometry":{"type":"LineString","coordinates":[[-77.48868,38.77658,10970.0],[-77.53452,38.66479,10970.0]]},"properties":{"ef_share":0.0,"ef_tj":0.0}},{"type":"Feature","geometry":{"type":"LineString","coordinates":[[-77.53452,38.66479,10970.0],[-77.57965,38.55411,10980.0]]},"properties":{"ef_share":0.0,"ef_tj":0.0}},{"type":"Feature","geometry":{"type":"LineString","coordinates":[[-77.57965,38.55411,10980.0],[-77.62439,38.44425,10970.0]]},"properties":{"ef_share":0.0,"ef_tj":0.0}},{"type":"Feature","geometry":{"type":"LineString","coordinates":[[-77.62439,38.44425,10970.0],[-77.66866,38.33481,10980.0]]},"properties":{"ef_share":0.0,"ef_tj":0.0}},{"type":"Feature","geometry":{"type":"LineString","coordinates":[[-77.66866,38.33481,10980.0],[-77.71293,38.22539,10970.0]]},"properties":{"ef_share":0.0,"ef_tj":0.0}},{"type":"Feature","geometry":{"type":"LineString","coordinates":[[-77.71293,38.22539,10970.0],[-77.75697,38.11596,10980.0]]},"properties":{"ef_share":0.0,"ef_tj":0.0}},{"type":"Feature","geometry":{"type":"LineString","coordinates":[[-77.75697,38.11596,10980.0],[-77.80098,38.00658,10970.0]]},"properties":{"ef_share":0.0,"ef_tj":0.0}},{"type":"Feature","geometry":{"type":"LineString","coordinates":[[-77.80098,38.00658,10970.0],[-77.84468,37.89743,10970.0]]},"properties":{"ef_share":0.0,"ef_tj":0.0}},{"type":"Feature","geometry":{"type":"LineString","coordinates":[[-77.84468,37.89743,10970.0],[-77.88819,37.78814,10970.0]]},"properties":{"ef_share":0.0,"ef_tj":0.0}},{"type":"Feature","geometry":{"type":"LineString","coordinates":[[-77.88819,37.78814,10970.0],[-77.93173,37.67874,10970.0]]},"properties":{"ef_share":0.0,"ef_tj":0.0}},{"type":"Feature","geometry":{"type":"LineString","coordinates":[[-77.93173,37.67874,10970.0],[-77.9745,37.57065,10970.0]]},"properties":{"ef_share":0.0,"ef_tj":0.0}},{"type":"Feature","geometry":{"type":"LineString","coordinates":[[-77.9745,37.57065,10970.0],[-78.01648,37.46491,10970.0]]},"properties":{"ef_share":0.0,"ef_tj":0.0}},{"type":"Feature","geometry":{"type":"LineString","coordinates":[[-78.01648,37.46491,10970.0],[-78.058,37.35982,10910.0]]},"properties":{"ef_share":0.0,"ef_tj":0.0}},{"type":"Feature","geometry":{"type":"LineString","coordinates":[[-78.058,37.35982,10910.0],[-78.09933,37.25446,10620.0]]},"properties":{"ef_share":0.0,"ef_tj":0.0}},{"type":"Feature","geometry":{"type":"LineString","coordinates":[[-78.09933,37.25446,10620.0],[-78.14048,37.14953,10350.0]]},"properties":{"ef_share":0.0,"ef_tj":0.0}},{"type":"Feature","geometry":{"type":"LineString","coordinates":[[-78.14048,37.14953,10350.0],[-78.18104,37.04527,10110.0]]},"properties":{"ef_share":0.0,"ef_tj":0.0}},{"type":"Feature","geometry":{"type":"LineString","coordinates":[[-78.18104,37.04527,10110.0],[-78.22157,36.94174,9570.0]]},"properties":{"ef_share":0.0,"ef_tj":0.0}},{"type":"Feature","geometry":{"type":"LineString","coordinates":[[-78.22157,36.94174,9570.0],[-78.26095,36.84018,8930.0]]},"properties":{"ef_share":0.0,"ef_tj":0.0}},{"type":"Feature","geometry":{"type":"LineString","coordinates":[[-78.26095,36.84018,8930.0],[-78.2988,36.74258,8350.0]]},"properties":{"ef_share":0.0,"ef_tj":0.0}},{"type":"Feature","geometry":{"type":"LineString","coordinates":[[-78.2988,36.74258,8350.0],[-78.33536,36.64816,7800.0]]},"properties":{"ef_share":0.0,"ef_tj":0.0}},{"type":"Feature","geometry":{"type":"LineString","coordinates":[[-78.33536,36.64816,7800.0],[-78.37045,36.55699,7270.0]]},"properties":{"ef_share":0.0,"ef_tj":0.0}},{"type":"Feature","geometry":{"type":"LineString","coordinates":[[-78.37045,36.55699,7270.0],[-78.40448,36.46852,6750.0]]},"properties":{"ef_share":0.0,"ef_tj":0.0}},{"type":"Feature","geometry":{"type":"LineString","coordinates":[[-78.40448,36.46852,6750.0],[-78.43767,36.38219,6240.0]]},"properties":{"ef_share":0.0,"ef_tj":0.0}},{"type":"Feature","geometry":{"type":"LineString","coordinates":[[-78.43767,36.38219,6240.0],[-78.47006,36.29739,5740.0]]},"properties":{"ef_share":0.0,"ef_tj":0.0}},{"type":"Feature","geometry":{"type":"LineString","coordinates":[[-78.47006,36.29739,5740.0],[-78.50179,36.2142,5260.0]]},"properties":{"ef_share":0.0,"ef_tj":0.0}},{"type":"Feature","geometry":{"type":"LineString","coordinates":[[-78.50179,36.2142,5260.0],[-78.53458,36.12943,4620.0]]},"properties":{"ef_share":0.0,"ef_tj":0.0}},{"type":"Feature","geometry":{"type":"LineString","coordinates":[[-78.53458,36.12943,4620.0],[-78.56873,36.04426,4140.0]]},"properties":{"ef_share":0.0,"ef_tj":0.0}},{"type":"Feature","geometry":{"type":"LineString","coordinates":[[-78.56873,36.04426,4140.0],[-78.60153,35.96188,3690.0]]},"properties":{"ef_share":0.0,"ef_tj":0.0}},{"type":"Feature","geometry":{"type":"LineString","coordinates":[[-78.60153,35.96188,3690.0],[-78.63356,35.88177,3250.0]]},"properties":{"ef_share":0.0,"ef_tj":0.0}},{"type":"Feature","geometry":{"type":"LineString","coordinates":[[-78.63356,35.88177,3250.0],[-78.66391,35.80502,2950.0]]},"properties":{"ef_share":0.0,"ef_tj":0.0}},{"type":"Feature","geometry":{"type":"LineString","coordinates":[[-78.66391,35.80502,2950.0],[-78.69171,35.735,2630.0]]},"properties":{"ef_share":0.0,"ef_tj":0.0}},{"type":"Feature","geometry":{"type":"LineString","coordinates":[[-78.69171,35.735,2630.0],[-78.71828,35.66774,2260.0]]},"properties":{"ef_share":0.0,"ef_tj":0.0}},{"type":"Feature","geometry":{"type":"LineString","coordinates":[[-78.71828,35.66774,2260.0],[-78.74309,35.60564,1750.0]]},"properties":{"ef_share":0.0,"ef_tj":0.0}},{"type":"Feature","geometry":{"type":"LineString","coordinates":[[-78.74309,35.60564,1750.0],[-78.76606,35.54707,1210.0]]},"properties":{"ef_share":0.0,"ef_tj":0.0}},{"type":"Feature","geometry":{"type":"LineString","coordinates":[[-78.76606,35.54707,1210.0],[-78.78802,35.49104,1100.0]]},"properties":{"ef_share":0.0,"ef_tj":0.0}},{"type":"Feature","geometry":{"type":"LineString","coordinates":[[-78.78802,35.49104,1100.0],[-78.80876,35.43869,1050.0]]},"properties":{"ef_share":0.0,"ef_tj":0.0}},{"type":"Feature","geometry":{"type":"LineString","coordinates":[[-78.80876,35.43869,1050.0],[-78.82838,35.38792,710.0]]},"properties":{"ef_share":0.0,"ef_tj":0.0}},{"type":"Feature","geometry":{"type":"LineString","coordinates":[[-78.82838,35.38792,710.0],[-78.84795,35.339,500.0]]},"properties":{"ef_share":0.0,"ef_tj":0.0}},{"type":"Feature","geometry":{"type":"LineString","coordinates":[[-78.84795,35.339,500.0],[-78.88051,35.29424,490.0]]},"properties":{"ef_share":0.0,"ef_tj":0.0}},{"type":"Feature","geometry":{"type":"LineString","coordinates":[[-78.88051,35.29424,490.0],[-78.92216,35.25668,500.0]]},"properties":{"ef_share":0.0,"ef_tj":0.0}},{"type":"Feature","geometry":{"type":"LineString","coordinates":[[-78.92216,35.25668,500.0],[-78.95939,35.22212,320.0]]},"properties":{"ef_share":0.0,"ef_tj":0.0}}]}