{"type":"FeatureCollection","properties":{"icao24":"a40b24","registration":"N36NE","owner_label":"New England Patriots","combined_co2e_central":23978.4,"fuel_co2_kg":23978.4,"contrail_co2e_central":0.0,"tier":"medium"},"features":[{"type":"Feature","geometry":{"type":"LineString","coordinates":[[10.97885,36.10487,10060.0],[11.16607,36.08208,10060.0]]},"properties":{"ef_share":0.0,"ef_tj":0.0}},{"type":"Feature","geometry":{"type":"LineString","coordinates":[[11.16607,36.08208,10060.0],[11.35247,36.05901,10070.0]]},"properties":{"ef_share":0.0,"ef_tj":0.0}},{"type":"Feature","geometry":{"type":"LineString","coordinates":[[11.35247,36.05901,10070.0],[11.53847,36.03593,10060.0]]},"properties":{"ef_share":0.0,"ef_tj":0.0}},{"type":"Feature","geometry":{"type":"LineString","coordinates":[[11.53847,36.03593,10060.0],[11.72518,36.01693,10060.0]]},"properties":{"ef_share":0.0,"ef_tj":0.0}},{"type":"Feature","geometry":{"type":"LineString","coordinates":[[11.72518,36.01693,10060.0],[11.91159,35.99784,10060.0]]},"properties":{"ef_share":0.0,"ef_tj":0.0}},{"type":"Feature","geometry":{"type":"LineString","coordinates":[[11.91159,35.99784,10060.0],[12.0976,35.9781,10060.0]]},"properties":{"ef_share":0.0,"ef_tj":0.0}},{"type":"Feature","geometry":{"type":"LineString","coordinates":[[12.0976,35.9781,10060.0],[12.28346,35.95781,10070.0]]},"properties":{"ef_share":0.0,"ef_tj":0.0}},{"type":"Feature","geometry":{"type":"LineString","coordinates":[[12.28346,35.95781,10070.0],[12.47018,35.93716,10060.0]]},"properties":{"ef_share":0.0,"ef_tj":0.0}},{"type":"Feature","geometry":{"type":"LineString","coordinates":[[12.47018,35.93716,10060.0],[12.65725,35.91628,10060.0]]},"properties":{"ef_share":0.0,"ef_tj":0.0}},{"type":"Feature","geometry":{"type":"LineString","coordinates":[[12.65725,35.91628,10060.0],[12.84438,35.89724,10060.0]]},"properties":{"ef_share":0.0,"ef_tj":0.0}},{"type":"Feature","geometry":{"type":"LineString","coordinates":[[12.84438,35.89724,10060.0],[13.03151,35.87819,10060.0]]},"properties":{"ef_share":0.0,"ef_tj":0.0}},{"type":"Feature","geometry":{"type":"LineString","coordinates":[[13.03151,35.87819,10060.0],[13.21864,35.85915,10060.0]]},"properties":{"ef_share":0.0,"ef_tj":0.0}},{"type":"Feature","geometry":{"type":"LineString","coordinates":[[13.21864,35.85915,10060.0],[13.40557,35.83947,10060.0]]},"properties":{"ef_share":0.0,"ef_tj":0.0}},{"type":"Feature","geometry":{"type":"LineString","coordinates":[[13.40557,35.83947,10060.0],[13.59239,35.81942,10060.0]]},"properties":{"ef_share":0.0,"ef_tj":0.0}},{"type":"Feature","geometry":{"type":"LineString","coordinates":[[13.59239,35.81942,10060.0],[13.7792,35.79938,10060.0]]},"properties":{"ef_share":0.0,"ef_tj":0.0}},{"type":"Feature","geometry":{"type":"LineString","coordinates":[[13.7792,35.79938,10060.0],[13.96579,35.78039,10060.0]]},"properties":{"ef_share":0.0,"ef_tj":0.0}},{"type":"Feature","geometry":{"type":"LineString","coordinates":[[13.96579,35.78039,10060.0],[14.15111,35.76571,10060.0]]},"properties":{"ef_share":0.0,"ef_tj":0.0}},{"type":"Feature","geometry":{"type":"LineString","coordinates":[[14.15111,35.76571,10060.0],[14.33618,35.7505,10060.0]]},"properties":{"ef_share":0.0,"ef_tj":0.0}},{"type":"Feature","geometry":{"type":"LineString","coordinates":[[14.33618,35.7505,10060.0],[14.52134,35.73509,10060.0]]},"properties":{"ef_share":0.0,"ef_tj":0.0}},{"type":"Feature","geometry":{"type":"LineString","coordinates":[[14.52134,35.73509,10060.0],[14.7066,35.71934,10060.0]]},"properties":{"ef_share":0.0,"ef_tj":0.0}},{"type":"Feature","geometry":{"type":"LineString","coordinates":[[14.7066,35.71934,10060.0],[14.89219,35.70324,10060.0]]},"properties":{"ef_share":0.0,"ef_tj":0.0}},{"type":"Feature","geometry":{"type":"LineString","coordinates":[[14.89219,35.70324,10060.0],[15.07919,35.6867,10060.0]]},"properties":{"ef_share":0.0,"ef_tj":0.0}},{"type":"Feature","geometry":{"type":"LineString","coordinates":[[15.07919,35.6867,10060.0],[15.26708,35.66984,10210.0]]},"properties":{"ef_share":0.0,"ef_tj":0.0}},{"type":"Feature","geometry":{"type":"LineString","coordinates":[[15.26708,35.66984,10210.0],[15.4539,35.65282,10680.0]]},"properties":{"ef_share":0.0,"ef_tj":0.0}},{"type":"Feature","geometry":{"type":"LineString","coordinates":[[15.4539,35.65282,10680.0],[15.64232,35.63535,10670.0]]},"properties":{"ef_share":0.0,"ef_tj":0.0}},{"type":"Feature","geometry":{"type":"LineString","coordinates":[[15.64232,35.63535,10670.0],[15.82573,35.61399,10670.0]]},"properties":{"ef_share":0.0,"ef_tj":0.0}},{"type":"Feature","geometry":{"type":"LineString","coordinates":[[15.82573,35.61399,10670.0],[16.00969,35.59167,10670.0]]},"properties":{"ef_share":0.0,"ef_tj":0.0}},{"type":"Feature","geometry":{"type":"LineString","coordinates":[[16.00969,35.59167,10670.0],[16.19233,35.56985,10680.0]]},"properties":{"ef_share":0.0,"ef_tj":0.0}},{"type":"Feature","geometry":{"type":"LineString","coordinates":[[16.19233,35.56985,10680.0],[16.37449,35.54803,10670.0]]},"properties":{"ef_share":0.0,"ef_tj":0.0}},{"type":"Feature","geometry":{"type":"LineString","coordinates":[[16.37449,35.54803,10670.0],[16.55736,35.52588,10680.0]]},"properties":{"ef_share":0.0,"ef_tj":0.0}},{"type":"Feature","geometry":{"type":"LineString","coordinates":[[16.55736,35.52588,10680.0],[16.74044,35.50328,10680.0]]},"properties":{"ef_share":0.0,"ef_tj":0.0}},{"type":"Feature","geometry":{"type":"LineString","coordinates":[[16.74044,35.50328,10680.0],[16.92383,35.48032,10670.0]]},"properties":{"ef_share":0.0,"ef_tj":0.0}},{"type":"Feature","geometry":{"type":"LineString","coordinates":[[16.92383,35.48032,10670.0],[17.10769,35.45698,10670.0]]},"properties":{"ef_share":0.0,"ef_tj":0.0}},{"type":"Feature","geometry":{"type":"LineString","coordinates":[[17.10769,35.45698,10670.0],[17.29056,35.43316,10670.0]]},"properties":{"ef_share":0.0,"ef_tj":0.0}},{"type":"Feature","geometry":{"type":"LineString","coordinates":[[17.29056,35.43316,10670.0],[17.47262,35.40912,10670.0]]},"properties":{"ef_share":0.0,"ef_tj":0.0}},{"type":"Feature","geometry":{"type":"LineString","coordinates":[[17.47262,35.40912,10670.0],[17.65468,35.38508,10670.0]]},"properties":{"ef_share":0.0,"ef_tj":0.0}},{"type":"Feature","geometry":{"type":"LineString","coordinates":[[17.65468,35.38508,10670.0],[17.83521,35.36072,10680.0]]},"properties":{"ef_share":0.0,"ef_tj":0.0}},{"type":"Feature","geometry":{"type":"LineString","coordinates":[[17.83521,35.36072,10680.0],[18.01513,35.33609,10680.0]]},"properties":{"ef_share":0.0,"ef_tj":0.0}},{"type":"Feature","geometry":{"type":"LineString","coordinates":[[18.01513,35.33609,10680.0],[18.19505,35.31146,10680.0]]},"properties":{"ef_share":0.0,"ef_tj":0.0}},{"type":"Feature","geometry":{"type":"LineString","coordinates":[[18.19505,35.31146,10680.0],[18.3748,35.28643,10680.0]]},"properties":{"ef_share":0.0,"ef_tj":0.0}},{"type":"Feature","geometry":{"type":"LineString","coordinates":[[18.3748,35.28643,10680.0],[18.55438,35.26099,10680.0]]},"properties":{"ef_share":0.0,"ef_tj":0.0}},{"type":"Feature","geometry":{"type":"LineString","coordinates":[[18.55438,35.26099,10680.0],[18.73396,35.23555,10680.0]]},"properties":{"ef_share":0.0,"ef_tj":0.0}},{"type":"Feature","geometry":{"type":"LineString","coordinates":[[18.73396,35.23555,10680.0],[18.91328,35.21005,10680.0]]},"properties":{"ef_share":0.0,"ef_tj":0.0}},{"type":"Feature","geometry":{"type":"LineString","coordinates":[[18.91328,35.21005,10680.0],[19.09199,35.18425,10670.0]]},"properties":{"ef_share":0.0,"ef_tj":0.0}},{"type":"Feature","geometry":{"type":"LineString","coordinates":[[19.09199,35.18425,10670.0],[19.27084,35.15814,10670.0]]},"properties":{"ef_share":0.0,"ef_tj":0.0}},{"type":"Feature","geometry":{"type":"LineString","coordinates":[[19.27084,35.15814,10670.0],[19.44919,35.13185,10670.0]]},"properties":{"ef_share":0.0,"ef_tj":0.0}},{"type":"Feature","geometry":{"type":"LineString","coordinates":[[19.44919,35.13185,10670.0],[19.62722,35.10534,10670.0]]},"properties":{"ef_share":0.0,"ef_tj":0.0}},{"type":"Feature","geometry":{"type":"LineString","coordinates":[[19.62722,35.10534,10670.0],[19.80515,35.07857,10680.0]]},"properties":{"ef_share":0.0,"ef_tj":0.0}},{"type":"Feature","geometry":{"type":"LineString","coordinates":[[19.80515,35.07857,10680.0],[19.98213,35.05165,10670.0]]},"properties":{"ef_share":0.0,"ef_tj":0.0}},{"type":"Feature","geometry":{"type":"LineString","coordinates":[[19.98213,35.05165,10670.0],[20.15904,35.02449,10670.0]]},"properties":{"ef_share":0.0,"ef_tj":0.0}},{"type":"Feature","geometry":{"type":"LineString","coordinates":[[20.15904,35.02449,10670.0],[20.33489,34.99714,10670.0]]},"properties":{"ef_share":0.0,"ef_tj":0.0}},{"type":"Feature","geometry":{"type":"LineString","coordinates":[[20.33489,34.99714,10670.0],[20.51124,34.96952,10680.0]]},"properties":{"ef_share":0.0,"ef_tj":0.0}},{"type":"Feature","geometry":{"type":"LineString","coordinates":[[20.51124,34.96952,10680.0],[20.68766,34.94159,10670.0]]},"properties":{"ef_share":0.0,"ef_tj":0.0}},{"type":"Feature","geometry":{"type":"LineString","coordinates":[[20.68766,34.94159,10670.0],[20.86352,34.91346,10680.0]]},"properties":{"ef_share":0.0,"ef_tj":0.0}},{"type":"Feature","geometry":{"type":"LineString","coordinates":[[20.86352,34.91346,10680.0],[21.04043,34.8849,10670.0]]},"properties":{"ef_share":0.0,"ef_tj":0.0}},{"type":"Feature","geometry":{"type":"LineString","coordinates":[[21.04043,34.8849,10670.0],[21.21709,34.85609,10670.0]]},"properties":{"ef_share":0.0,"ef_tj":0.0}},{"type":"Feature","geometry":{"type":"LineString","coordinates":[[21.21709,34.85609,10670.0],[21.3932,34.82813,10670.0]]},"properties":{"ef_share":0.0,"ef_tj":0.0}},{"type":"Feature","geometry":{"type":"LineString","coordinates":[[21.3932,34.82813,10670.0],[21.57096,34.80579,10680.0]]},"properties":{"ef_share":0.0,"ef_tj":0.0}},{"type":"Feature","geometry":{"type":"LineString","coordinates":[[21.57096,34.80579,10680.0],[21.74874,34.78442,10670.0]]},"properties":{"ef_share":0.0,"ef_tj":0.0}},{"type":"Feature","geometry":{"type":"LineString","coordinates":[[21.74874,34.78442,10670.0],[21.92595,34.76273,10670.0]]},"properties":{"ef_share":0.0,"ef_tj":0.0}},{"type":"Feature","geometry":{"type":"LineString","coordinates":[[21.92595,34.76273,10670.0],[22.10342,34.74073,10680.0]]},"properties":{"ef_share":0.0,"ef_tj":0.0}},{"type":"Feature","geometry":{"type":"LineString","coordinates":[[22.10342,34.74073,10680.0],[22.28062,34.71845,10670.0]]},"properties":{"ef_share":0.0,"ef_tj":0.0}},{"type":"Feature","geometry":{"type":"LineString","coordinates":[[22.28062,34.71845,10670.0],[22.45807,34.69586,10670.0]]},"properties":{"ef_share":0.0,"ef_tj":0.0}},{"type":"Feature","geometry":{"type":"LineString","coordinates":[[22.45807,34.69586,10670.0],[22.6357,34.67304,10670.0]]},"properties":{"ef_share":0.0,"ef_tj":0.0}},{"type":"Feature","geometry":{"type":"LineString","coordinates":[[22.6357,34.67304,10670.0],[22.8128,34.65,10670.0]]},"properties":{"ef_share":0.0,"ef_tj":0.0}},{"type":"Feature","geometry":{"type":"LineString","coordinates":[[22.8128,34.65,10670.0],[22.98869,34.62258,10670.0]]},"properties":{"ef_share":0.0,"ef_tj":0.0}},{"type":"Feature","geometry":{"type":"LineString","coordinates":[[22.98869,34.62258,10670.0],[23.14906,34.56322,10670.0]]},"properties":{"ef_share":0.0,"ef_tj":0.0}}]}