{"type":"FeatureCollection","properties":{"icao24":"a40b24","registration":"N36NE","owner_label":"New England Patriots","combined_co2e_central":62026.9,"fuel_co2_kg":54010.2,"contrail_co2e_central":8016.7,"tier":"high"},"features":[{"type":"Feature","geometry":{"type":"LineString","coordinates":[[-71.41468,41.73857,160.0],[-71.42421,41.78791,710.0]]},"properties":{"ef_share":0.0,"ef_tj":0.0}},{"type":"Feature","geometry":{"type":"LineString","coordinates":[[-71.42421,41.78791,710.0],[-71.4868,41.82536,1600.0]]},"properties":{"ef_share":0.0,"ef_tj":0.0}},{"type":"Feature","geometry":{"type":"LineString","coordinates":[[-71.4868,41.82536,1600.0],[-71.56718,41.85559,2560.0]]},"properties":{"ef_share":0.0,"ef_tj":0.0}},{"type":"Feature","geometry":{"type":"LineString","coordinates":[[-71.56718,41.85559,2560.0],[-71.65149,41.88553,3390.0]]},"properties":{"ef_share":0.0,"ef_tj":0.0}},{"type":"Feature","geometry":{"type":"LineString","coordinates":[[-71.65149,41.88553,3390.0],[-71.74862,41.92056,3870.0]]},"properties":{"ef_share":0.0,"ef_tj":0.0}},{"type":"Feature","geometry":{"type":"LineString","coordinates":[[-71.74862,41.92056,3870.0],[-71.85529,41.9586,4760.0]]},"properties":{"ef_share":0.0,"ef_tj":0.0}},{"type":"Feature","geometry":{"type":"LineString","coordinates":[[-71.85529,41.9586,4760.0],[-71.96632,41.99326,5590.0]]},"properties":{"ef_share":0.0,"ef_tj":0.0}},{"type":"Feature","geometry":{"type":"LineString","coordinates":[[-71.96632,41.99326,5590.0],[-72.08031,42.02849,6330.0]]},"properties":{"ef_share":0.0,"ef_tj":0.0}},{"type":"Feature","geometry":{"type":"LineString","coordinates":[[-72.08031,42.02849,6330.0],[-72.19677,42.06416,7090.0]]},"properties":{"ef_share":0.0,"ef_tj":0.0}},{"type":"Feature","geometry":{"type":"LineString","coordinates":[[-72.19677,42.06416,7090.0],[-72.31495,42.10033,7700.0]]},"properties":{"ef_share":0.0,"ef_tj":0.0}},{"type":"Feature","geometry":{"type":"LineString","coordinates":[[-72.31495,42.10033,7700.0],[-72.43704,42.13745,8280.0]]},"properties":{"ef_share":0.0,"ef_tj":0.0}},{"type":"Feature","geometry":{"type":"LineString","coordinates":[[-72.43704,42.13745,8280.0],[-72.56173,42.17516,8530.0]]},"properties":{"ef_share":0.0,"ef_tj":0.0}},{"type":"Feature","geometry":{"type":"LineString","coordinates":[[-72.56173,42.17516,8530.0],[-72.68532,42.21239,8530.0]]},"properties":{"ef_share":0.0,"ef_tj":0.0}},{"type":"Feature","geometry":{"type":"LineString","coordinates":[[-72.68532,42.21239,8530.0],[-72.80854,42.24933,8620.0]]},"properties":{"ef_share":0.0,"ef_tj":0.0}},{"type":"Feature","geometry":{"type":"LineString","coordinates":[[-72.80854,42.24933,8620.0],[-72.93222,42.28626,9260.0]]},"properties":{"ef_share":0.0,"ef_tj":0.0}},{"type":"Feature","geometry":{"type":"LineString","coordinates":[[-72.93222,42.28626,9260.0],[-73.05145,42.326,9800.0]]},"properties":{"ef_share":0.0,"ef_tj":0.0}},{"type":"Feature","geometry":{"type":"LineString","coordinates":[[-73.05145,42.326,9800.0],[-73.17007,42.36656,10280.0]]},"properties":{"ef_share":0.0,"ef_tj":0.0}},{"type":"Feature","geometry":{"type":"LineString","coordinates":[[-73.17007,42.36656,10280.0],[-73.29171,42.40744,10360.0]]},"properties":{"ef_share":0.0,"ef_tj":0.0}},{"type":"Feature","geometry":{"type":"LineString","coordinates":[[-73.29171,42.40744,10360.0],[-73.41362,42.44839,10360.0]]},"properties":{"ef_share":0.0,"ef_tj":0.0}},{"type":"Feature","geometry":{"type":"LineString","coordinates":[[-73.41362,42.44839,10360.0],[-73.53685,42.48952,10360.0]]},"properties":{"ef_share":0.0,"ef_tj":0.0}},{"type":"Feature","geometry":{"type":"LineString","coordinates":[[-73.53685,42.48952,10360.0],[-73.66114,42.53097,10360.0]]},"properties":{"ef_share":0.0,"ef_tj":0.0}},{"type":"Feature","geometry":{"type":"LineString","coordinates":[[-73.66114,42.53097,10360.0],[-73.78548,42.57221,10360.0]]},"properties":{"ef_share":0.0,"ef_tj":0.0}},{"type":"Feature","geometry":{"type":"LineString","coordinates":[[-73.78548,42.57221,10360.0],[-73.91013,42.61329,10360.0]]},"properties":{"ef_share":0.0,"ef_tj":0.0}},{"type":"Feature","geometry":{"type":"LineString","coordinates":[[-73.91013,42.61329,10360.0],[-74.03457,42.65422,10360.0]]},"properties":{"ef_share":0.0,"ef_tj":0.0}},{"type":"Feature","geometry":{"type":"LineString","coordinates":[[-74.03457,42.65422,10360.0],[-74.15959,42.69503,10370.0]]},"properties":{"ef_share":0.0,"ef_tj":0.0}},{"type":"Feature","geometry":{"type":"LineString","coordinates":[[-74.15959,42.69503,10370.0],[-74.28523,42.73579,10360.0]]},"properties":{"ef_share":0.0,"ef_tj":0.0}},{"type":"Feature","geometry":{"type":"LineString","coordinates":[[-74.28523,42.73579,10360.0],[-74.41714,42.75946,10360.0]]},"properties":{"ef_share":0.0,"ef_tj":0.0}},{"type":"Feature","geometry":{"type":"LineString","coordinates":[[-74.41714,42.75946,10360.0],[-74.55148,42.76863,10360.0]]},"properties":{"ef_share":0.0,"ef_tj":0.0}},{"type":"Feature","geometry":{"type":"LineString","coordinates":[[-74.55148,42.76863,10360.0],[-74.68625,42.77663,10360.0]]},"properties":{"ef_share":0.0,"ef_tj":0.0}},{"type":"Feature","geometry":{"type":"LineString","coordinates":[[-74.68625,42.77663,10360.0],[-74.82016,42.78424,10360.0]]},"properties":{"ef_share":0.0,"ef_tj":0.0}},{"type":"Feature","geometry":{"type":"LineString","coordinates":[[-74.82016,42.78424,10360.0],[-74.95329,42.79177,10370.0]]},"properties":{"ef_share":0.0,"ef_tj":0.0}},{"type":"Feature","geometry":{"type":"LineString","coordinates":[[-74.95329,42.79177,10370.0],[-75.0853,42.79925,10370.0]]},"properties":{"ef_share":0.0,"ef_tj":0.0}},{"type":"Feature","geometry":{"type":"LineString","coordinates":[[-75.0853,42.79925,10370.0],[-75.21691,42.80646,10360.0]]},"properties":{"ef_share":0.0,"ef_tj":0.0}},{"type":"Feature","geometry":{"type":"LineString","coordinates":[[-75.21691,42.80646,10360.0],[-75.34861,42.81349,10360.0]]},"properties":{"ef_share":0.0,"ef_tj":0.0}},{"type":"Feature","geometry":{"type":"LineString","coordinates":[[-75.34861,42.81349,10360.0],[-75.48049,42.80601,10360.0]]},"properties":{"ef_share":0.0,"ef_tj":0.0}},{"type":"Feature","geometry":{"type":"LineString","coordinates":[[-75.48049,42.80601,10360.0],[-75.61007,42.77543,10360.0]]},"properties":{"ef_share":0.0,"ef_tj":0.0}},{"type":"Feature","geometry":{"type":"LineString","coordinates":[[-75.61007,42.77543,10360.0],[-75.73889,42.74351,10370.0]]},"properties":{"ef_share":0.0,"ef_tj":0.0}},{"type":"Feature","geometry":{"type":"LineString","coordinates":[[-75.73889,42.74351,10370.0],[-75.8676,42.71118,10370.0]]},"properties":{"ef_share":0.0,"ef_tj":0.0}},{"type":"Feature","geometry":{"type":"LineString","coordinates":[[-75.8676,42.71118,10370.0],[-75.99568,42.67896,10360.0]]},"properties":{"ef_share":0.0,"ef_tj":0.0}},{"type":"Feature","geometry":{"type":"LineString","coordinates":[[-75.99568,42.67896,10360.0],[-76.12305,42.6468,10370.0]]},"properties":{"ef_share":0.0,"ef_tj":0.0}},{"type":"Feature","geometry":{"type":"LineString","coordinates":[[-76.12305,42.6468,10370.0],[-76.24967,42.6147,10360.0]]},"properties":{"ef_share":0.0,"ef_tj":0.0}},{"type":"Feature","geometry":{"type":"LineString","coordinates":[[-76.24967,42.6147,10360.0],[-76.37544,42.58251,10360.0]]},"properties":{"ef_share":0.0,"ef_tj":0.0}},{"type":"Feature","geometry":{"type":"LineString","coordinates":[[-76.37544,42.58251,10360.0],[-76.50012,42.55049,10370.0]]},"properties":{"ef_share":0.0,"ef_tj":0.0}},{"type":"Feature","geometry":{"type":"LineString","coordinates":[[-76.50012,42.55049,10370.0],[-76.62511,42.51825,10360.0]]},"properties":{"ef_share":0.0,"ef_tj":0.0}},{"type":"Feature","geometry":{"type":"LineString","coordinates":[[-76.62511,42.51825,10360.0],[-76.75018,42.48579,10370.0]]},"properties":{"ef_share":0.0,"ef_tj":0.0}},{"type":"Feature","geometry":{"type":"LineString","coordinates":[[-76.75018,42.48579,10370.0],[-76.8756,42.45303,10360.0]]},"properties":{"ef_share":0.0,"ef_tj":0.0}},{"type":"Feature","geometry":{"type":"LineString","coordinates":[[-76.8756,42.45303,10360.0],[-77.00079,42.42024,10360.0]]},"properties":{"ef_share":0.0,"ef_tj":0.0}},{"type":"Feature","geometry":{"type":"LineString","coordinates":[[-77.00079,42.42024,10360.0],[-77.12614,42.38718,10370.0]]},"properties":{"ef_share":0.0,"ef_tj":0.0}},{"type":"Feature","geometry":{"type":"LineString","coordinates":[[-77.12614,42.38718,10370.0],[-77.25199,42.35381,10370.0]]},"properties":{"ef_share":0.0,"ef_tj":0.0}},{"type":"Feature","geometry":{"type":"LineString","coordinates":[[-77.25199,42.35381,10370.0],[-77.37791,42.32032,10360.0]]},"properties":{"ef_share":0.0,"ef_tj":0.0}},{"type":"Feature","geometry":{"type":"LineString","coordinates":[[-77.37791,42.32032,10360.0],[-77.5038,42.28662,10370.0]]},"properties":{"ef_share":0.0,"ef_tj":0.0}},{"type":"Feature","geometry":{"type":"LineString","coordinates":[[-77.5038,42.28662,10370.0],[-77.62924,42.25274,10230.0]]},"properties":{"ef_share":0.0,"ef_tj":0.0}},{"type":"Feature","geometry":{"type":"LineString","coordinates":[[-77.62924,42.25274,10230.0],[-77.75193,42.21961,10020.0]]},"properties":{"ef_share":0.0,"ef_tj":0.0}},{"type":"Feature","geometry":{"type":"LineString","coordinates":[[-77.75193,42.21961,10020.0],[-77.87305,42.18663,9760.0]]},"properties":{"ef_share":0.0,"ef_tj":0.0}},{"type":"Feature","geometry":{"type":"LineString","coordinates":[[-77.87305,42.18663,9760.0],[-77.99695,42.15293,9750.0]]},"properties":{"ef_share":0.0,"ef_tj":0.0}},{"type":"Feature","geometry":{"type":"LineString","coordinates":[[-77.99695,42.15293,9750.0],[-78.12323,42.11822,9750.0]]},"properties":{"ef_share":0.0,"ef_tj":0.0}},{"type":"Feature","geometry":{"type":"LineString","coordinates":[[-78.12323,42.11822,9750.0],[-78.24943,42.08503,9750.0]]},"properties":{"ef_share":0.0,"ef_tj":0.0}},{"type":"Feature","geometry":{"type":"LineString","coordinates":[[-78.24943,42.08503,9750.0],[-78.37845,42.06414,9760.0]]},"properties":{"ef_share":0.0,"ef_tj":0.0}},{"type":"Feature","geometry":{"type":"LineString","coordinates":[[-78.37845,42.06414,9760.0],[-78.50817,42.04574,9760.0]]},"properties":{"ef_share":0.0,"ef_tj":0.0}},{"type":"Feature","geometry":{"type":"LineString","coordinates":[[-78.50817,42.04574,9760.0],[-78.63944,42.02841,9760.0]]},"properties":{"ef_share":0.0,"ef_tj":0.0}},{"type":"Feature","geometry":{"type":"LineString","coordinates":[[-78.63944,42.02841,9760.0],[-78.77087,42.01097,9750.0]]},"properties":{"ef_share":0.0,"ef_tj":0.0}},{"type":"Feature","geometry":{"type":"LineString","coordinates":[[-78.77087,42.01097,9750.0],[-78.90294,41.99323,9750.0]]},"properties":{"ef_share":0.0,"ef_tj":0.0}},{"type":"Feature","geometry":{"type":"LineString","coordinates":[[-78.90294,41.99323,9750.0],[-79.03547,41.97522,9760.0]]},"properties":{"ef_share":0.0,"ef_tj":0.0}},{"type":"Feature","geometry":{"type":"LineString","coordinates":[[-79.03547,41.97522,9760.0],[-79.16864,41.95691,9750.0]]},"properties":{"ef_share":0.0,"ef_tj":0.0}},{"type":"Feature","geometry":{"type":"LineString","coordinates":[[-79.16864,41.95691,9750.0],[-79.30268,41.93841,9750.0]]},"properties":{"ef_share":0.0,"ef_tj":0.0}},{"type":"Feature","geometry":{"type":"LineString","coordinates":[[-79.30268,41.93841,9750.0],[-79.43714,41.91959,9760.0]]},"properties":{"ef_share":0.0,"ef_tj":0.0}},{"type":"Feature","geometry":{"type":"LineString","coordinates":[[-79.43714,41.91959,9760.0],[-79.57226,41.90058,9750.0]]},"properties":{"ef_share":0.0,"ef_tj":0.0}},{"type":"Feature","geometry":{"type":"LineString","coordinates":[[-79.57226,41.90058,9750.0],[-79.70776,41.88137,9750.0]]},"properties":{"ef_share":0.0,"ef_tj":0.0}},{"type":"Feature","geometry":{"type":"LineString","coordinates":[[-79.70776,41.88137,9750.0],[-79.84352,41.86189,9750.0]]},"properties":{"ef_share":0.0,"ef_tj":0.0}},{"type":"Feature","geometry":{"type":"LineString","coordinates":[[-79.84352,41.86189,9750.0],[-79.97941,41.84222,9750.0]]},"properties":{"ef_share":0.0,"ef_tj":0.0}},{"type":"Feature","geometry":{"type":"LineString","coordinates":[[-79.97941,41.84222,9750.0],[-80.11496,41.82238,9750.0]]},"properties":{"ef_share":0.0,"ef_tj":0.0}},{"type":"Feature","geometry":{"type":"LineString","coordinates":[[-80.11496,41.82238,9750.0],[-80.25038,41.80246,9750.0]]},"properties":{"ef_share":0.0,"ef_tj":0.0}},{"type":"Feature","geometry":{"type":"LineString","coordinates":[[-80.25038,41.80246,9750.0],[-80.38598,41.78238,9760.0]]},"properties":{"ef_share":0.0,"ef_tj":0.0}},{"type":"Feature","geometry":{"type":"LineString","coordinates":[[-80.38598,41.78238,9760.0],[-80.52196,41.76202,9750.0]]},"properties":{"ef_share":0.0,"ef_tj":0.0}},{"type":"Feature","geometry":{"type":"LineString","coordinates":[[-80.52196,41.76202,9750.0],[-80.65857,41.74138,9760.0]]},"properties":{"ef_share":0.0,"ef_tj":0.0}},{"type":"Feature","geometry":{"type":"LineString","coordinates":[[-80.65857,41.74138,9760.0],[-80.79541,41.72048,9750.0]]},"properties":{"ef_share":0.0,"ef_tj":0.0}},{"type":"Feature","geometry":{"type":"LineString","coordinates":[[-80.79541,41.72048,9750.0],[-80.93271,41.69942,9760.0]]},"properties":{"ef_share":0.0,"ef_tj":0.0}},{"type":"Feature","geometry":{"type":"LineString","coordinates":[[-80.93271,41.69942,9760.0],[-81.07021,41.67819,10030.0]]},"properties":{"ef_share":0.0,"ef_tj":0.0}},{"type":"Feature","geometry":{"type":"LineString","coordinates":[[-81.07021,41.67819,10030.0],[-81.20692,41.65674,10370.0]]},"properties":{"ef_share":0.0,"ef_tj":0.0}},{"type":"Feature","geometry":{"type":"LineString","coordinates":[[-81.20692,41.65674,10370.0],[-81.34547,41.63494,10360.0]]},"properties":{"ef_share":0.0,"ef_tj":0.0}},{"type":"Feature","geometry":{"type":"LineString","coordinates":[[-81.34547,41.63494,10360.0],[-81.48177,41.61331,10360.0]]},"properties":{"ef_share":0.0,"ef_tj":0.0}},{"type":"Feature","geometry":{"type":"LineString","coordinates":[[-81.48177,41.61331,10360.0],[-81.61657,41.59171,10360.0]]},"properties":{"ef_share":0.0,"ef_tj":0.0}},{"type":"Feature","geometry":{"type":"LineString","coordinates":[[-81.61657,41.59171,10360.0],[-81.75126,41.57,10360.0]]},"properties":{"ef_share":0.0,"ef_tj":0.0}},{"type":"Feature","geometry":{"type":"LineString","coordinates":[[-81.75126,41.57,10360.0],[-81.88593,41.54812,10370.0]]},"properties":{"ef_share":0.0,"ef_tj":0.0}},{"type":"Feature","geometry":{"type":"LineString","coordinates":[[-81.88593,41.54812,10370.0],[-82.02152,41.52587,10360.0]]},"properties":{"ef_share":0.0,"ef_tj":0.0}},{"type":"Feature","geometry":{"type":"LineString","coordinates":[[-82.02152,41.52587,10360.0],[-82.15805,41.50328,10360.0]]},"properties":{"ef_share":0.0,"ef_tj":0.0}},{"type":"Feature","geometry":{"type":"LineString","coordinates":[[-82.15805,41.50328,10360.0],[-82.2955,41.48039,10370.0]]},"properties":{"ef_share":0.0,"ef_tj":0.0}},{"type":"Feature","geometry":{"type":"LineString","coordinates":[[-82.2955,41.48039,10370.0],[-82.43405,41.45715,10370.0]]},"properties":{"ef_share":0.0,"ef_tj":0.0}},{"type":"Feature","geometry":{"type":"LineString","coordinates":[[-82.43405,41.45715,10370.0],[-82.57303,41.43367,10360.0]]},"properties":{"ef_share":0.0,"ef_tj":0.0}},{"type":"Feature","geometry":{"type":"LineString","coordinates":[[-82.57303,41.43367,10360.0],[-82.71297,41.40976,10360.0]]},"properties":{"ef_share":0.0,"ef_tj":0.0}},{"type":"Feature","geometry":{"type":"LineString","coordinates":[[-82.71297,41.40976,10360.0],[-82.85304,41.38572,10360.0]]},"properties":{"ef_share":0.0,"ef_tj":0.0}},{"type":"Feature","geometry":{"type":"LineString","coordinates":[[-82.85304,41.38572,10360.0],[-82.99307,41.36141,10360.0]]},"properties":{"ef_share":0.0,"ef_tj":0.0}},{"type":"Feature","geometry":{"type":"LineString","coordinates":[[-82.99307,41.36141,10360.0],[-83.13315,41.33701,10360.0]]},"properties":{"ef_share":0.0,"ef_tj":0.0}},{"type":"Feature","geometry":{"type":"LineString","coordinates":[[-83.13315,41.33701,10360.0],[-83.27291,41.31241,10360.0]]},"properties":{"ef_share":0.0,"ef_tj":0.0}},{"type":"Feature","geometry":{"type":"LineString","coordinates":[[-83.27291,41.31241,10360.0],[-83.4125,41.28765,10360.0]]},"properties":{"ef_share":0.0,"ef_tj":0.0}},{"type":"Feature","geometry":{"type":"LineString","coordinates":[[-83.4125,41.28765,10360.0],[-83.55199,41.26271,10370.0]]},"properties":{"ef_share":0.0,"ef_tj":0.0}},{"type":"Feature","geometry":{"type":"LineString","coordinates":[[-83.55199,41.26271,10370.0],[-83.69151,41.23764,10360.0]]},"properties":{"ef_share":0.0,"ef_tj":0.0}},{"type":"Feature","geometry":{"type":"LineString","coordinates":[[-83.69151,41.23764,10360.0],[-83.83047,41.21241,10370.0]]},"properties":{"ef_share":0.0,"ef_tj":0.0}},{"type":"Feature","geometry":{"type":"LineString","coordinates":[[-83.83047,41.21241,10370.0],[-83.96972,41.18701,10370.0]]},"properties":{"ef_share":0.0,"ef_tj":0.0}},{"type":"Feature","geometry":{"type":"LineString","coordinates":[[-83.96972,41.18701,10370.0],[-84.11012,41.1612,10370.0]]},"properties":{"ef_share":0.0,"ef_tj":0.0}},{"type":"Feature","geometry":{"type":"LineString","coordinates":[[-84.11012,41.1612,10370.0],[-84.25086,41.13512,10360.0]]},"properties":{"ef_share":0.0,"ef_tj":0.0}},{"type":"Feature","geometry":{"type":"LineString","coordinates":[[-84.25086,41.13512,10360.0],[-84.39213,41.10868,10360.0]]},"properties":{"ef_share":0.0,"ef_tj":0.0}},{"type":"Feature","geometry":{"type":"LineString","coordinates":[[-84.39213,41.10868,10360.0],[-84.53378,41.08202,10370.0]]},"properties":{"ef_share":0.0,"ef_tj":0.0}},{"type":"Feature","geometry":{"type":"LineString","coordinates":[[-84.53378,41.08202,10370.0],[-84.67554,41.05521,10360.0]]},"properties":{"ef_share":0.0,"ef_tj":0.0}},{"type":"Feature","geometry":{"type":"LineString","coordinates":[[-84.67554,41.05521,10360.0],[-84.81756,41.02803,10360.0]]},"properties":{"ef_share":0.0,"ef_tj":0.0}},{"type":"Feature","geometry":{"type":"LineString","coordinates":[[-84.81756,41.02803,10360.0],[-84.9598,41.0007,10370.0]]},"properties":{"ef_share":0.0,"ef_tj":0.0}},{"type":"Feature","geometry":{"type":"LineString","coordinates":[[-84.9598,41.0007,10370.0],[-85.10236,40.97313,10360.0]]},"properties":{"ef_share":0.0,"ef_tj":0.0}},{"type":"Feature","geometry":{"type":"LineString","coordinates":[[-85.10236,40.97313,10360.0],[-85.24486,40.9453,10360.0]]},"properties":{"ef_share":0.0,"ef_tj":0.0}},{"type":"Feature","geometry":{"type":"LineString","coordinates":[[-85.24486,40.9453,10360.0],[-85.38787,40.91719,10360.0]]},"properties":{"ef_share":0.0,"ef_tj":0.0}},{"type":"Feature","geometry":{"type":"LineString","coordinates":[[-85.38787,40.91719,10360.0],[-85.53089,40.88892,10360.0]]},"properties":{"ef_share":0.0,"ef_tj":0.0}},{"type":"Feature","geometry":{"type":"LineString","coordinates":[[-85.53089,40.88892,10360.0],[-85.67427,40.8603,10360.0]]},"properties":{"ef_share":0.0,"ef_tj":0.0}},{"type":"Feature","geometry":{"type":"LineString","coordinates":[[-85.67427,40.8603,10360.0],[-85.81798,40.83147,10360.0]]},"properties":{"ef_share":0.0,"ef_tj":0.0}},{"type":"Feature","geometry":{"type":"LineString","coordinates":[[-85.81798,40.83147,10360.0],[-85.96151,40.80249,10620.0]]},"properties":{"ef_share":0.0,"ef_tj":0.0}},{"type":"Feature","geometry":{"type":"LineString","coordinates":[[-85.96151,40.80249,10620.0],[-86.10031,40.77411,10970.0]]},"properties":{"ef_share":0.0,"ef_tj":0.0}},{"type":"Feature","geometry":{"type":"LineString","coordinates":[[-86.10031,40.77411,10970.0],[-86.23908,40.74574,10970.0]]},"properties":{"ef_share":0.0,"ef_tj":0.0}},{"type":"Feature","geometry":{"type":"LineString","coordinates":[[-86.23908,40.74574,10970.0],[-86.37707,40.71728,10970.0]]},"properties":{"ef_share":0.0,"ef_tj":0.0}},{"type":"Feature","geometry":{"type":"LineString","coordinates":[[-86.37707,40.71728,10970.0],[-86.51431,40.68879,10970.0]]},"properties":{"ef_share":0.0,"ef_tj":0.0}},{"type":"Feature","geometry":{"type":"LineString","coordinates":[[-86.51431,40.68879,10970.0],[-86.65182,40.66006,10970.0]]},"properties":{"ef_share":0.0,"ef_tj":0.0}},{"type":"Feature","geometry":{"type":"LineString","coordinates":[[-86.65182,40.66006,10970.0],[-86.78876,40.63116,10980.0]]},"properties":{"ef_share":0.0,"ef_tj":0.0}},{"type":"Feature","geometry":{"type":"LineString","coordinates":[[-86.78876,40.63116,10980.0],[-86.92557,40.60226,10970.0]]},"properties":{"ef_share":0.0,"ef_tj":0.0}},{"type":"Feature","geometry":{"type":"LineString","coordinates":[[-86.92557,40.60226,10970.0],[-87.06221,40.57309,10980.0]]},"properties":{"ef_share":0.0,"ef_tj":0.0}},{"type":"Feature","geometry":{"type":"LineString","coordinates":[[-87.06221,40.57309,10980.0],[-87.19892,40.54378,10970.0]]},"properties":{"ef_share":0.0,"ef_tj":0.0}},{"type":"Feature","geometry":{"type":"LineString","coordinates":[[-87.19892,40.54378,10970.0],[-87.33587,40.51417,10980.0]]},"properties":{"ef_share":0.0,"ef_tj":0.0}},{"type":"Feature","geometry":{"type":"LineString","coordinates":[[-87.33587,40.51417,10980.0],[-87.47266,40.48447,10970.0]]},"properties":{"ef_share":0.0,"ef_tj":0.0}},{"type":"Feature","geometry":{"type":"LineString","coordinates":[[-87.47266,40.48447,10970.0],[-87.60966,40.45449,10970.0]]},"properties":{"ef_share":0.0,"ef_tj":0.0}},{"type":"Feature","geometry":{"type":"LineString","coordinates":[[-87.60966,40.45449,10970.0],[-87.7473,40.42425,10980.0]]},"properties":{"ef_share":0.0,"ef_tj":0.0}},{"type":"Feature","geometry":{"type":"LineString","coordinates":[[-87.7473,40.42425,10980.0],[-87.88521,40.3937,10980.0]]},"properties":{"ef_share":0.0,"ef_tj":0.0}},{"type":"Feature","geometry":{"type":"LineString","coordinates":[[-87.88521,40.3937,10980.0],[-88.02395,40.36285,10980.0]]},"properties":{"ef_share":0.0,"ef_tj":0.0}},{"type":"Feature","geometry":{"type":"LineString","coordinates":[[-88.02395,40.36285,10980.0],[-88.16301,40.33159,10980.0]]},"properties":{"ef_share":0.0,"ef_tj":0.0}},{"type":"Feature","geometry":{"type":"LineString","coordinates":[[-88.16301,40.33159,10980.0],[-88.30215,40.3002,10970.0]]},"properties":{"ef_share":0.0,"ef_tj":0.0}},{"type":"Feature","geometry":{"type":"LineString","coordinates":[[-88.30215,40.3002,10970.0],[-88.44151,40.26857,10980.0]]},"properties":{"ef_share":0.0,"ef_tj":0.0}},{"type":"Feature","geometry":{"type":"LineString","coordinates":[[-88.44151,40.26857,10980.0],[-88.58093,40.23668,10980.0]]},"properties":{"ef_share":0.0,"ef_tj":0.0}},{"type":"Feature","geometry":{"type":"LineString","coordinates":[[-88.58093,40.23668,10980.0],[-88.72077,40.20455,10970.0]]},"properties":{"ef_share":0.0,"ef_tj":0.0}},{"type":"Feature","geometry":{"type":"LineString","coordinates":[[-88.72077,40.20455,10970.0],[-88.86094,40.17217,10980.0]]},"properties":{"ef_share":0.0,"ef_tj":0.0}},{"type":"Feature","geometry":{"type":"LineString","coordinates":[[-88.86094,40.17217,10980.0],[-89.00123,40.13946,10980.0]]},"properties":{"ef_share":0.0,"ef_tj":0.0}},{"type":"Feature","geometry":{"type":"LineString","coordinates":[[-89.00123,40.13946,10980.0],[-89.14111,40.10665,10970.0]]},"properties":{"ef_share":0.0,"ef_tj":0.0}},{"type":"Feature","geometry":{"type":"LineString","coordinates":[[-89.14111,40.10665,10970.0],[-89.28038,40.07392,10980.0]]},"properties":{"ef_share":0.0,"ef_tj":0.0}},{"type":"Feature","geometry":{"type":"LineString","coordinates":[[-89.28038,40.07392,10980.0],[-89.41751,40.04151,10970.0]]},"properties":{"ef_share":0.0,"ef_tj":0.0}},{"type":"Feature","geometry":{"type":"LineString","coordinates":[[-89.41751,40.04151,10970.0],[-89.55298,40.00905,10970.0]]},"properties":{"ef_share":0.0,"ef_tj":0.0}},{"type":"Feature","geometry":{"type":"LineString","coordinates":[[-89.55298,40.00905,10970.0],[-89.68753,39.97675,10970.0]]},"properties":{"ef_share":0.0,"ef_tj":0.0}},{"type":"Feature","geometry":{"type":"LineString","coordinates":[[-89.68753,39.97675,10970.0],[-89.82215,39.94431,10980.0]]},"properties":{"ef_share":0.0,"ef_tj":0.0}},{"type":"Feature","geometry":{"type":"LineString","coordinates":[[-89.82215,39.94431,10980.0],[-89.95714,39.91147,10980.0]]},"properties":{"ef_share":0.0,"ef_tj":0.0}},{"type":"Feature","geometry":{"type":"LineString","coordinates":[[-89.95714,39.91147,10980.0],[-90.09219,39.87872,10980.0]]},"properties":{"ef_share":0.0,"ef_tj":0.0}},{"type":"Feature","geometry":{"type":"LineString","coordinates":[[-90.09219,39.87872,10980.0],[-90.22744,39.8455,10970.0]]},"properties":{"ef_share":0.0,"ef_tj":0.0}},{"type":"Feature","geometry":{"type":"LineString","coordinates":[[-90.22744,39.8455,10970.0],[-90.36184,39.81222,10970.0]]},"properties":{"ef_share":0.0,"ef_tj":0.0}},{"type":"Feature","geometry":{"type":"LineString","coordinates":[[-90.36184,39.81222,10970.0],[-90.49653,39.77875,10970.0]]},"properties":{"ef_share":0.0,"ef_tj":0.001088}},{"type":"Feature","geometry":{"type":"LineString","coordinates":[[-90.49653,39.77875,10970.0],[-90.62932,39.74572,10970.0]]},"properties":{"ef_share":0.001,"ef_tj":0.002414}},{"type":"Feature","geometry":{"type":"LineString","coordinates":[[-90.62932,39.74572,10970.0],[-90.761,39.71263,10970.0]]},"properties":{"ef_share":0.02,"ef_tj":0.042755}},{"type":"Feature","geometry":{"type":"LineString","coordinates":[[-90.761,39.71263,10970.0],[-90.89236,39.67947,10980.0]]},"properties":{"ef_share":0.03,"ef_tj":0.066141}},{"type":"Feature","geometry":{"type":"LineString","coordinates":[[-90.89236,39.67947,10980.0],[-91.02455,39.64594,10970.0]]},"properties":{"ef_share":0.082,"ef_tj":0.179069}},{"type":"Feature","geometry":{"type":"LineString","coordinates":[[-91.02455,39.64594,10970.0],[-91.15709,39.61209,10970.0]]},"properties":{"ef_share":0.167,"ef_tj":0.364551}},{"type":"Feature","geometry":{"type":"LineString","coordinates":[[-91.15709,39.61209,10970.0],[-91.2902,39.57794,10980.0]]},"properties":{"ef_share":0.237,"ef_tj":0.515772}},{"type":"Feature","geometry":{"type":"LineString","coordinates":[[-91.2902,39.57794,10980.0],[-91.42404,39.54346,10980.0]]},"properties":{"ef_share":0.329,"ef_tj":0.717022}},{"type":"Feature","geometry":{"type":"LineString","coordinates":[[-91.42404,39.54346,10980.0],[-91.5583,39.50858,10980.0]]},"properties":{"ef_share":0.403,"ef_tj":0.877721}},{"type":"Feature","geometry":{"type":"LineString","coordinates":[[-91.5583,39.50858,10980.0],[-91.69255,39.47361,10970.0]]},"properties":{"ef_share":0.385,"ef_tj":0.838793}},{"type":"Feature","geometry":{"type":"LineString","coordinates":[[-91.69255,39.47361,10970.0],[-91.82649,39.43853,10980.0]]},"properties":{"ef_share":0.522,"ef_tj":1.137794}},{"type":"Feature","geometry":{"type":"LineString","coordinates":[[-91.82649,39.43853,10980.0],[-91.9594,39.40344,10980.0]]},"properties":{"ef_share":0.48,"ef_tj":1.046825}},{"type":"Feature","geometry":{"type":"LineString","coordinates":[[-91.9594,39.40344,10980.0],[-92.0907,39.36868,10970.0]]},"properties":{"ef_share":0.43,"ef_tj":0.936609}},{"type":"Feature","geometry":{"type":"LineString","coordinates":[[-92.0907,39.36868,10970.0],[-92.21981,39.33423,10970.0]]},"properties":{"ef_share":0.359,"ef_tj":0.781923}},{"type":"Feature","geometry":{"type":"LineString","coordinates":[[-92.21981,39.33423,10970.0],[-92.34748,39.30008,10970.0]]},"properties":{"ef_share":0.351,"ef_tj":0.76401}},{"type":"Feature","geometry":{"type":"LineString","coordinates":[[-92.34748,39.30008,10970.0],[-92.47556,39.26565,10980.0]]},"properties":{"ef_share":0.317,"ef_tj":0.691039}},{"type":"Feature","geometry":{"type":"LineString","coordinates":[[-92.47556,39.26565,10980.0],[-92.60397,39.23089,10980.0]]},"properties":{"ef_share":0.255,"ef_tj":0.554744}},{"type":"Feature","geometry":{"type":"LineString","coordinates":[[-92.60397,39.23089,10980.0],[-92.73271,39.19585,10980.0]]},"properties":{"ef_share":0.228,"ef_tj":0.496027}},{"type":"Feature","geometry":{"type":"LineString","coordinates":[[-92.73271,39.19585,10980.0],[-92.86153,39.16067,10980.0]]},"properties":{"ef_share":0.231,"ef_tj":0.504482}},{"type":"Feature","geometry":{"type":"LineString","coordinates":[[-92.86153,39.16067,10980.0],[-92.99058,39.12525,10980.0]]},"properties":{"ef_share":0.237,"ef_tj":0.51713}},{"type":"Feature","geometry":{"type":"LineString","coordinates":[[-92.99058,39.12525,10980.0],[-93.11924,39.08967,10970.0]]},"properties":{"ef_share":0.243,"ef_tj":0.528546}},{"type":"Feature","geometry":{"type":"LineString","coordinates":[[-93.11924,39.08967,10970.0],[-93.24771,39.05407,10980.0]]},"properties":{"ef_share":0.257,"ef_tj":0.559281}},{"type":"Feature","geometry":{"type":"LineString","coordinates":[[-93.24771,39.05407,10980.0],[-93.37532,39.01851,10970.0]]},"properties":{"ef_share":0.271,"ef_tj":0.591275}},{"type":"Feature","geometry":{"type":"LineString","coordinates":[[-93.37532,39.01851,10970.0],[-93.50352,38.98256,10970.0]]},"properties":{"ef_share":0.336,"ef_tj":0.731692}},{"type":"Feature","geometry":{"type":"LineString","coordinates":[[-93.50352,38.98256,10970.0],[-93.63146,38.94654,10970.0]]},"properties":{"ef_share":0.34,"ef_tj":0.739881}},{"type":"Feature","geometry":{"type":"LineString","coordinates":[[-93.63146,38.94654,10970.0],[-93.75951,38.91038,10970.0]]},"properties":{"ef_share":0.352,"ef_tj":0.767102}},{"type":"Feature","geometry":{"type":"LineString","coordinates":[[-93.75951,38.91038,10970.0],[-93.8876,38.87392,10970.0]]},"properties":{"ef_share":0.369,"ef_tj":0.805225}},{"type":"Feature","geometry":{"type":"LineString","coordinates":[[-93.8876,38.87392,10970.0],[-94.01609,38.83723,10970.0]]},"properties":{"ef_share":0.38,"ef_tj":0.828267}},{"type":"Feature","geometry":{"type":"LineString","coordinates":[[-94.01609,38.83723,10970.0],[-94.14528,38.80015,10980.0]]},"properties":{"ef_share":0.027,"ef_tj":0.058179}},{"type":"Feature","geometry":{"type":"LineString","coordinates":[[-94.14528,38.80015,10980.0],[-94.27513,38.76266,10980.0]]},"properties":{"ef_share":0.032,"ef_tj":0.06875}},{"type":"Feature","geometry":{"type":"LineString","coordinates":[[-94.27513,38.76266,10980.0],[-94.40626,38.72461,10980.0]]},"properties":{"ef_share":0.51,"ef_tj":1.112217}},{"type":"Feature","geometry":{"type":"LineString","coordinates":[[-94.40626,38.72461,10980.0],[-94.53771,38.68639,10980.0]]},"properties":{"ef_share":0.618,"ef_tj":1.346904}},{"type":"Feature","geometry":{"type":"LineString","coordinates":[[-94.53771,38.68639,10980.0],[-94.66845,38.6481,10980.0]]},"properties":{"ef_share":0.671,"ef_tj":1.462417}},{"type":"Feature","geometry":{"type":"LineString","coordinates":[[-94.66845,38.6481,10980.0],[-94.79557,38.61069,10970.0]]},"properties":{"ef_share":0.73,"ef_tj":1.590031}},{"type":"Feature","geometry":{"type":"LineString","coordinates":[[-94.79557,38.61069,10970.0],[-94.91973,38.57391,10970.0]]},"properties":{"ef_share":0.829,"ef_tj":1.805993}},{"type":"Feature","geometry":{"type":"LineString","coordinates":[[-94.91973,38.57391,10970.0],[-95.04226,38.53767,10970.0]]},"properties":{"ef_share":0.901,"ef_tj":1.964449}},{"type":"Feature","geometry":{"type":"LineString","coordinates":[[-95.04226,38.53767,10970.0],[-95.16423,38.50113,10970.0]]},"properties":{"ef_share":1.0,"ef_tj":2.17923}},{"type":"Feature","geometry":{"type":"LineString","coordinates":[[-95.16423,38.50113,10970.0],[-95.28651,38.46459,10980.0]]},"properties":{"ef_share":0.0,"ef_tj":0.0}}]}