{"type":"FeatureCollection","properties":{"icao24":"a40b24","registration":"N36NE","owner_label":"New England Patriots","combined_co2e_central":13173.0,"fuel_co2_kg":13173.0,"contrail_co2e_central":0.0,"tier":"medium"},"features":[{"type":"Feature","geometry":{"type":"LineString","coordinates":[[-105.21678,35.65418,10980.0],[-105.35114,35.65013,10970.0]]},"properties":{"ef_share":0.0,"ef_tj":0.0}},{"type":"Feature","geometry":{"type":"LineString","coordinates":[[-105.35114,35.65013,10970.0],[-105.48545,35.64561,10990.0]]},"properties":{"ef_share":0.0,"ef_tj":0.0}},{"type":"Feature","geometry":{"type":"LineString","coordinates":[[-105.48545,35.64561,10990.0],[-105.61981,35.64073,10980.0]]},"properties":{"ef_share":0.0,"ef_tj":0.0}},{"type":"Feature","geometry":{"type":"LineString","coordinates":[[-105.61981,35.64073,10980.0],[-105.75201,35.63569,10970.0]]},"properties":{"ef_share":0.0,"ef_tj":0.0}},{"type":"Feature","geometry":{"type":"LineString","coordinates":[[-105.75201,35.63569,10970.0],[-105.88312,35.6307,10970.0]]},"properties":{"ef_share":0.0,"ef_tj":0.0}},{"type":"Feature","geometry":{"type":"LineString","coordinates":[[-105.88312,35.6307,10970.0],[-106.01112,35.62542,10970.0]]},"properties":{"ef_share":0.0,"ef_tj":0.0}},{"type":"Feature","geometry":{"type":"LineString","coordinates":[[-106.01112,35.62542,10970.0],[-106.13844,35.62011,10970.0]]},"properties":{"ef_share":0.0,"ef_tj":0.0}},{"type":"Feature","geometry":{"type":"LineString","coordinates":[[-106.13844,35.62011,10970.0],[-106.26687,35.61491,10980.0]]},"properties":{"ef_share":0.0,"ef_tj":0.0}},{"type":"Feature","geometry":{"type":"LineString","coordinates":[[-106.26687,35.61491,10980.0],[-106.3972,35.60928,10970.0]]},"properties":{"ef_share":0.0,"ef_tj":0.0}},{"type":"Feature","geometry":{"type":"LineString","coordinates":[[-106.3972,35.60928,10970.0],[-106.53063,35.60352,10990.0]]},"properties":{"ef_share":0.0,"ef_tj":0.0}},{"type":"Feature","geometry":{"type":"LineString","coordinates":[[-106.53063,35.60352,10990.0],[-106.66718,35.59727,10970.0]]},"properties":{"ef_share":0.0,"ef_tj":0.0}},{"type":"Feature","geometry":{"type":"LineString","coordinates":[[-106.66718,35.59727,10970.0],[-106.80142,35.59096,10990.0]]},"properties":{"ef_share":0.0,"ef_tj":0.0}},{"type":"Feature","geometry":{"type":"LineString","coordinates":[[-106.80142,35.59096,10990.0],[-106.93728,35.58454,10980.0]]},"properties":{"ef_share":0.0,"ef_tj":0.0}},{"type":"Feature","geometry":{"type":"LineString","coordinates":[[-106.93728,35.58454,10980.0],[-107.07032,35.57808,10970.0]]},"properties":{"ef_share":0.0,"ef_tj":0.0}},{"type":"Feature","geometry":{"type":"LineString","coordinates":[[-107.07032,35.57808,10970.0],[-107.20181,35.57156,10970.0]]},"properties":{"ef_share":0.0,"ef_tj":0.0}},{"type":"Feature","geometry":{"type":"LineString","coordinates":[[-107.20181,35.57156,10970.0],[-107.33479,35.56481,10980.0]]},"properties":{"ef_share":0.0,"ef_tj":0.0}},{"type":"Feature","geometry":{"type":"LineString","coordinates":[[-107.33479,35.56481,10980.0],[-107.46819,35.55791,10980.0]]},"properties":{"ef_share":0.0,"ef_tj":0.0}},{"type":"Feature","geometry":{"type":"LineString","coordinates":[[-107.46819,35.55791,10980.0],[-107.60123,35.55067,10980.0]]},"properties":{"ef_share":0.0,"ef_tj":0.0}},{"type":"Feature","geometry":{"type":"LineString","coordinates":[[-107.60123,35.55067,10980.0],[-107.73111,35.52182,10980.0]]},"properties":{"ef_share":0.0,"ef_tj":0.0}},{"type":"Feature","geometry":{"type":"LineString","coordinates":[[-107.73111,35.52182,10980.0],[-107.85748,35.4758,10970.0]]},"properties":{"ef_share":0.0,"ef_tj":0.0}},{"type":"Feature","geometry":{"type":"LineString","coordinates":[[-107.85748,35.4758,10970.0],[-107.98407,35.42855,10890.0]]},"properties":{"ef_share":0.0,"ef_tj":0.0}},{"type":"Feature","geometry":{"type":"LineString","coordinates":[[-107.98407,35.42855,10890.0],[-108.11141,35.38082,10340.0]]},"properties":{"ef_share":0.0,"ef_tj":0.0}},{"type":"Feature","geometry":{"type":"LineString","coordinates":[[-108.11141,35.38082,10340.0],[-108.24843,35.32962,9760.0]]},"properties":{"ef_share":0.0,"ef_tj":0.0}},{"type":"Feature","geometry":{"type":"LineString","coordinates":[[-108.24843,35.32962,9760.0],[-108.3854,35.2776,9740.0]]},"properties":{"ef_share":0.0,"ef_tj":0.0}},{"type":"Feature","geometry":{"type":"LineString","coordinates":[[-108.3854,35.2776,9740.0],[-108.52262,35.22543,9750.0]]},"properties":{"ef_share":0.0,"ef_tj":0.0}},{"type":"Feature","geometry":{"type":"LineString","coordinates":[[-108.52262,35.22543,9750.0],[-108.65717,35.17415,9750.0]]},"properties":{"ef_share":0.0,"ef_tj":0.0}},{"type":"Feature","geometry":{"type":"LineString","coordinates":[[-108.65717,35.17415,9750.0],[-108.7906,35.12318,9750.0]]},"properties":{"ef_share":0.0,"ef_tj":0.0}},{"type":"Feature","geometry":{"type":"LineString","coordinates":[[-108.7906,35.12318,9750.0],[-108.92381,35.07208,9760.0]]},"properties":{"ef_share":0.0,"ef_tj":0.0}},{"type":"Feature","geometry":{"type":"LineString","coordinates":[[-108.92381,35.07208,9760.0],[-109.05686,35.02078,9760.0]]},"properties":{"ef_share":0.0,"ef_tj":0.0}},{"type":"Feature","geometry":{"type":"LineString","coordinates":[[-109.05686,35.02078,9760.0],[-109.19131,34.96867,9750.0]]},"properties":{"ef_share":0.0,"ef_tj":0.0}},{"type":"Feature","geometry":{"type":"LineString","coordinates":[[-109.19131,34.96867,9750.0],[-109.32647,34.91616,9750.0]]},"properties":{"ef_share":0.0,"ef_tj":0.0}},{"type":"Feature","geometry":{"type":"LineString","coordinates":[[-109.32647,34.91616,9750.0],[-109.46195,34.86325,9760.0]]},"properties":{"ef_share":0.0,"ef_tj":0.0}},{"type":"Feature","geometry":{"type":"LineString","coordinates":[[-109.46195,34.86325,9760.0],[-109.59754,34.81005,9760.0]]},"properties":{"ef_share":0.0,"ef_tj":0.0}},{"type":"Feature","geometry":{"type":"LineString","coordinates":[[-109.59754,34.81005,9760.0],[-109.73359,34.75647,9760.0]]},"properties":{"ef_share":0.0,"ef_tj":0.0}},{"type":"Feature","geometry":{"type":"LineString","coordinates":[[-109.73359,34.75647,9760.0],[-109.86741,34.70023,9760.0]]},"properties":{"ef_share":0.0,"ef_tj":0.0}},{"type":"Feature","geometry":{"type":"LineString","coordinates":[[-109.86741,34.70023,9760.0],[-109.99685,34.63454,9750.0]]},"properties":{"ef_share":0.0,"ef_tj":0.0}},{"type":"Feature","geometry":{"type":"LineString","coordinates":[[-109.99685,34.63454,9750.0],[-110.12498,34.56623,9750.0]]},"properties":{"ef_share":0.0,"ef_tj":0.0}},{"type":"Feature","geometry":{"type":"LineString","coordinates":[[-110.12498,34.56623,9750.0],[-110.25298,34.49805,9750.0]]},"properties":{"ef_share":0.0,"ef_tj":0.0}},{"type":"Feature","geometry":{"type":"LineString","coordinates":[[-110.25298,34.49805,9750.0],[-110.38077,34.43032,9730.0]]},"properties":{"ef_share":0.0,"ef_tj":0.0}},{"type":"Feature","geometry":{"type":"LineString","coordinates":[[-110.38077,34.43032,9730.0],[-110.50423,34.36479,9140.0]]},"properties":{"ef_share":0.0,"ef_tj":0.0}},{"type":"Feature","geometry":{"type":"LineString","coordinates":[[-110.50423,34.36479,9140.0],[-110.62292,34.30177,8470.0]]},"properties":{"ef_share":0.0,"ef_tj":0.0}},{"type":"Feature","geometry":{"type":"LineString","coordinates":[[-110.62292,34.30177,8470.0],[-110.73736,34.24064,7810.0]]},"properties":{"ef_share":0.0,"ef_tj":0.0}},{"type":"Feature","geometry":{"type":"LineString","coordinates":[[-110.73736,34.24064,7810.0],[-110.84783,34.18136,7150.0]]},"properties":{"ef_share":0.0,"ef_tj":0.0}},{"type":"Feature","geometry":{"type":"LineString","coordinates":[[-110.84783,34.18136,7150.0],[-110.95415,34.12447,6520.0]]},"properties":{"ef_share":0.0,"ef_tj":0.0}},{"type":"Feature","geometry":{"type":"LineString","coordinates":[[-110.95415,34.12447,6520.0],[-111.05689,34.06894,5890.0]]},"properties":{"ef_share":0.0,"ef_tj":0.0}},{"type":"Feature","geometry":{"type":"LineString","coordinates":[[-111.05689,34.06894,5890.0],[-111.1577,34.01449,5200.0]]},"properties":{"ef_share":0.0,"ef_tj":0.0}},{"type":"Feature","geometry":{"type":"LineString","coordinates":[[-111.1577,34.01449,5200.0],[-111.25599,33.9611,4560.0]]},"properties":{"ef_share":0.0,"ef_tj":0.0}},{"type":"Feature","geometry":{"type":"LineString","coordinates":[[-111.25599,33.9611,4560.0],[-111.34689,33.91178,4050.0]]},"properties":{"ef_share":0.0,"ef_tj":0.0}},{"type":"Feature","geometry":{"type":"LineString","coordinates":[[-111.34689,33.91178,4050.0],[-111.42116,33.86047,3810.0]]},"properties":{"ef_share":0.0,"ef_tj":0.0}},{"type":"Feature","geometry":{"type":"LineString","coordinates":[[-111.42116,33.86047,3810.0],[-111.47175,33.80248,3450.0]]},"properties":{"ef_share":0.0,"ef_tj":0.0}},{"type":"Feature","geometry":{"type":"LineString","coordinates":[[-111.47175,33.80248,3450.0],[-111.5204,33.74543,3060.0]]},"properties":{"ef_share":0.0,"ef_tj":0.0}},{"type":"Feature","geometry":{"type":"LineString","coordinates":[[-111.5204,33.74543,3060.0],[-111.56722,33.69089,2810.0]]},"properties":{"ef_share":0.0,"ef_tj":0.0}},{"type":"Feature","geometry":{"type":"LineString","coordinates":[[-111.56722,33.69089,2810.0],[-111.61242,33.63808,2410.0]]},"properties":{"ef_share":0.0,"ef_tj":0.0}},{"type":"Feature","geometry":{"type":"LineString","coordinates":[[-111.61242,33.63808,2410.0],[-111.65688,33.58509,2030.0]]},"properties":{"ef_share":0.0,"ef_tj":0.0}},{"type":"Feature","geometry":{"type":"LineString","coordinates":[[-111.65688,33.58509,2030.0],[-111.70077,33.53249,1680.0]]},"properties":{"ef_share":0.0,"ef_tj":0.0}},{"type":"Feature","geometry":{"type":"LineString","coordinates":[[-111.70077,33.53249,1680.0],[-111.74418,33.48221,1460.0]]},"properties":{"ef_share":0.0,"ef_tj":0.0}},{"type":"Feature","geometry":{"type":"LineString","coordinates":[[-111.74418,33.48221,1460.0],[-111.80523,33.45128,1350.0]]},"properties":{"ef_share":0.0,"ef_tj":0.0}},{"type":"Feature","geometry":{"type":"LineString","coordinates":[[-111.80523,33.45128,1350.0],[-111.86366,33.44073,930.0]]},"properties":{"ef_share":0.0,"ef_tj":0.0}},{"type":"Feature","geometry":{"type":"LineString","coordinates":[[-111.86366,33.44073,930.0],[-111.91481,33.44071,680.0]]},"properties":{"ef_share":0.0,"ef_tj":0.0}},{"type":"Feature","geometry":{"type":"LineString","coordinates":[[-111.91481,33.44071,680.0],[-111.96378,33.44071,450.0]]},"properties":{"ef_share":0.0,"ef_tj":0.0}}]}