{"type":"FeatureCollection","properties":{"icao24":"a40b24","registration":"N36NE","owner_label":"New England Patriots","combined_co2e_central":47470.6,"fuel_co2_kg":60256.3,"contrail_co2e_central":-12785.7,"tier":"high"},"features":[{"type":"Feature","geometry":{"type":"LineString","coordinates":[[-71.44295,41.70358,310.0],[-71.497,41.68363,1020.0]]},"properties":{"ef_share":0.0,"ef_tj":0.0}},{"type":"Feature","geometry":{"type":"LineString","coordinates":[[-71.497,41.68363,1020.0],[-71.58009,41.68263,2000.0]]},"properties":{"ef_share":0.0,"ef_tj":0.0}},{"type":"Feature","geometry":{"type":"LineString","coordinates":[[-71.58009,41.68263,2000.0],[-71.6554,41.72697,2850.0]]},"properties":{"ef_share":0.0,"ef_tj":0.0}},{"type":"Feature","geometry":{"type":"LineString","coordinates":[[-71.6554,41.72697,2850.0],[-71.70848,41.79562,2930.0]]},"properties":{"ef_share":0.0,"ef_tj":0.0}},{"type":"Feature","geometry":{"type":"LineString","coordinates":[[-71.70848,41.79562,2930.0],[-71.78167,41.8655,3670.0]]},"properties":{"ef_share":0.0,"ef_tj":0.0}},{"type":"Feature","geometry":{"type":"LineString","coordinates":[[-71.78167,41.8655,3670.0],[-71.90627,41.90717,4980.0]]},"properties":{"ef_share":0.0,"ef_tj":0.0}},{"type":"Feature","geometry":{"type":"LineString","coordinates":[[-71.90627,41.90717,4980.0],[-72.03981,41.94899,6220.0]]},"properties":{"ef_share":0.0,"ef_tj":0.0}},{"type":"Feature","geometry":{"type":"LineString","coordinates":[[-72.03981,41.94899,6220.0],[-72.17877,41.99305,7180.0]]},"properties":{"ef_share":0.0,"ef_tj":0.0}},{"type":"Feature","geometry":{"type":"LineString","coordinates":[[-72.17877,41.99305,7180.0],[-72.32606,42.03222,8160.0]]},"properties":{"ef_share":0.0,"ef_tj":0.0}},{"type":"Feature","geometry":{"type":"LineString","coordinates":[[-72.32606,42.03222,8160.0],[-72.47751,41.99907,8940.0]]},"properties":{"ef_share":0.0,"ef_tj":0.0}},{"type":"Feature","geometry":{"type":"LineString","coordinates":[[-72.47751,41.99907,8940.0],[-72.62362,41.94059,9720.0]]},"properties":{"ef_share":0.0,"ef_tj":0.0}},{"type":"Feature","geometry":{"type":"LineString","coordinates":[[-72.62362,41.94059,9720.0],[-72.76846,41.88182,10540.0]]},"properties":{"ef_share":0.0,"ef_tj":0.0}},{"type":"Feature","geometry":{"type":"LineString","coordinates":[[-72.76846,41.88182,10540.0],[-72.91095,41.82408,11250.0]]},"properties":{"ef_share":-0.52,"ef_tj":-5.983801}},{"type":"Feature","geometry":{"type":"LineString","coordinates":[[-72.91095,41.82408,11250.0],[-73.05147,41.76686,11570.0]]},"properties":{"ef_share":-0.59,"ef_tj":-6.78919}},{"type":"Feature","geometry":{"type":"LineString","coordinates":[[-73.05147,41.76686,11570.0],[-73.18865,41.71083,11580.0]]},"properties":{"ef_share":-0.415,"ef_tj":-4.772192}},{"type":"Feature","geometry":{"type":"LineString","coordinates":[[-73.18865,41.71083,11580.0],[-73.32044,41.65141,11580.0]]},"properties":{"ef_share":-0.55,"ef_tj":-6.335936}},{"type":"Feature","geometry":{"type":"LineString","coordinates":[[-73.32044,41.65141,11580.0],[-73.44535,41.58348,11580.0]]},"properties":{"ef_share":-0.57,"ef_tj":-6.567397}},{"type":"Feature","geometry":{"type":"LineString","coordinates":[[-73.44535,41.58348,11580.0],[-73.56885,41.51333,11580.0]]},"properties":{"ef_share":-0.565,"ef_tj":-6.505663}},{"type":"Feature","geometry":{"type":"LineString","coordinates":[[-73.56885,41.51333,11580.0],[-73.69308,41.44318,11590.0]]},"properties":{"ef_share":-0.566,"ef_tj":-6.517613}},{"type":"Feature","geometry":{"type":"LineString","coordinates":[[-73.69308,41.44318,11590.0],[-73.81786,41.37304,11580.0]]},"properties":{"ef_share":-0.611,"ef_tj":-7.034553}},{"type":"Feature","geometry":{"type":"LineString","coordinates":[[-73.81786,41.37304,11580.0],[-73.94226,41.30299,11580.0]]},"properties":{"ef_share":-0.598,"ef_tj":-6.881485}},{"type":"Feature","geometry":{"type":"LineString","coordinates":[[-73.94226,41.30299,11580.0],[-74.06616,41.23277,11580.0]]},"properties":{"ef_share":-0.593,"ef_tj":-6.83133}},{"type":"Feature","geometry":{"type":"LineString","coordinates":[[-74.06616,41.23277,11580.0],[-74.18952,41.16254,11580.0]]},"properties":{"ef_share":-0.571,"ef_tj":-6.572262}},{"type":"Feature","geometry":{"type":"LineString","coordinates":[[-74.18952,41.16254,11580.0],[-74.31275,41.09211,11590.0]]},"properties":{"ef_share":-0.492,"ef_tj":-5.667134}},{"type":"Feature","geometry":{"type":"LineString","coordinates":[[-74.31275,41.09211,11590.0],[-74.43538,41.02186,11580.0]]},"properties":{"ef_share":-0.41,"ef_tj":-4.718716}},{"type":"Feature","geometry":{"type":"LineString","coordinates":[[-74.43538,41.02186,11580.0],[-74.55754,40.95147,11580.0]]},"properties":{"ef_share":-0.23,"ef_tj":-2.65301}},{"type":"Feature","geometry":{"type":"LineString","coordinates":[[-74.55754,40.95147,11580.0],[-74.67942,40.88105,11580.0]]},"properties":{"ef_share":-0.038,"ef_tj":-0.434525}},{"type":"Feature","geometry":{"type":"LineString","coordinates":[[-74.67942,40.88105,11580.0],[-74.80132,40.81073,11580.0]]},"properties":{"ef_share":0.18,"ef_tj":2.074556}},{"type":"Feature","geometry":{"type":"LineString","coordinates":[[-74.80132,40.81073,11580.0],[-74.93061,40.74895,11580.0]]},"properties":{"ef_share":0.572,"ef_tj":6.58127}},{"type":"Feature","geometry":{"type":"LineString","coordinates":[[-74.93061,40.74895,11580.0],[-75.06226,40.68954,11580.0]]},"properties":{"ef_share":0.698,"ef_tj":8.037771}},{"type":"Feature","geometry":{"type":"LineString","coordinates":[[-75.06226,40.68954,11580.0],[-75.1943,40.62968,11590.0]]},"properties":{"ef_share":0.96,"ef_tj":11.047802}},{"type":"Feature","geometry":{"type":"LineString","coordinates":[[-75.1943,40.62968,11590.0],[-75.32665,40.56905,11590.0]]},"properties":{"ef_share":1.0,"ef_tj":11.513026}},{"type":"Feature","geometry":{"type":"LineString","coordinates":[[-75.32665,40.56905,11590.0],[-75.45893,40.50826,11590.0]]},"properties":{"ef_share":0.893,"ef_tj":10.284897}},{"type":"Feature","geometry":{"type":"LineString","coordinates":[[-75.45893,40.50826,11590.0],[-75.59438,40.45177,11590.0]]},"properties":{"ef_share":0.622,"ef_tj":7.161637}},{"type":"Feature","geometry":{"type":"LineString","coordinates":[[-75.59438,40.45177,11590.0],[-75.73621,40.40673,11580.0]]},"properties":{"ef_share":0.442,"ef_tj":5.088906}},{"type":"Feature","geometry":{"type":"LineString","coordinates":[[-75.73621,40.40673,11580.0],[-75.87791,40.36328,11580.0]]},"properties":{"ef_share":0.299,"ef_tj":3.439662}},{"type":"Feature","geometry":{"type":"LineString","coordinates":[[-75.87791,40.36328,11580.0],[-76.01974,40.31961,11580.0]]},"properties":{"ef_share":0.204,"ef_tj":2.345218}},{"type":"Feature","geometry":{"type":"LineString","coordinates":[[-76.01974,40.31961,11580.0],[-76.16174,40.27571,11590.0]]},"properties":{"ef_share":-0.004,"ef_tj":-0.051236}},{"type":"Feature","geometry":{"type":"LineString","coordinates":[[-76.16174,40.27571,11590.0],[-76.30399,40.23146,11590.0]]},"properties":{"ef_share":0.0,"ef_tj":-0.002927}},{"type":"Feature","geometry":{"type":"LineString","coordinates":[[-76.30399,40.23146,11590.0],[-76.44624,40.18701,11580.0]]},"properties":{"ef_share":0.0,"ef_tj":-0.001849}},{"type":"Feature","geometry":{"type":"LineString","coordinates":[[-76.44624,40.18701,11580.0],[-76.58819,40.14233,11590.0]]},"properties":{"ef_share":0.0,"ef_tj":0.0}},{"type":"Feature","geometry":{"type":"LineString","coordinates":[[-76.58819,40.14233,11590.0],[-76.73055,40.09727,11590.0]]},"properties":{"ef_share":0.0,"ef_tj":0.0}},{"type":"Feature","geometry":{"type":"LineString","coordinates":[[-76.73055,40.09727,11590.0],[-76.87286,40.05224,11590.0]]},"properties":{"ef_share":0.0,"ef_tj":0.0}},{"type":"Feature","geometry":{"type":"LineString","coordinates":[[-76.87286,40.05224,11590.0],[-77.01492,40.00681,11590.0]]},"properties":{"ef_share":0.0,"ef_tj":0.0}},{"type":"Feature","geometry":{"type":"LineString","coordinates":[[-77.01492,40.00681,11590.0],[-77.15661,39.96123,11580.0]]},"properties":{"ef_share":0.0,"ef_tj":0.0}},{"type":"Feature","geometry":{"type":"LineString","coordinates":[[-77.15661,39.96123,11580.0],[-77.29825,39.91558,11590.0]]},"properties":{"ef_share":0.0,"ef_tj":0.0}},{"type":"Feature","geometry":{"type":"LineString","coordinates":[[-77.29825,39.91558,11590.0],[-77.43899,39.86999,11580.0]]},"properties":{"ef_share":0.0,"ef_tj":0.0}},{"type":"Feature","geometry":{"type":"LineString","coordinates":[[-77.43899,39.86999,11580.0],[-77.57888,39.82436,11580.0]]},"properties":{"ef_share":0.0,"ef_tj":0.0}},{"type":"Feature","geometry":{"type":"LineString","coordinates":[[-77.57888,39.82436,11580.0],[-77.71787,39.7788,11580.0]]},"properties":{"ef_share":0.0,"ef_tj":0.0}},{"type":"Feature","geometry":{"type":"LineString","coordinates":[[-77.71787,39.7788,11580.0],[-77.85631,39.73325,11580.0]]},"properties":{"ef_share":-0.021,"ef_tj":-0.241931}},{"type":"Feature","geometry":{"type":"LineString","coordinates":[[-77.85631,39.73325,11580.0],[-77.995,39.68733,11590.0]]},"properties":{"ef_share":-0.205,"ef_tj":-2.355723}},{"type":"Feature","geometry":{"type":"LineString","coordinates":[[-77.995,39.68733,11590.0],[-78.13373,39.64124,11580.0]]},"properties":{"ef_share":-0.36,"ef_tj":-4.143434}},{"type":"Feature","geometry":{"type":"LineString","coordinates":[[-78.13373,39.64124,11580.0],[-78.2724,39.5949,11590.0]]},"properties":{"ef_share":-0.539,"ef_tj":-6.202655}},{"type":"Feature","geometry":{"type":"LineString","coordinates":[[-78.2724,39.5949,11590.0],[-78.41104,39.54833,11580.0]]},"properties":{"ef_share":-0.487,"ef_tj":-5.611061}},{"type":"Feature","geometry":{"type":"LineString","coordinates":[[-78.41104,39.54833,11580.0],[-78.54942,39.50164,11580.0]]},"properties":{"ef_share":-0.355,"ef_tj":-4.090467}},{"type":"Feature","geometry":{"type":"LineString","coordinates":[[-78.54942,39.50164,11580.0],[-78.68741,39.45488,11580.0]]},"properties":{"ef_share":-0.177,"ef_tj":-2.04355}},{"type":"Feature","geometry":{"type":"LineString","coordinates":[[-78.68741,39.45488,11580.0],[-78.82588,39.4075,11580.0]]},"properties":{"ef_share":-0.105,"ef_tj":-1.205517}},{"type":"Feature","geometry":{"type":"LineString","coordinates":[[-78.82588,39.4075,11580.0],[-78.96431,39.36041,11690.0]]},"properties":{"ef_share":-0.199,"ef_tj":-2.295725}},{"type":"Feature","geometry":{"type":"LineString","coordinates":[[-78.96431,39.36041,11690.0],[-79.10048,39.31351,12180.0]]},"properties":{"ef_share":0.0,"ef_tj":0.0}},{"type":"Feature","geometry":{"type":"LineString","coordinates":[[-79.10048,39.31351,12180.0],[-79.23438,39.2672,12190.0]]},"properties":{"ef_share":0.0,"ef_tj":0.0}},{"type":"Feature","geometry":{"type":"LineString","coordinates":[[-79.23438,39.2672,12190.0],[-79.36561,39.22157,12190.0]]},"properties":{"ef_share":0.0,"ef_tj":0.0}},{"type":"Feature","geometry":{"type":"LineString","coordinates":[[-79.36561,39.22157,12190.0],[-79.49655,39.17591,12190.0]]},"properties":{"ef_share":0.0,"ef_tj":0.0}},{"type":"Feature","geometry":{"type":"LineString","coordinates":[[-79.49655,39.17591,12190.0],[-79.62715,39.13016,12200.0]]},"properties":{"ef_share":0.0,"ef_tj":0.0}},{"type":"Feature","geometry":{"type":"LineString","coordinates":[[-79.62715,39.13016,12200.0],[-79.75768,39.08415,12190.0]]},"properties":{"ef_share":0.0,"ef_tj":0.0}},{"type":"Feature","geometry":{"type":"LineString","coordinates":[[-79.75768,39.08415,12190.0],[-79.88816,39.03809,12190.0]]},"properties":{"ef_share":0.0,"ef_tj":0.0}},{"type":"Feature","geometry":{"type":"LineString","coordinates":[[-79.88816,39.03809,12190.0],[-80.01889,38.99161,12200.0]]},"properties":{"ef_share":0.0,"ef_tj":0.0}},{"type":"Feature","geometry":{"type":"LineString","coordinates":[[-80.01889,38.99161,12200.0],[-80.15018,38.94449,12200.0]]},"properties":{"ef_share":0.0,"ef_tj":0.0}},{"type":"Feature","geometry":{"type":"LineString","coordinates":[[-80.15018,38.94449,12200.0],[-80.2823,38.89742,12200.0]]},"properties":{"ef_share":0.0,"ef_tj":0.0}},{"type":"Feature","geometry":{"type":"LineString","coordinates":[[-80.2823,38.89742,12200.0],[-80.41497,38.84971,12200.0]]},"properties":{"ef_share":0.0,"ef_tj":0.0}},{"type":"Feature","geometry":{"type":"LineString","coordinates":[[-80.41497,38.84971,12200.0],[-80.54778,38.80152,12190.0]]},"properties":{"ef_share":0.0,"ef_tj":0.0}},{"type":"Feature","geometry":{"type":"LineString","coordinates":[[-80.54778,38.80152,12190.0],[-80.68086,38.75329,12190.0]]},"properties":{"ef_share":0.0,"ef_tj":0.0}},{"type":"Feature","geometry":{"type":"LineString","coordinates":[[-80.68086,38.75329,12190.0],[-80.81405,38.7051,12190.0]]},"properties":{"ef_share":0.0,"ef_tj":0.0}},{"type":"Feature","geometry":{"type":"LineString","coordinates":[[-80.81405,38.7051,12190.0],[-80.94776,38.65597,12190.0]]},"properties":{"ef_share":0.0,"ef_tj":0.0}},{"type":"Feature","geometry":{"type":"LineString","coordinates":[[-80.94776,38.65597,12190.0],[-81.08057,38.60698,12200.0]]},"properties":{"ef_share":0.0,"ef_tj":0.0}},{"type":"Feature","geometry":{"type":"LineString","coordinates":[[-81.08057,38.60698,12200.0],[-81.21109,38.55818,12180.0]]},"properties":{"ef_share":0.0,"ef_tj":0.0}},{"type":"Feature","geometry":{"type":"LineString","coordinates":[[-81.21109,38.55818,12180.0],[-81.33004,38.51416,12190.0]]},"properties":{"ef_share":0.0,"ef_tj":0.0}},{"type":"Feature","geometry":{"type":"LineString","coordinates":[[-81.33004,38.51416,12190.0],[-81.44503,38.47204,12200.0]]},"properties":{"ef_share":0.0,"ef_tj":0.0}},{"type":"Feature","geometry":{"type":"LineString","coordinates":[[-81.44503,38.47204,12200.0],[-81.56521,38.42687,12200.0]]},"properties":{"ef_share":0.0,"ef_tj":0.0}},{"type":"Feature","geometry":{"type":"LineString","coordinates":[[-81.56521,38.42687,12200.0],[-81.68836,38.38038,12190.0]]},"properties":{"ef_share":0.0,"ef_tj":0.0}},{"type":"Feature","geometry":{"type":"LineString","coordinates":[[-81.68836,38.38038,12190.0],[-81.81243,38.33766,12190.0]]},"properties":{"ef_share":0.0,"ef_tj":0.0}},{"type":"Feature","geometry":{"type":"LineString","coordinates":[[-81.81243,38.33766,12190.0],[-81.93851,38.30247,12170.0]]},"properties":{"ef_share":0.0,"ef_tj":0.0}},{"type":"Feature","geometry":{"type":"LineString","coordinates":[[-81.93851,38.30247,12170.0],[-82.06712,38.26649,12190.0]]},"properties":{"ef_share":0.0,"ef_tj":0.0}},{"type":"Feature","geometry":{"type":"LineString","coordinates":[[-82.06712,38.26649,12190.0],[-82.19325,38.23074,12190.0]]},"properties":{"ef_share":0.0,"ef_tj":0.0}},{"type":"Feature","geometry":{"type":"LineString","coordinates":[[-82.19325,38.23074,12190.0],[-82.31488,38.19616,12190.0]]},"properties":{"ef_share":0.0,"ef_tj":0.0}},{"type":"Feature","geometry":{"type":"LineString","coordinates":[[-82.31488,38.19616,12190.0],[-82.4376,38.16119,12200.0]]},"properties":{"ef_share":0.0,"ef_tj":0.0}},{"type":"Feature","geometry":{"type":"LineString","coordinates":[[-82.4376,38.16119,12200.0],[-82.56254,38.12544,12200.0]]},"properties":{"ef_share":0.0,"ef_tj":0.0}},{"type":"Feature","geometry":{"type":"LineString","coordinates":[[-82.56254,38.12544,12200.0],[-82.68916,38.08908,12200.0]]},"properties":{"ef_share":0.0,"ef_tj":0.0}},{"type":"Feature","geometry":{"type":"LineString","coordinates":[[-82.68916,38.08908,12200.0],[-82.81706,38.05205,12190.0]]},"properties":{"ef_share":0.0,"ef_tj":0.0}},{"type":"Feature","geometry":{"type":"LineString","coordinates":[[-82.81706,38.05205,12190.0],[-82.94309,38.01538,12190.0]]},"properties":{"ef_share":0.0,"ef_tj":0.0}},{"type":"Feature","geometry":{"type":"LineString","coordinates":[[-82.94309,38.01538,12190.0],[-83.06609,37.97946,12190.0]]},"properties":{"ef_share":0.0,"ef_tj":0.0}},{"type":"Feature","geometry":{"type":"LineString","coordinates":[[-83.06609,37.97946,12190.0],[-83.18889,37.94345,12190.0]]},"properties":{"ef_share":0.0,"ef_tj":0.0}},{"type":"Feature","geometry":{"type":"LineString","coordinates":[[-83.18889,37.94345,12190.0],[-83.31287,37.90695,12200.0]]},"properties":{"ef_share":0.0,"ef_tj":0.0}},{"type":"Feature","geometry":{"type":"LineString","coordinates":[[-83.31287,37.90695,12200.0],[-83.43816,37.86988,12190.0]]},"properties":{"ef_share":0.0,"ef_tj":0.0}},{"type":"Feature","geometry":{"type":"LineString","coordinates":[[-83.43816,37.86988,12190.0],[-83.56478,37.83224,12200.0]]},"properties":{"ef_share":0.0,"ef_tj":0.0}},{"type":"Feature","geometry":{"type":"LineString","coordinates":[[-83.56478,37.83224,12200.0],[-83.69345,37.79375,12200.0]]},"properties":{"ef_share":0.0,"ef_tj":0.0}},{"type":"Feature","geometry":{"type":"LineString","coordinates":[[-83.69345,37.79375,12200.0],[-83.82304,37.75493,12190.0]]},"properties":{"ef_share":0.0,"ef_tj":0.0}},{"type":"Feature","geometry":{"type":"LineString","coordinates":[[-83.82304,37.75493,12190.0],[-83.95274,37.71578,12200.0]]},"properties":{"ef_share":0.0,"ef_tj":0.0}},{"type":"Feature","geometry":{"type":"LineString","coordinates":[[-83.95274,37.71578,12200.0],[-84.08428,37.67599,12200.0]]},"properties":{"ef_share":0.0,"ef_tj":0.0}},{"type":"Feature","geometry":{"type":"LineString","coordinates":[[-84.08428,37.67599,12200.0],[-84.21588,37.63584,12190.0]]},"properties":{"ef_share":0.0,"ef_tj":0.0}},{"type":"Feature","geometry":{"type":"LineString","coordinates":[[-84.21588,37.63584,12190.0],[-84.34711,37.59553,12190.0]]},"properties":{"ef_share":0.0,"ef_tj":0.0}},{"type":"Feature","geometry":{"type":"LineString","coordinates":[[-84.34711,37.59553,12190.0],[-84.47881,37.55499,12200.0]]},"properties":{"ef_share":0.0,"ef_tj":0.0}},{"type":"Feature","geometry":{"type":"LineString","coordinates":[[-84.47881,37.55499,12200.0],[-84.61046,37.51426,12190.0]]},"properties":{"ef_share":0.0,"ef_tj":0.0}},{"type":"Feature","geometry":{"type":"LineString","coordinates":[[-84.61046,37.51426,12190.0],[-84.74209,37.47329,12190.0]]},"properties":{"ef_share":0.0,"ef_tj":0.0}},{"type":"Feature","geometry":{"type":"LineString","coordinates":[[-84.74209,37.47329,12190.0],[-84.87412,37.43238,12190.0]]},"properties":{"ef_share":0.0,"ef_tj":0.0}},{"type":"Feature","geometry":{"type":"LineString","coordinates":[[-84.87412,37.43238,12190.0],[-85.0061,37.39112,12190.0]]},"properties":{"ef_share":0.0,"ef_tj":0.0}},{"type":"Feature","geometry":{"type":"LineString","coordinates":[[-85.0061,37.39112,12190.0],[-85.13711,37.35003,12190.0]]},"properties":{"ef_share":0.0,"ef_tj":0.0}},{"type":"Feature","geometry":{"type":"LineString","coordinates":[[-85.13711,37.35003,12190.0],[-85.26591,37.30963,12190.0]]},"properties":{"ef_share":0.0,"ef_tj":0.0}},{"type":"Feature","geometry":{"type":"LineString","coordinates":[[-85.26591,37.30963,12190.0],[-85.39266,37.26916,12190.0]]},"properties":{"ef_share":0.0,"ef_tj":0.0}},{"type":"Feature","geometry":{"type":"LineString","coordinates":[[-85.39266,37.26916,12190.0],[-85.51936,37.22892,12190.0]]},"properties":{"ef_share":0.0,"ef_tj":0.0}},{"type":"Feature","geometry":{"type":"LineString","coordinates":[[-85.51936,37.22892,12190.0],[-85.64941,37.18722,12190.0]]},"properties":{"ef_share":0.0,"ef_tj":0.0}},{"type":"Feature","geometry":{"type":"LineString","coordinates":[[-85.64941,37.18722,12190.0],[-85.77611,37.1465,12190.0]]},"properties":{"ef_share":0.0,"ef_tj":0.0}},{"type":"Feature","geometry":{"type":"LineString","coordinates":[[-85.77611,37.1465,12190.0],[-85.89944,37.10668,12190.0]]},"properties":{"ef_share":0.0,"ef_tj":0.0}},{"type":"Feature","geometry":{"type":"LineString","coordinates":[[-85.89944,37.10668,12190.0],[-86.01947,37.06771,12190.0]]},"properties":{"ef_share":0.0,"ef_tj":0.0}},{"type":"Feature","geometry":{"type":"LineString","coordinates":[[-86.01947,37.06771,12190.0],[-86.13787,37.0291,12200.0]]},"properties":{"ef_share":0.0,"ef_tj":0.0}},{"type":"Feature","geometry":{"type":"LineString","coordinates":[[-86.13787,37.0291,12200.0],[-86.2554,36.99069,12200.0]]},"properties":{"ef_share":0.0,"ef_tj":0.0}},{"type":"Feature","geometry":{"type":"LineString","coordinates":[[-86.2554,36.99069,12200.0],[-86.37326,36.95203,12200.0]]},"properties":{"ef_share":0.0,"ef_tj":0.0}},{"type":"Feature","geometry":{"type":"LineString","coordinates":[[-86.37326,36.95203,12200.0],[-86.492,36.91194,12200.0]]},"properties":{"ef_share":0.0,"ef_tj":0.0}},{"type":"Feature","geometry":{"type":"LineString","coordinates":[[-86.492,36.91194,12200.0],[-86.61083,36.86864,12190.0]]},"properties":{"ef_share":0.0,"ef_tj":0.0}},{"type":"Feature","geometry":{"type":"LineString","coordinates":[[-86.61083,36.86864,12190.0],[-86.73058,36.82551,12190.0]]},"properties":{"ef_share":0.0,"ef_tj":0.0}},{"type":"Feature","geometry":{"type":"LineString","coordinates":[[-86.73058,36.82551,12190.0],[-86.85202,36.78163,12200.0]]},"properties":{"ef_share":0.0,"ef_tj":0.0}},{"type":"Feature","geometry":{"type":"LineString","coordinates":[[-86.85202,36.78163,12200.0],[-86.97483,36.73705,12190.0]]},"properties":{"ef_share":0.0,"ef_tj":0.0}},{"type":"Feature","geometry":{"type":"LineString","coordinates":[[-86.97483,36.73705,12190.0],[-87.09826,36.69196,12190.0]]},"properties":{"ef_share":0.0,"ef_tj":0.0}},{"type":"Feature","geometry":{"type":"LineString","coordinates":[[-87.09826,36.69196,12190.0],[-87.22179,36.64666,12200.0]]},"properties":{"ef_share":0.0,"ef_tj":0.0}},{"type":"Feature","geometry":{"type":"LineString","coordinates":[[-87.22179,36.64666,12200.0],[-87.34588,36.60102,12200.0]]},"properties":{"ef_share":0.0,"ef_tj":0.0}},{"type":"Feature","geometry":{"type":"LineString","coordinates":[[-87.34588,36.60102,12200.0],[-87.47024,36.55515,12190.0]]},"properties":{"ef_share":0.0,"ef_tj":0.0}},{"type":"Feature","geometry":{"type":"LineString","coordinates":[[-87.47024,36.55515,12190.0],[-87.59457,36.50909,12190.0]]},"properties":{"ef_share":0.0,"ef_tj":0.0}},{"type":"Feature","geometry":{"type":"LineString","coordinates":[[-87.59457,36.50909,12190.0],[-87.71621,36.46383,12190.0]]},"properties":{"ef_share":0.0,"ef_tj":0.0}},{"type":"Feature","geometry":{"type":"LineString","coordinates":[[-87.71621,36.46383,12190.0],[-87.83358,36.41996,12190.0]]},"properties":{"ef_share":0.0,"ef_tj":0.0}},{"type":"Feature","geometry":{"type":"LineString","coordinates":[[-87.83358,36.41996,12190.0],[-87.95029,36.37621,12190.0]]},"properties":{"ef_share":0.0,"ef_tj":0.0}},{"type":"Feature","geometry":{"type":"LineString","coordinates":[[-87.95029,36.37621,12190.0],[-88.06785,36.33199,12200.0]]},"properties":{"ef_share":0.0,"ef_tj":0.0}},{"type":"Feature","geometry":{"type":"LineString","coordinates":[[-88.06785,36.33199,12200.0],[-88.18574,36.28751,12190.0]]},"properties":{"ef_share":0.0,"ef_tj":0.0}},{"type":"Feature","geometry":{"type":"LineString","coordinates":[[-88.18574,36.28751,12190.0],[-88.30491,36.24229,12190.0]]},"properties":{"ef_share":0.0,"ef_tj":0.0}},{"type":"Feature","geometry":{"type":"LineString","coordinates":[[-88.30491,36.24229,12190.0],[-88.4247,36.19674,12200.0]]},"properties":{"ef_share":0.0,"ef_tj":0.0}},{"type":"Feature","geometry":{"type":"LineString","coordinates":[[-88.4247,36.19674,12200.0],[-88.54579,36.1505,12200.0]]},"properties":{"ef_share":0.0,"ef_tj":0.0}},{"type":"Feature","geometry":{"type":"LineString","coordinates":[[-88.54579,36.1505,12200.0],[-88.66751,36.10378,12200.0]]},"properties":{"ef_share":0.0,"ef_tj":0.0}},{"type":"Feature","geometry":{"type":"LineString","coordinates":[[-88.66751,36.10378,12200.0],[-88.78941,36.0569,12190.0]]},"properties":{"ef_share":0.0,"ef_tj":0.0}},{"type":"Feature","geometry":{"type":"LineString","coordinates":[[-88.78941,36.0569,12190.0],[-88.9115,36.00966,12200.0]]},"properties":{"ef_share":0.0,"ef_tj":0.0}},{"type":"Feature","geometry":{"type":"LineString","coordinates":[[-88.9115,36.00966,12200.0],[-89.03364,35.96226,12200.0]]},"properties":{"ef_share":0.0,"ef_tj":0.0}},{"type":"Feature","geometry":{"type":"LineString","coordinates":[[-89.03364,35.96226,12200.0],[-89.15555,35.91476,12190.0]]},"properties":{"ef_share":0.0,"ef_tj":0.0}},{"type":"Feature","geometry":{"type":"LineString","coordinates":[[-89.15555,35.91476,12190.0],[-89.2766,35.86741,12190.0]]},"properties":{"ef_share":0.0,"ef_tj":0.0}},{"type":"Feature","geometry":{"type":"LineString","coordinates":[[-89.2766,35.86741,12190.0],[-89.39698,35.82026,12190.0]]},"properties":{"ef_share":0.0,"ef_tj":0.0}},{"type":"Feature","geometry":{"type":"LineString","coordinates":[[-89.39698,35.82026,12190.0],[-89.51692,35.7729,12190.0]]},"properties":{"ef_share":0.0,"ef_tj":0.0}},{"type":"Feature","geometry":{"type":"LineString","coordinates":[[-89.51692,35.7729,12190.0],[-89.63684,35.72546,12190.0]]},"properties":{"ef_share":0.0,"ef_tj":0.0}},{"type":"Feature","geometry":{"type":"LineString","coordinates":[[-89.63684,35.72546,12190.0],[-89.75699,35.67779,12190.0]]},"properties":{"ef_share":0.0,"ef_tj":0.0}},{"type":"Feature","geometry":{"type":"LineString","coordinates":[[-89.75699,35.67779,12190.0],[-89.8772,35.62989,12200.0]]},"properties":{"ef_share":0.0,"ef_tj":0.0}},{"type":"Feature","geometry":{"type":"LineString","coordinates":[[-89.8772,35.62989,12200.0],[-89.99796,35.58164,12190.0]]},"properties":{"ef_share":0.0,"ef_tj":0.0}},{"type":"Feature","geometry":{"type":"LineString","coordinates":[[-89.99796,35.58164,12190.0],[-90.11744,35.53336,12190.0]]},"properties":{"ef_share":0.0,"ef_tj":0.0}},{"type":"Feature","geometry":{"type":"LineString","coordinates":[[-90.11744,35.53336,12190.0],[-90.23532,35.48619,12190.0]]},"properties":{"ef_share":0.0,"ef_tj":0.0}},{"type":"Feature","geometry":{"type":"LineString","coordinates":[[-90.23532,35.48619,12190.0],[-90.35214,35.43912,12190.0]]},"properties":{"ef_share":0.0,"ef_tj":0.0}},{"type":"Feature","geometry":{"type":"LineString","coordinates":[[-90.35214,35.43912,12190.0],[-90.46875,35.39164,12190.0]]},"properties":{"ef_share":0.0,"ef_tj":0.0}},{"type":"Feature","geometry":{"type":"LineString","coordinates":[[-90.46875,35.39164,12190.0],[-90.58515,35.34429,12190.0]]},"properties":{"ef_share":0.0,"ef_tj":0.0}},{"type":"Feature","geometry":{"type":"LineString","coordinates":[[-90.58515,35.34429,12190.0],[-90.70122,35.29677,12190.0]]},"properties":{"ef_share":0.0,"ef_tj":0.0}},{"type":"Feature","geometry":{"type":"LineString","coordinates":[[-90.70122,35.29677,12190.0],[-90.81745,35.24943,12190.0]]},"properties":{"ef_share":0.0,"ef_tj":0.0}},{"type":"Feature","geometry":{"type":"LineString","coordinates":[[-90.81745,35.24943,12190.0],[-90.94035,35.21208,12200.0]]},"properties":{"ef_share":0.0,"ef_tj":0.0}},{"type":"Feature","geometry":{"type":"LineString","coordinates":[[-90.94035,35.21208,12200.0],[-91.06693,35.17993,12200.0]]},"properties":{"ef_share":0.0,"ef_tj":0.0}},{"type":"Feature","geometry":{"type":"LineString","coordinates":[[-91.06693,35.17993,12200.0],[-91.19287,35.14758,12190.0]]},"properties":{"ef_share":0.0,"ef_tj":0.0}},{"type":"Feature","geometry":{"type":"LineString","coordinates":[[-91.19287,35.14758,12190.0],[-91.31813,35.1146,12200.0]]},"properties":{"ef_share":0.0,"ef_tj":0.0}},{"type":"Feature","geometry":{"type":"LineString","coordinates":[[-91.31813,35.1146,12200.0],[-91.44273,35.08165,12200.0]]},"properties":{"ef_share":0.0,"ef_tj":0.0}},{"type":"Feature","geometry":{"type":"LineString","coordinates":[[-91.44273,35.08165,12200.0],[-91.56658,35.04886,12200.0]]},"properties":{"ef_share":0.0,"ef_tj":0.0}},{"type":"Feature","geometry":{"type":"LineString","coordinates":[[-91.56658,35.04886,12200.0],[-91.68926,35.01606,12190.0]]},"properties":{"ef_share":0.0,"ef_tj":0.0}},{"type":"Feature","geometry":{"type":"LineString","coordinates":[[-91.68926,35.01606,12190.0],[-91.81044,34.98361,12190.0]]},"properties":{"ef_share":0.0,"ef_tj":0.0}},{"type":"Feature","geometry":{"type":"LineString","coordinates":[[-91.81044,34.98361,12190.0],[-91.93044,34.95133,12190.0]]},"properties":{"ef_share":0.0,"ef_tj":0.0}},{"type":"Feature","geometry":{"type":"LineString","coordinates":[[-91.93044,34.95133,12190.0],[-92.04925,34.91922,12190.0]]},"properties":{"ef_share":0.0,"ef_tj":0.0}},{"type":"Feature","geometry":{"type":"LineString","coordinates":[[-92.04925,34.91922,12190.0],[-92.16777,34.8871,12190.0]]},"properties":{"ef_share":0.0,"ef_tj":0.0}},{"type":"Feature","geometry":{"type":"LineString","coordinates":[[-92.16777,34.8871,12190.0],[-92.28614,34.85486,12190.0]]},"properties":{"ef_share":0.0,"ef_tj":0.0}},{"type":"Feature","geometry":{"type":"LineString","coordinates":[[-92.28614,34.85486,12190.0],[-92.40527,34.82223,12200.0]]},"properties":{"ef_share":0.0,"ef_tj":0.0}},{"type":"Feature","geometry":{"type":"LineString","coordinates":[[-92.40527,34.82223,12200.0],[-92.52541,34.78912,12190.0]]},"properties":{"ef_share":0.0,"ef_tj":0.0}},{"type":"Feature","geometry":{"type":"LineString","coordinates":[[-92.52541,34.78912,12190.0],[-92.64669,34.75569,12200.0]]},"properties":{"ef_share":0.0,"ef_tj":0.0}},{"type":"Feature","geometry":{"type":"LineString","coordinates":[[-92.64669,34.75569,12200.0],[-92.76899,34.72175,12200.0]]},"properties":{"ef_share":0.0,"ef_tj":0.0}},{"type":"Feature","geometry":{"type":"LineString","coordinates":[[-92.76899,34.72175,12200.0],[-92.89206,34.68745,12190.0]]},"properties":{"ef_share":0.0,"ef_tj":0.0}},{"type":"Feature","geometry":{"type":"LineString","coordinates":[[-92.89206,34.68745,12190.0],[-93.01548,34.65291,12190.0]]},"properties":{"ef_share":0.0,"ef_tj":0.0}},{"type":"Feature","geometry":{"type":"LineString","coordinates":[[-93.01548,34.65291,12190.0],[-93.1391,34.61815,12200.0]]},"properties":{"ef_share":0.0,"ef_tj":0.0}},{"type":"Feature","geometry":{"type":"LineString","coordinates":[[-93.1391,34.61815,12200.0],[-93.26328,34.58309,12190.0]]},"properties":{"ef_share":0.0,"ef_tj":0.0}},{"type":"Feature","geometry":{"type":"LineString","coordinates":[[-93.26328,34.58309,12190.0],[-93.38854,34.54754,12200.0]]},"properties":{"ef_share":0.0,"ef_tj":0.0}},{"type":"Feature","geometry":{"type":"LineString","coordinates":[[-93.38854,34.54754,12200.0],[-93.51328,34.5118,12200.0]]},"properties":{"ef_share":0.0,"ef_tj":0.0}},{"type":"Feature","geometry":{"type":"LineString","coordinates":[[-93.51328,34.5118,12200.0],[-93.638,34.47626,12190.0]]},"properties":{"ef_share":0.0,"ef_tj":0.0}},{"type":"Feature","geometry":{"type":"LineString","coordinates":[[-93.638,34.47626,12190.0],[-93.76178,34.44098,12190.0]]},"properties":{"ef_share":0.0,"ef_tj":0.0}},{"type":"Feature","geometry":{"type":"LineString","coordinates":[[-93.76178,34.44098,12190.0],[-93.88562,34.40507,12190.0]]},"properties":{"ef_share":0.0,"ef_tj":0.0}},{"type":"Feature","geometry":{"type":"LineString","coordinates":[[-93.88562,34.40507,12190.0],[-94.00804,34.36939,12190.0]]},"properties":{"ef_share":0.0,"ef_tj":0.0}},{"type":"Feature","geometry":{"type":"LineString","coordinates":[[-94.00804,34.36939,12190.0],[-94.13076,34.33378,12190.0]]},"properties":{"ef_share":0.0,"ef_tj":0.0}},{"type":"Feature","geometry":{"type":"LineString","coordinates":[[-94.13076,34.33378,12190.0],[-94.25445,34.2976,12200.0]]},"properties":{"ef_share":0.0,"ef_tj":0.0}},{"type":"Feature","geometry":{"type":"LineString","coordinates":[[-94.25445,34.2976,12200.0],[-94.37849,34.26123,12200.0]]},"properties":{"ef_share":0.0,"ef_tj":0.0}},{"type":"Feature","geometry":{"type":"LineString","coordinates":[[-94.37849,34.26123,12200.0],[-94.5015,34.22468,11810.0]]},"properties":{"ef_share":0.0,"ef_tj":0.0}},{"type":"Feature","geometry":{"type":"LineString","coordinates":[[-94.5015,34.22468,11810.0],[-94.62566,34.18838,11030.0]]},"properties":{"ef_share":0.0,"ef_tj":0.0}},{"type":"Feature","geometry":{"type":"LineString","coordinates":[[-94.62566,34.18838,11030.0],[-94.74586,34.15272,10070.0]]},"properties":{"ef_share":0.0,"ef_tj":0.0}},{"type":"Feature","geometry":{"type":"LineString","coordinates":[[-94.74586,34.15272,10070.0],[-94.87432,34.14451,9020.0]]},"properties":{"ef_share":0.0,"ef_tj":0.0}},{"type":"Feature","geometry":{"type":"LineString","coordinates":[[-94.87432,34.14451,9020.0],[-95.00493,34.15408,7830.0]]},"properties":{"ef_share":0.0,"ef_tj":0.0}},{"type":"Feature","geometry":{"type":"LineString","coordinates":[[-95.00493,34.15408,7830.0],[-95.13982,34.16212,7320.0]]},"properties":{"ef_share":0.0,"ef_tj":0.0}},{"type":"Feature","geometry":{"type":"LineString","coordinates":[[-95.13982,34.16212,7320.0],[-95.27502,34.16986,7320.0]]},"properties":{"ef_share":0.0,"ef_tj":0.0}},{"type":"Feature","geometry":{"type":"LineString","coordinates":[[-95.27502,34.16986,7320.0],[-95.40646,34.14888,7320.0]]},"properties":{"ef_share":0.0,"ef_tj":0.0}},{"type":"Feature","geometry":{"type":"LineString","coordinates":[[-95.40646,34.14888,7320.0],[-95.52121,34.08246,7320.0]]},"properties":{"ef_share":0.0,"ef_tj":0.0}},{"type":"Feature","geometry":{"type":"LineString","coordinates":[[-95.52121,34.08246,7320.0],[-95.63271,34.01783,7290.0]]},"properties":{"ef_share":0.0,"ef_tj":0.0}},{"type":"Feature","geometry":{"type":"LineString","coordinates":[[-95.63271,34.01783,7290.0],[-95.74285,33.95418,7000.0]]},"properties":{"ef_share":0.0,"ef_tj":0.0}},{"type":"Feature","geometry":{"type":"LineString","coordinates":[[-95.74285,33.95418,7000.0],[-95.8456,33.89426,6720.0]]},"properties":{"ef_share":0.0,"ef_tj":0.0}},{"type":"Feature","geometry":{"type":"LineString","coordinates":[[-95.8456,33.89426,6720.0],[-95.93888,33.83919,6410.0]]},"properties":{"ef_share":0.0,"ef_tj":0.0}},{"type":"Feature","geometry":{"type":"LineString","coordinates":[[-95.93888,33.83919,6410.0],[-96.02657,33.78799,5900.0]]},"properties":{"ef_share":0.0,"ef_tj":0.0}},{"type":"Feature","geometry":{"type":"LineString","coordinates":[[-96.02657,33.78799,5900.0],[-96.11424,33.73653,5430.0]]},"properties":{"ef_share":0.0,"ef_tj":0.0}},{"type":"Feature","geometry":{"type":"LineString","coordinates":[[-96.11424,33.73653,5430.0],[-96.19952,33.68606,5000.0]]},"properties":{"ef_share":0.0,"ef_tj":0.0}},{"type":"Feature","geometry":{"type":"LineString","coordinates":[[-96.19952,33.68606,5000.0],[-96.28306,33.63673,4560.0]]},"properties":{"ef_share":0.0,"ef_tj":0.0}},{"type":"Feature","geometry":{"type":"LineString","coordinates":[[-96.28306,33.63673,4560.0],[-96.36468,33.58823,4140.0]]},"properties":{"ef_share":0.0,"ef_tj":0.0}},{"type":"Feature","geometry":{"type":"LineString","coordinates":[[-96.36468,33.58823,4140.0],[-96.44505,33.54062,3670.0]]},"properties":{"ef_share":0.0,"ef_tj":0.0}},{"type":"Feature","geometry":{"type":"LineString","coordinates":[[-96.44505,33.54062,3670.0],[-96.5247,33.49307,3390.0]]},"properties":{"ef_share":0.0,"ef_tj":0.0}},{"type":"Feature","geometry":{"type":"LineString","coordinates":[[-96.5247,33.49307,3390.0],[-96.60788,33.45181,3390.0]]},"properties":{"ef_share":0.0,"ef_tj":0.0}},{"type":"Feature","geometry":{"type":"LineString","coordinates":[[-96.60788,33.45181,3390.0],[-96.70077,33.45066,3150.0]]},"properties":{"ef_share":0.0,"ef_tj":0.0}},{"type":"Feature","geometry":{"type":"LineString","coordinates":[[-96.70077,33.45066,3150.0],[-96.78251,33.45064,2990.0]]},"properties":{"ef_share":0.0,"ef_tj":0.0}},{"type":"Feature","geometry":{"type":"LineString","coordinates":[[-96.78251,33.45064,2990.0],[-96.86022,33.44201,2690.0]]},"properties":{"ef_share":0.0,"ef_tj":0.0}},{"type":"Feature","geometry":{"type":"LineString","coordinates":[[-96.86022,33.44201,2690.0],[-96.93593,33.42971,2310.0]]},"properties":{"ef_share":0.0,"ef_tj":0.0}},{"type":"Feature","geometry":{"type":"LineString","coordinates":[[-96.93593,33.42971,2310.0],[-97.00913,33.4169,1890.0]]},"properties":{"ef_share":0.0,"ef_tj":0.0}},{"type":"Feature","geometry":{"type":"LineString","coordinates":[[-97.00913,33.4169,1890.0],[-97.08013,33.40575,1570.0]]},"properties":{"ef_share":0.0,"ef_tj":0.0}},{"type":"Feature","geometry":{"type":"LineString","coordinates":[[-97.08013,33.40575,1570.0],[-97.15123,33.39368,1580.0]]},"properties":{"ef_share":0.0,"ef_tj":0.0}},{"type":"Feature","geometry":{"type":"LineString","coordinates":[[-97.15123,33.39368,1580.0],[-97.22183,33.37881,1620.0]]},"properties":{"ef_share":0.0,"ef_tj":0.0}},{"type":"Feature","geometry":{"type":"LineString","coordinates":[[-97.22183,33.37881,1620.0],[-97.26646,33.32788,1390.0]]},"properties":{"ef_share":0.0,"ef_tj":0.0}},{"type":"Feature","geometry":{"type":"LineString","coordinates":[[-97.26646,33.32788,1390.0],[-97.30357,33.27369,1240.0]]},"properties":{"ef_share":0.0,"ef_tj":0.0}},{"type":"Feature","geometry":{"type":"LineString","coordinates":[[-97.30357,33.27369,1240.0],[-97.33337,33.22642,1270.0]]},"properties":{"ef_share":0.0,"ef_tj":0.0}},{"type":"Feature","geometry":{"type":"LineString","coordinates":[[-97.33337,33.22642,1270.0],[-97.35839,33.18533,1270.0]]},"properties":{"ef_share":0.0,"ef_tj":0.0}},{"type":"Feature","geometry":{"type":"LineString","coordinates":[[-97.35839,33.18533,1270.0],[-97.34835,33.14345,1100.0]]},"properties":{"ef_share":0.0,"ef_tj":0.0}},{"type":"Feature","geometry":{"type":"LineString","coordinates":[[-97.34835,33.14345,1100.0],[-97.3426,33.10772,890.0]]},"properties":{"ef_share":0.0,"ef_tj":0.0}},{"type":"Feature","geometry":{"type":"LineString","coordinates":[[-97.3426,33.10772,890.0],[-97.3352,33.07265,680.0]]},"properties":{"ef_share":0.0,"ef_tj":0.0}},{"type":"Feature","geometry":{"type":"LineString","coordinates":[[-97.3352,33.07265,680.0],[-97.32832,33.03856,470.0]]},"properties":{"ef_share":0.0,"ef_tj":0.0}},{"type":"Feature","geometry":{"type":"LineString","coordinates":[[-97.32832,33.03856,470.0],[-97.32143,33.00512,290.0]]},"properties":{"ef_share":0.0,"ef_tj":0.0}}]}