{"type":"FeatureCollection","properties":{"icao24":"a40b24","registration":"N36NE","owner_label":"New England Patriots","combined_co2e_central":17352.6,"fuel_co2_kg":17352.6,"contrail_co2e_central":0.0,"tier":"medium"},"features":[{"type":"Feature","geometry":{"type":"LineString","coordinates":[[-71.41481,41.74011,480.0],[-71.42493,41.78818,1040.0]]},"properties":{"ef_share":0.0,"ef_tj":0.0}},{"type":"Feature","geometry":{"type":"LineString","coordinates":[[-71.42493,41.78818,1040.0],[-71.47797,41.83372,1920.0]]},"properties":{"ef_share":0.0,"ef_tj":0.0}},{"type":"Feature","geometry":{"type":"LineString","coordinates":[[-71.47797,41.83372,1920.0],[-71.56222,41.86118,2830.0]]},"properties":{"ef_share":0.0,"ef_tj":0.0}},{"type":"Feature","geometry":{"type":"LineString","coordinates":[[-71.56222,41.86118,2830.0],[-71.65333,41.89142,3430.0]]},"properties":{"ef_share":0.0,"ef_tj":0.0}},{"type":"Feature","geometry":{"type":"LineString","coordinates":[[-71.65333,41.89142,3430.0],[-71.76355,41.92878,4130.0]]},"properties":{"ef_share":0.0,"ef_tj":0.0}},{"type":"Feature","geometry":{"type":"LineString","coordinates":[[-71.76355,41.92878,4130.0],[-71.88034,41.96714,4950.0]]},"properties":{"ef_share":0.0,"ef_tj":0.0}},{"type":"Feature","geometry":{"type":"LineString","coordinates":[[-71.88034,41.96714,4950.0],[-72.00378,42.00475,5780.0]]},"properties":{"ef_share":0.0,"ef_tj":0.0}},{"type":"Feature","geometry":{"type":"LineString","coordinates":[[-72.00378,42.00475,5780.0],[-72.13155,42.04415,6520.0]]},"properties":{"ef_share":0.0,"ef_tj":0.0}},{"type":"Feature","geometry":{"type":"LineString","coordinates":[[-72.13155,42.04415,6520.0],[-72.26372,42.08477,7300.0]]},"properties":{"ef_share":0.0,"ef_tj":0.0}},{"type":"Feature","geometry":{"type":"LineString","coordinates":[[-72.26372,42.08477,7300.0],[-72.40093,42.12637,7940.0]]},"properties":{"ef_share":0.0,"ef_tj":0.0}},{"type":"Feature","geometry":{"type":"LineString","coordinates":[[-72.40093,42.12637,7940.0],[-72.54263,42.1694,8610.0]]},"properties":{"ef_share":0.0,"ef_tj":0.0}},{"type":"Feature","geometry":{"type":"LineString","coordinates":[[-72.54263,42.1694,8610.0],[-72.68754,42.21311,9390.0]]},"properties":{"ef_share":0.0,"ef_tj":0.0}},{"type":"Feature","geometry":{"type":"LineString","coordinates":[[-72.68754,42.21311,9390.0],[-72.83283,42.25654,9760.0]]},"properties":{"ef_share":0.0,"ef_tj":0.0}},{"type":"Feature","geometry":{"type":"LineString","coordinates":[[-72.83283,42.25654,9760.0],[-72.97751,42.29943,9750.0]]},"properties":{"ef_share":0.0,"ef_tj":0.0}},{"type":"Feature","geometry":{"type":"LineString","coordinates":[[-72.97751,42.29943,9750.0],[-73.12182,42.34035,9750.0]]},"properties":{"ef_share":0.0,"ef_tj":0.0}},{"type":"Feature","geometry":{"type":"LineString","coordinates":[[-73.12182,42.34035,9750.0],[-73.26832,42.38158,9760.0]]},"properties":{"ef_share":0.0,"ef_tj":0.0}},{"type":"Feature","geometry":{"type":"LineString","coordinates":[[-73.26832,42.38158,9760.0],[-73.4152,42.42293,9750.0]]},"properties":{"ef_share":0.0,"ef_tj":0.0}},{"type":"Feature","geometry":{"type":"LineString","coordinates":[[-73.4152,42.42293,9750.0],[-73.5614,42.46376,9750.0]]},"properties":{"ef_share":0.0,"ef_tj":0.0}},{"type":"Feature","geometry":{"type":"LineString","coordinates":[[-73.5614,42.46376,9750.0],[-73.70725,42.50423,9750.0]]},"properties":{"ef_share":0.0,"ef_tj":0.0}},{"type":"Feature","geometry":{"type":"LineString","coordinates":[[-73.70725,42.50423,9750.0],[-73.85219,42.54423,9750.0]]},"properties":{"ef_share":0.0,"ef_tj":0.0}},{"type":"Feature","geometry":{"type":"LineString","coordinates":[[-73.85219,42.54423,9750.0],[-73.99796,42.58404,9760.0]]},"properties":{"ef_share":0.0,"ef_tj":0.0}},{"type":"Feature","geometry":{"type":"LineString","coordinates":[[-73.99796,42.58404,9760.0],[-74.1439,42.62393,9750.0]]},"properties":{"ef_share":0.0,"ef_tj":0.0}},{"type":"Feature","geometry":{"type":"LineString","coordinates":[[-74.1439,42.62393,9750.0],[-74.29067,42.66367,9750.0]]},"properties":{"ef_share":0.0,"ef_tj":0.0}},{"type":"Feature","geometry":{"type":"LineString","coordinates":[[-74.29067,42.66367,9750.0],[-74.4381,42.70335,9760.0]]},"properties":{"ef_share":0.0,"ef_tj":0.0}},{"type":"Feature","geometry":{"type":"LineString","coordinates":[[-74.4381,42.70335,9760.0],[-74.58645,42.74319,9760.0]]},"properties":{"ef_share":0.0,"ef_tj":0.0}},{"type":"Feature","geometry":{"type":"LineString","coordinates":[[-74.58645,42.74319,9760.0],[-74.73511,42.78268,9760.0]]},"properties":{"ef_share":0.0,"ef_tj":0.0}},{"type":"Feature","geometry":{"type":"LineString","coordinates":[[-74.73511,42.78268,9760.0],[-74.88814,42.8097,9750.0]]},"properties":{"ef_share":0.0,"ef_tj":0.0}},{"type":"Feature","geometry":{"type":"LineString","coordinates":[[-74.88814,42.8097,9750.0],[-75.04449,42.82819,9760.0]]},"properties":{"ef_share":0.0,"ef_tj":0.0}},{"type":"Feature","geometry":{"type":"LineString","coordinates":[[-75.04449,42.82819,9760.0],[-75.19968,42.8454,9540.0]]},"properties":{"ef_share":0.0,"ef_tj":0.0}},{"type":"Feature","geometry":{"type":"LineString","coordinates":[[-75.19968,42.8454,9540.0],[-75.35227,42.86164,9130.0]]},"properties":{"ef_share":0.0,"ef_tj":0.0}},{"type":"Feature","geometry":{"type":"LineString","coordinates":[[-75.35227,42.86164,9130.0],[-75.50148,42.87744,8820.0]]},"properties":{"ef_share":0.0,"ef_tj":0.0}},{"type":"Feature","geometry":{"type":"LineString","coordinates":[[-75.50148,42.87744,8820.0],[-75.64536,42.89241,8340.0]]},"properties":{"ef_share":0.0,"ef_tj":0.0}},{"type":"Feature","geometry":{"type":"LineString","coordinates":[[-75.64536,42.89241,8340.0],[-75.78581,42.90719,7870.0]]},"properties":{"ef_share":0.0,"ef_tj":0.0}},{"type":"Feature","geometry":{"type":"LineString","coordinates":[[-75.78581,42.90719,7870.0],[-75.92373,42.92123,7450.0]]},"properties":{"ef_share":0.0,"ef_tj":0.0}},{"type":"Feature","geometry":{"type":"LineString","coordinates":[[-75.92373,42.92123,7450.0],[-76.05782,42.93476,7320.0]]},"properties":{"ef_share":0.0,"ef_tj":0.0}},{"type":"Feature","geometry":{"type":"LineString","coordinates":[[-76.05782,42.93476,7320.0],[-76.19158,42.94824,7320.0]]},"properties":{"ef_share":0.0,"ef_tj":0.0}},{"type":"Feature","geometry":{"type":"LineString","coordinates":[[-76.19158,42.94824,7320.0],[-76.32775,42.96168,7320.0]]},"properties":{"ef_share":0.0,"ef_tj":0.0}},{"type":"Feature","geometry":{"type":"LineString","coordinates":[[-76.32775,42.96168,7320.0],[-76.46442,42.97492,7320.0]]},"properties":{"ef_share":0.0,"ef_tj":0.0}},{"type":"Feature","geometry":{"type":"LineString","coordinates":[[-76.46442,42.97492,7320.0],[-76.6019,42.98825,7320.0]]},"properties":{"ef_share":0.0,"ef_tj":0.0}},{"type":"Feature","geometry":{"type":"LineString","coordinates":[[-76.6019,42.98825,7320.0],[-76.73902,43.00125,7320.0]]},"properties":{"ef_share":0.0,"ef_tj":0.0}},{"type":"Feature","geometry":{"type":"LineString","coordinates":[[-76.73902,43.00125,7320.0],[-76.87671,43.01413,7320.0]]},"properties":{"ef_share":0.0,"ef_tj":0.0}},{"type":"Feature","geometry":{"type":"LineString","coordinates":[[-76.87671,43.01413,7320.0],[-77.01412,43.0269,7320.0]]},"properties":{"ef_share":0.0,"ef_tj":0.0}},{"type":"Feature","geometry":{"type":"LineString","coordinates":[[-77.01412,43.0269,7320.0],[-77.15712,43.04005,7320.0]]},"properties":{"ef_share":0.0,"ef_tj":0.0}},{"type":"Feature","geometry":{"type":"LineString","coordinates":[[-77.15712,43.04005,7320.0],[-77.30388,43.05304,7170.0]]},"properties":{"ef_share":0.0,"ef_tj":0.0}},{"type":"Feature","geometry":{"type":"LineString","coordinates":[[-77.30388,43.05304,7170.0],[-77.44165,43.06531,6460.0]]},"properties":{"ef_share":0.0,"ef_tj":0.0}},{"type":"Feature","geometry":{"type":"LineString","coordinates":[[-77.44165,43.06531,6460.0],[-77.57312,43.07688,5750.0]]},"properties":{"ef_share":0.0,"ef_tj":0.0}},{"type":"Feature","geometry":{"type":"LineString","coordinates":[[-77.57312,43.07688,5750.0],[-77.7005,43.0879,4960.0]]},"properties":{"ef_share":0.0,"ef_tj":0.0}},{"type":"Feature","geometry":{"type":"LineString","coordinates":[[-77.7005,43.0879,4960.0],[-77.82626,43.09862,4270.0]]},"properties":{"ef_share":0.0,"ef_tj":0.0}},{"type":"Feature","geometry":{"type":"LineString","coordinates":[[-77.82626,43.09862,4270.0],[-77.94789,43.1089,3600.0]]},"properties":{"ef_share":0.0,"ef_tj":0.0}},{"type":"Feature","geometry":{"type":"LineString","coordinates":[[-77.94789,43.1089,3600.0],[-78.0644,43.11831,3160.0]]},"properties":{"ef_share":0.0,"ef_tj":0.0}},{"type":"Feature","geometry":{"type":"LineString","coordinates":[[-78.0644,43.11831,3160.0],[-78.15737,43.08144,2920.0]]},"properties":{"ef_share":0.0,"ef_tj":0.0}},{"type":"Feature","geometry":{"type":"LineString","coordinates":[[-78.15737,43.08144,2920.0],[-78.23456,43.03668,2580.0]]},"properties":{"ef_share":0.0,"ef_tj":0.0}},{"type":"Feature","geometry":{"type":"LineString","coordinates":[[-78.23456,43.03668,2580.0],[-78.31028,42.99302,2170.0]]},"properties":{"ef_share":0.0,"ef_tj":0.0}},{"type":"Feature","geometry":{"type":"LineString","coordinates":[[-78.31028,42.99302,2170.0],[-78.38487,42.95151,1790.0]]},"properties":{"ef_share":0.0,"ef_tj":0.0}},{"type":"Feature","geometry":{"type":"LineString","coordinates":[[-78.38487,42.95151,1790.0],[-78.45738,42.91315,1620.0]]},"properties":{"ef_share":0.0,"ef_tj":0.0}},{"type":"Feature","geometry":{"type":"LineString","coordinates":[[-78.45738,42.91315,1620.0],[-78.52855,42.87609,1280.0]]},"properties":{"ef_share":0.0,"ef_tj":0.0}},{"type":"Feature","geometry":{"type":"LineString","coordinates":[[-78.52855,42.87609,1280.0],[-78.59885,42.83919,1110.0]]},"properties":{"ef_share":0.0,"ef_tj":0.0}},{"type":"Feature","geometry":{"type":"LineString","coordinates":[[-78.59885,42.83919,1110.0],[-78.66755,42.80353,900.0]]},"properties":{"ef_share":0.0,"ef_tj":0.0}},{"type":"Feature","geometry":{"type":"LineString","coordinates":[[-78.66755,42.80353,900.0],[-78.74022,42.77984,810.0]]},"properties":{"ef_share":0.0,"ef_tj":0.0}},{"type":"Feature","geometry":{"type":"LineString","coordinates":[[-78.74022,42.77984,810.0],[-78.81313,42.7743,750.0]]},"properties":{"ef_share":0.0,"ef_tj":0.0}},{"type":"Feature","geometry":{"type":"LineString","coordinates":[[-78.81313,42.7743,750.0],[-78.85197,42.81278,600.0]]},"properties":{"ef_share":0.0,"ef_tj":0.0}},{"type":"Feature","geometry":{"type":"LineString","coordinates":[[-78.85197,42.81278,600.0],[-78.83743,42.85781,600.0]]},"properties":{"ef_share":0.0,"ef_tj":0.0}},{"type":"Feature","geometry":{"type":"LineString","coordinates":[[-78.83743,42.85781,600.0],[-78.79311,42.8919,480.0]]},"properties":{"ef_share":0.0,"ef_tj":0.0}},{"type":"Feature","geometry":{"type":"LineString","coordinates":[[-78.79311,42.8919,480.0],[-78.75686,42.91967,240.0]]},"properties":{"ef_share":0.0,"ef_tj":0.0}}]}