{"type":"FeatureCollection","properties":{"icao24":"a81b13","registration":"N621MM","owner_label":"Taylor Swift","combined_co2e_central":7471.4,"fuel_co2_kg":7471.4,"contrail_co2e_central":0.0,"tier":"low"},"features":[{"type":"Feature","geometry":{"type":"LineString","coordinates":[[-86.65677,36.18825,1430.0],[-86.62418,36.25608,3000.0]]},"properties":{"ef_share":0.0,"ef_tj":0.0}},{"type":"Feature","geometry":{"type":"LineString","coordinates":[[-86.62418,36.25608,3000.0],[-86.58468,36.33866,4070.0]]},"properties":{"ef_share":0.0,"ef_tj":0.0}},{"type":"Feature","geometry":{"type":"LineString","coordinates":[[-86.58468,36.33866,4070.0],[-86.54068,36.43098,5320.0]]},"properties":{"ef_share":0.0,"ef_tj":0.0}},{"type":"Feature","geometry":{"type":"LineString","coordinates":[[-86.54068,36.43098,5320.0],[-86.49338,36.53002,6430.0]]},"properties":{"ef_share":0.0,"ef_tj":0.0}},{"type":"Feature","geometry":{"type":"LineString","coordinates":[[-86.49338,36.53002,6430.0],[-86.48037,36.63462,7010.0]]},"properties":{"ef_share":0.0,"ef_tj":0.0}},{"type":"Feature","geometry":{"type":"LineString","coordinates":[[-86.48037,36.63462,7010.0],[-86.47852,36.74025,7130.0]]},"properties":{"ef_share":0.0,"ef_tj":0.0}},{"type":"Feature","geometry":{"type":"LineString","coordinates":[[-86.47852,36.74025,7130.0],[-86.47564,36.84934,8030.0]]},"properties":{"ef_share":0.0,"ef_tj":0.0}},{"type":"Feature","geometry":{"type":"LineString","coordinates":[[-86.47564,36.84934,8030.0],[-86.46355,36.96509,8800.0]]},"properties":{"ef_share":0.0,"ef_tj":0.0}},{"type":"Feature","geometry":{"type":"LineString","coordinates":[[-86.46355,36.96509,8800.0],[-86.39237,37.08174,9470.0]]},"properties":{"ef_share":0.0,"ef_tj":0.0}},{"type":"Feature","geometry":{"type":"LineString","coordinates":[[-86.39237,37.08174,9470.0],[-86.26536,37.18035,10190.0]]},"properties":{"ef_share":0.0,"ef_tj":0.0}},{"type":"Feature","geometry":{"type":"LineString","coordinates":[[-86.26536,37.18035,10190.0],[-86.12759,37.27196,10570.0]]},"properties":{"ef_share":0.0,"ef_tj":0.0}},{"type":"Feature","geometry":{"type":"LineString","coordinates":[[-86.12759,37.27196,10570.0],[-85.99028,37.36433,10670.0]]},"properties":{"ef_share":0.0,"ef_tj":0.0}},{"type":"Feature","geometry":{"type":"LineString","coordinates":[[-85.99028,37.36433,10670.0],[-85.85265,37.45743,10670.0]]},"properties":{"ef_share":0.0,"ef_tj":0.0}},{"type":"Feature","geometry":{"type":"LineString","coordinates":[[-85.85265,37.45743,10670.0],[-85.72371,37.55557,10670.0]]},"properties":{"ef_share":0.0,"ef_tj":0.0}},{"type":"Feature","geometry":{"type":"LineString","coordinates":[[-85.72371,37.55557,10670.0],[-85.59545,37.65374,10680.0]]},"properties":{"ef_share":0.0,"ef_tj":0.0}},{"type":"Feature","geometry":{"type":"LineString","coordinates":[[-85.59545,37.65374,10680.0],[-85.46719,37.75302,11010.0]]},"properties":{"ef_share":0.0,"ef_tj":0.0}},{"type":"Feature","geometry":{"type":"LineString","coordinates":[[-85.46719,37.75302,11010.0],[-85.33776,37.85288,11580.0]]},"properties":{"ef_share":0.0,"ef_tj":0.0}},{"type":"Feature","geometry":{"type":"LineString","coordinates":[[-85.33776,37.85288,11580.0],[-85.21182,37.94974,11890.0]]},"properties":{"ef_share":0.0,"ef_tj":0.0}},{"type":"Feature","geometry":{"type":"LineString","coordinates":[[-85.21182,37.94974,11890.0],[-85.08317,38.04833,11890.0]]},"properties":{"ef_share":0.0,"ef_tj":0.0}},{"type":"Feature","geometry":{"type":"LineString","coordinates":[[-85.08317,38.04833,11890.0],[-84.94942,38.15027,11890.0]]},"properties":{"ef_share":0.0,"ef_tj":0.0}},{"type":"Feature","geometry":{"type":"LineString","coordinates":[[-84.94942,38.15027,11890.0],[-84.81461,38.25261,11890.0]]},"properties":{"ef_share":0.0,"ef_tj":0.0}},{"type":"Feature","geometry":{"type":"LineString","coordinates":[[-84.81461,38.25261,11890.0],[-84.6818,38.353,11890.0]]},"properties":{"ef_share":0.0,"ef_tj":0.0}},{"type":"Feature","geometry":{"type":"LineString","coordinates":[[-84.6818,38.353,11890.0],[-84.54991,38.45228,11890.0]]},"properties":{"ef_share":0.0,"ef_tj":0.0}},{"type":"Feature","geometry":{"type":"LineString","coordinates":[[-84.54991,38.45228,11890.0],[-84.41802,38.55117,11890.0]]},"properties":{"ef_share":0.0,"ef_tj":0.0}},{"type":"Feature","geometry":{"type":"LineString","coordinates":[[-84.41802,38.55117,11890.0],[-84.28614,38.64957,11890.0]]},"properties":{"ef_share":0.0,"ef_tj":0.0}},{"type":"Feature","geometry":{"type":"LineString","coordinates":[[-84.28614,38.64957,11890.0],[-84.15334,38.74833,11890.0]]},"properties":{"ef_share":0.0,"ef_tj":0.0}},{"type":"Feature","geometry":{"type":"LineString","coordinates":[[-84.15334,38.74833,11890.0],[-84.01813,38.84828,11890.0]]},"properties":{"ef_share":0.0,"ef_tj":0.0}},{"type":"Feature","geometry":{"type":"LineString","coordinates":[[-84.01813,38.84828,11890.0],[-83.8836,38.94744,11890.0]]},"properties":{"ef_share":0.0,"ef_tj":0.0}},{"type":"Feature","geometry":{"type":"LineString","coordinates":[[-83.8836,38.94744,11890.0],[-83.7471,39.0475,11890.0]]},"properties":{"ef_share":0.0,"ef_tj":0.0}},{"type":"Feature","geometry":{"type":"LineString","coordinates":[[-83.7471,39.0475,11890.0],[-83.61216,39.1461,11890.0]]},"properties":{"ef_share":0.0,"ef_tj":0.0}},{"type":"Feature","geometry":{"type":"LineString","coordinates":[[-83.61216,39.1461,11890.0],[-83.47607,39.24504,11890.0]]},"properties":{"ef_share":0.0,"ef_tj":0.0}},{"type":"Feature","geometry":{"type":"LineString","coordinates":[[-83.47607,39.24504,11890.0],[-83.3387,39.3444,11890.0]]},"properties":{"ef_share":0.0,"ef_tj":0.0}},{"type":"Feature","geometry":{"type":"LineString","coordinates":[[-83.3387,39.3444,11890.0],[-83.20224,39.44279,11890.0]]},"properties":{"ef_share":0.0,"ef_tj":0.0}},{"type":"Feature","geometry":{"type":"LineString","coordinates":[[-83.20224,39.44279,11890.0],[-83.06466,39.54154,11890.0]]},"properties":{"ef_share":0.0,"ef_tj":0.0}},{"type":"Feature","geometry":{"type":"LineString","coordinates":[[-83.06466,39.54154,11890.0],[-82.92504,39.64122,11890.0]]},"properties":{"ef_share":0.0,"ef_tj":0.0}},{"type":"Feature","geometry":{"type":"LineString","coordinates":[[-82.92504,39.64122,11890.0],[-82.78644,39.73982,11890.0]]},"properties":{"ef_share":0.0,"ef_tj":0.0}},{"type":"Feature","geometry":{"type":"LineString","coordinates":[[-82.78644,39.73982,11890.0],[-82.64584,39.83934,11890.0]]},"properties":{"ef_share":0.0,"ef_tj":0.0}},{"type":"Feature","geometry":{"type":"LineString","coordinates":[[-82.64584,39.83934,11890.0],[-82.50493,39.93862,11890.0]]},"properties":{"ef_share":0.0,"ef_tj":0.0}},{"type":"Feature","geometry":{"type":"LineString","coordinates":[[-82.50493,39.93862,11890.0],[-82.3642,40.03732,11890.0]]},"properties":{"ef_share":0.0,"ef_tj":0.0}},{"type":"Feature","geometry":{"type":"LineString","coordinates":[[-82.3642,40.03732,11890.0],[-82.22319,40.1357,11890.0]]},"properties":{"ef_share":0.0,"ef_tj":0.0}},{"type":"Feature","geometry":{"type":"LineString","coordinates":[[-82.22319,40.1357,11890.0],[-82.08193,40.23381,11890.0]]},"properties":{"ef_share":0.0,"ef_tj":0.0}},{"type":"Feature","geometry":{"type":"LineString","coordinates":[[-82.08193,40.23381,11890.0],[-81.941,40.3313,11890.0]]},"properties":{"ef_share":0.0,"ef_tj":0.0}},{"type":"Feature","geometry":{"type":"LineString","coordinates":[[-81.941,40.3313,11890.0],[-81.80036,40.42807,11890.0]]},"properties":{"ef_share":0.0,"ef_tj":0.0}},{"type":"Feature","geometry":{"type":"LineString","coordinates":[[-81.80036,40.42807,11890.0],[-81.65957,40.52456,11890.0]]},"properties":{"ef_share":0.0,"ef_tj":0.0}},{"type":"Feature","geometry":{"type":"LineString","coordinates":[[-81.65957,40.52456,11890.0],[-81.51895,40.62052,11890.0]]},"properties":{"ef_share":0.0,"ef_tj":0.0}},{"type":"Feature","geometry":{"type":"LineString","coordinates":[[-81.51895,40.62052,11890.0],[-81.37754,40.71648,11890.0]]},"properties":{"ef_share":0.0,"ef_tj":0.0}},{"type":"Feature","geometry":{"type":"LineString","coordinates":[[-81.37754,40.71648,11890.0],[-81.23471,40.81298,11890.0]]},"properties":{"ef_share":0.0,"ef_tj":0.0}},{"type":"Feature","geometry":{"type":"LineString","coordinates":[[-81.23471,40.81298,11890.0],[-81.09253,40.90865,11890.0]]},"properties":{"ef_share":0.0,"ef_tj":0.0}},{"type":"Feature","geometry":{"type":"LineString","coordinates":[[-81.09253,40.90865,11890.0],[-80.94955,41.00432,11890.0]]},"properties":{"ef_share":0.0,"ef_tj":0.0}},{"type":"Feature","geometry":{"type":"LineString","coordinates":[[-80.94955,41.00432,11890.0],[-80.80645,41.09964,11890.0]]},"properties":{"ef_share":0.0,"ef_tj":0.0}},{"type":"Feature","geometry":{"type":"LineString","coordinates":[[-80.80645,41.09964,11890.0],[-80.66468,41.19364,11890.0]]},"properties":{"ef_share":0.0,"ef_tj":0.0}},{"type":"Feature","geometry":{"type":"LineString","coordinates":[[-80.66468,41.19364,11890.0],[-80.52326,41.28704,11890.0]]},"properties":{"ef_share":0.0,"ef_tj":0.0}},{"type":"Feature","geometry":{"type":"LineString","coordinates":[[-80.52326,41.28704,11890.0],[-80.37945,41.38148,11890.0]]},"properties":{"ef_share":0.0,"ef_tj":0.0}},{"type":"Feature","geometry":{"type":"LineString","coordinates":[[-80.37945,41.38148,11890.0],[-80.23497,41.47586,11890.0]]},"properties":{"ef_share":0.0,"ef_tj":0.0}},{"type":"Feature","geometry":{"type":"LineString","coordinates":[[-80.23497,41.47586,11890.0],[-80.09118,41.56935,11890.0]]},"properties":{"ef_share":0.0,"ef_tj":0.0}},{"type":"Feature","geometry":{"type":"LineString","coordinates":[[-80.09118,41.56935,11890.0],[-79.94562,41.66211,11890.0]]},"properties":{"ef_share":0.0,"ef_tj":0.0}},{"type":"Feature","geometry":{"type":"LineString","coordinates":[[-79.94562,41.66211,11890.0],[-79.7812,41.73012,11890.0]]},"properties":{"ef_share":0.0,"ef_tj":0.0}},{"type":"Feature","geometry":{"type":"LineString","coordinates":[[-79.7812,41.73012,11890.0],[-79.59574,41.7625,11890.0]]},"properties":{"ef_share":0.0,"ef_tj":0.0}},{"type":"Feature","geometry":{"type":"LineString","coordinates":[[-79.59574,41.7625,11890.0],[-79.40409,41.77547,11890.0]]},"properties":{"ef_share":0.0,"ef_tj":0.0}},{"type":"Feature","geometry":{"type":"LineString","coordinates":[[-79.40409,41.77547,11890.0],[-79.21212,41.78776,11890.0]]},"properties":{"ef_share":0.0,"ef_tj":0.0}},{"type":"Feature","geometry":{"type":"LineString","coordinates":[[-79.21212,41.78776,11890.0],[-79.01972,41.79968,11890.0]]},"properties":{"ef_share":0.0,"ef_tj":0.0}},{"type":"Feature","geometry":{"type":"LineString","coordinates":[[-79.01972,41.79968,11890.0],[-78.82571,41.8113,11890.0]]},"properties":{"ef_share":0.0,"ef_tj":0.0}},{"type":"Feature","geometry":{"type":"LineString","coordinates":[[-78.82571,41.8113,11890.0],[-78.6309,41.82276,11890.0]]},"properties":{"ef_share":0.0,"ef_tj":0.0}},{"type":"Feature","geometry":{"type":"LineString","coordinates":[[-78.6309,41.82276,11890.0],[-78.43035,41.83415,11890.0]]},"properties":{"ef_share":0.0,"ef_tj":0.0}},{"type":"Feature","geometry":{"type":"LineString","coordinates":[[-78.43035,41.83415,11890.0],[-78.23083,41.84511,11870.0]]},"properties":{"ef_share":0.0,"ef_tj":0.0}},{"type":"Feature","geometry":{"type":"LineString","coordinates":[[-78.23083,41.84511,11870.0],[-78.03161,41.85571,11260.0]]},"properties":{"ef_share":0.0,"ef_tj":0.0}},{"type":"Feature","geometry":{"type":"LineString","coordinates":[[-78.03161,41.85571,11260.0],[-77.83356,41.85509,10670.0]]},"properties":{"ef_share":0.0,"ef_tj":0.0}},{"type":"Feature","geometry":{"type":"LineString","coordinates":[[-77.83356,41.85509,10670.0],[-77.64103,41.80919,10670.0]]},"properties":{"ef_share":0.0,"ef_tj":0.0}},{"type":"Feature","geometry":{"type":"LineString","coordinates":[[-77.64103,41.80919,10670.0],[-77.44971,41.7585,10670.0]]},"properties":{"ef_share":0.0,"ef_tj":0.0}},{"type":"Feature","geometry":{"type":"LineString","coordinates":[[-77.44971,41.7585,10670.0],[-77.25924,41.70756,10480.0]]},"properties":{"ef_share":0.0,"ef_tj":0.0}},{"type":"Feature","geometry":{"type":"LineString","coordinates":[[-77.25924,41.70756,10480.0],[-77.0707,41.65677,10190.0]]},"properties":{"ef_share":0.0,"ef_tj":0.0}},{"type":"Feature","geometry":{"type":"LineString","coordinates":[[-77.0707,41.65677,10190.0],[-76.88144,41.6054,9890.0]]},"properties":{"ef_share":0.0,"ef_tj":0.0}},{"type":"Feature","geometry":{"type":"LineString","coordinates":[[-76.88144,41.6054,9890.0],[-76.69147,41.55342,9590.0]]},"properties":{"ef_share":0.0,"ef_tj":0.0}},{"type":"Feature","geometry":{"type":"LineString","coordinates":[[-76.69147,41.55342,9590.0],[-76.50383,41.50168,9280.0]]},"properties":{"ef_share":0.0,"ef_tj":0.0}},{"type":"Feature","geometry":{"type":"LineString","coordinates":[[-76.50383,41.50168,9280.0],[-76.31766,41.44994,8740.0]]},"properties":{"ef_share":0.0,"ef_tj":0.0}},{"type":"Feature","geometry":{"type":"LineString","coordinates":[[-76.31766,41.44994,8740.0],[-76.14026,41.40036,7910.0]]},"properties":{"ef_share":0.0,"ef_tj":0.0}},{"type":"Feature","geometry":{"type":"LineString","coordinates":[[-76.14026,41.40036,7910.0],[-75.97388,41.35347,7130.0]]},"properties":{"ef_share":0.0,"ef_tj":0.0}},{"type":"Feature","geometry":{"type":"LineString","coordinates":[[-75.97388,41.35347,7130.0],[-75.81636,41.30888,6400.0]]},"properties":{"ef_share":0.0,"ef_tj":0.0}},{"type":"Feature","geometry":{"type":"LineString","coordinates":[[-75.81636,41.30888,6400.0],[-75.66557,41.2647,5670.0]]},"properties":{"ef_share":0.0,"ef_tj":0.0}},{"type":"Feature","geometry":{"type":"LineString","coordinates":[[-75.66557,41.2647,5670.0],[-75.5227,41.21703,4850.0]]},"properties":{"ef_share":0.0,"ef_tj":0.0}},{"type":"Feature","geometry":{"type":"LineString","coordinates":[[-75.5227,41.21703,4850.0],[-75.38826,41.17193,4110.0]]},"properties":{"ef_share":0.0,"ef_tj":0.0}},{"type":"Feature","geometry":{"type":"LineString","coordinates":[[-75.38826,41.17193,4110.0],[-75.26998,41.13207,3460.0]]},"properties":{"ef_share":0.0,"ef_tj":0.0}},{"type":"Feature","geometry":{"type":"LineString","coordinates":[[-75.26998,41.13207,3460.0],[-75.15969,41.09473,2840.0]]},"properties":{"ef_share":0.0,"ef_tj":0.0}},{"type":"Feature","geometry":{"type":"LineString","coordinates":[[-75.15969,41.09473,2840.0],[-75.05022,41.05761,2230.0]]},"properties":{"ef_share":0.0,"ef_tj":0.0}},{"type":"Feature","geometry":{"type":"LineString","coordinates":[[-75.05022,41.05761,2230.0],[-74.94337,41.02114,1880.0]]},"properties":{"ef_share":0.0,"ef_tj":0.0}},{"type":"Feature","geometry":{"type":"LineString","coordinates":[[-74.94337,41.02114,1880.0],[-74.83913,40.98563,1810.0]]},"properties":{"ef_share":0.0,"ef_tj":0.0}},{"type":"Feature","geometry":{"type":"LineString","coordinates":[[-74.83913,40.98563,1810.0],[-74.73408,40.95129,1500.0]]},"properties":{"ef_share":0.0,"ef_tj":0.0}},{"type":"Feature","geometry":{"type":"LineString","coordinates":[[-74.73408,40.95129,1500.0],[-74.62812,40.93696,1110.0]]},"properties":{"ef_share":0.0,"ef_tj":0.0}},{"type":"Feature","geometry":{"type":"LineString","coordinates":[[-74.62812,40.93696,1110.0],[-74.52385,40.94222,970.0]]},"properties":{"ef_share":0.0,"ef_tj":0.0}},{"type":"Feature","geometry":{"type":"LineString","coordinates":[[-74.52385,40.94222,970.0],[-74.43094,40.92122,810.0]]},"properties":{"ef_share":0.0,"ef_tj":0.0}},{"type":"Feature","geometry":{"type":"LineString","coordinates":[[-74.43094,40.92122,810.0],[-74.36175,40.89404,590.0]]},"properties":{"ef_share":0.0,"ef_tj":0.0}},{"type":"Feature","geometry":{"type":"LineString","coordinates":[[-74.36175,40.89404,590.0],[-74.35658,40.85737,450.0]]},"properties":{"ef_share":0.0,"ef_tj":0.0}},{"type":"Feature","geometry":{"type":"LineString","coordinates":[[-74.35658,40.85737,450.0],[-74.38342,40.83021,270.0]]},"properties":{"ef_share":0.0,"ef_tj":0.0}}]}