{"type":"FeatureCollection","properties":{"icao24":"a81b13","registration":"N621MM","owner_label":"Taylor Swift","combined_co2e_central":5787.7,"fuel_co2_kg":4794.3,"contrail_co2e_central":993.4,"tier":"low"},"features":[{"type":"Feature","geometry":{"type":"LineString","coordinates":[[-86.73483,36.11018,1110.0],[-86.81531,36.13605,2810.0]]},"properties":{"ef_share":0.0,"ef_tj":0.0}},{"type":"Feature","geometry":{"type":"LineString","coordinates":[[-86.81531,36.13605,2810.0],[-86.90832,36.16656,3890.0]]},"properties":{"ef_share":0.0,"ef_tj":0.0}},{"type":"Feature","geometry":{"type":"LineString","coordinates":[[-86.90832,36.16656,3890.0],[-87.01449,36.20177,5290.0]]},"properties":{"ef_share":0.0,"ef_tj":0.0}},{"type":"Feature","geometry":{"type":"LineString","coordinates":[[-87.01449,36.20177,5290.0],[-87.12603,36.23865,6520.0]]},"properties":{"ef_share":0.0,"ef_tj":0.0}},{"type":"Feature","geometry":{"type":"LineString","coordinates":[[-87.12603,36.23865,6520.0],[-87.24598,36.27413,7730.0]]},"properties":{"ef_share":0.0,"ef_tj":0.0}},{"type":"Feature","geometry":{"type":"LineString","coordinates":[[-87.24598,36.27413,7730.0],[-87.37378,36.29691,8690.0]]},"properties":{"ef_share":0.0,"ef_tj":0.0}},{"type":"Feature","geometry":{"type":"LineString","coordinates":[[-87.37378,36.29691,8690.0],[-87.50702,36.32103,9490.0]]},"properties":{"ef_share":0.0,"ef_tj":0.0}},{"type":"Feature","geometry":{"type":"LineString","coordinates":[[-87.50702,36.32103,9490.0],[-87.63776,36.3488,10470.0]]},"properties":{"ef_share":0.0,"ef_tj":0.0}},{"type":"Feature","geometry":{"type":"LineString","coordinates":[[-87.63776,36.3488,10470.0],[-87.75845,36.38832,11260.0]]},"properties":{"ef_share":0.0,"ef_tj":0.0}},{"type":"Feature","geometry":{"type":"LineString","coordinates":[[-87.75845,36.38832,11260.0],[-87.8784,36.43608,11700.0]]},"properties":{"ef_share":0.0,"ef_tj":0.0}},{"type":"Feature","geometry":{"type":"LineString","coordinates":[[-87.8784,36.43608,11700.0],[-87.99884,36.48413,12180.0]]},"properties":{"ef_share":0.0,"ef_tj":0.0}},{"type":"Feature","geometry":{"type":"LineString","coordinates":[[-87.99884,36.48413,12180.0],[-88.12375,36.53384,12190.0]]},"properties":{"ef_share":0.0,"ef_tj":0.0}},{"type":"Feature","geometry":{"type":"LineString","coordinates":[[-88.12375,36.53384,12190.0],[-88.24989,36.58382,12200.0]]},"properties":{"ef_share":0.0,"ef_tj":0.0}},{"type":"Feature","geometry":{"type":"LineString","coordinates":[[-88.24989,36.58382,12200.0],[-88.37734,36.63402,12190.0]]},"properties":{"ef_share":0.0,"ef_tj":0.0}},{"type":"Feature","geometry":{"type":"LineString","coordinates":[[-88.37734,36.63402,12190.0],[-88.5046,36.68404,12190.0]]},"properties":{"ef_share":0.0,"ef_tj":0.0}},{"type":"Feature","geometry":{"type":"LineString","coordinates":[[-88.5046,36.68404,12190.0],[-88.63328,36.73433,12190.0]]},"properties":{"ef_share":0.0,"ef_tj":0.0}},{"type":"Feature","geometry":{"type":"LineString","coordinates":[[-88.63328,36.73433,12190.0],[-88.76318,36.78491,12190.0]]},"properties":{"ef_share":0.0,"ef_tj":0.0}},{"type":"Feature","geometry":{"type":"LineString","coordinates":[[-88.76318,36.78491,12190.0],[-88.89509,36.83611,12190.0]]},"properties":{"ef_share":0.0,"ef_tj":0.0}},{"type":"Feature","geometry":{"type":"LineString","coordinates":[[-88.89509,36.83611,12190.0],[-89.02729,36.88714,12190.0]]},"properties":{"ef_share":0.0,"ef_tj":0.0}},{"type":"Feature","geometry":{"type":"LineString","coordinates":[[-89.02729,36.88714,12190.0],[-89.16077,36.93856,12190.0]]},"properties":{"ef_share":0.0,"ef_tj":0.0}},{"type":"Feature","geometry":{"type":"LineString","coordinates":[[-89.16077,36.93856,12190.0],[-89.29543,36.9902,12190.0]]},"properties":{"ef_share":0.0,"ef_tj":0.0}},{"type":"Feature","geometry":{"type":"LineString","coordinates":[[-89.29543,36.9902,12190.0],[-89.43085,37.04182,12190.0]]},"properties":{"ef_share":0.0,"ef_tj":0.0}},{"type":"Feature","geometry":{"type":"LineString","coordinates":[[-89.43085,37.04182,12190.0],[-89.56578,37.093,12190.0]]},"properties":{"ef_share":0.0,"ef_tj":0.0}},{"type":"Feature","geometry":{"type":"LineString","coordinates":[[-89.56578,37.093,12190.0],[-89.70517,37.13464,12190.0]]},"properties":{"ef_share":0.0,"ef_tj":0.0}},{"type":"Feature","geometry":{"type":"LineString","coordinates":[[-89.70517,37.13464,12190.0],[-89.8465,37.17215,12190.0]]},"properties":{"ef_share":0.0,"ef_tj":0.0}},{"type":"Feature","geometry":{"type":"LineString","coordinates":[[-89.8465,37.17215,12190.0],[-89.98798,37.20908,12190.0]]},"properties":{"ef_share":0.0,"ef_tj":0.0}},{"type":"Feature","geometry":{"type":"LineString","coordinates":[[-89.98798,37.20908,12190.0],[-90.13069,37.24608,12190.0]]},"properties":{"ef_share":0.0,"ef_tj":0.0}},{"type":"Feature","geometry":{"type":"LineString","coordinates":[[-90.13069,37.24608,12190.0],[-90.27324,37.28285,12190.0]]},"properties":{"ef_share":0.0,"ef_tj":0.0}},{"type":"Feature","geometry":{"type":"LineString","coordinates":[[-90.27324,37.28285,12190.0],[-90.41572,37.31939,12190.0]]},"properties":{"ef_share":0.0,"ef_tj":0.0}},{"type":"Feature","geometry":{"type":"LineString","coordinates":[[-90.41572,37.31939,12190.0],[-90.5555,37.35498,12190.0]]},"properties":{"ef_share":0.0,"ef_tj":0.0}},{"type":"Feature","geometry":{"type":"LineString","coordinates":[[-90.5555,37.35498,12190.0],[-90.69439,37.39021,12190.0]]},"properties":{"ef_share":0.0,"ef_tj":0.0}},{"type":"Feature","geometry":{"type":"LineString","coordinates":[[-90.69439,37.39021,12190.0],[-90.83204,37.42494,12190.0]]},"properties":{"ef_share":0.0,"ef_tj":0.0}},{"type":"Feature","geometry":{"type":"LineString","coordinates":[[-90.83204,37.42494,12190.0],[-90.96893,37.45924,12190.0]]},"properties":{"ef_share":0.0,"ef_tj":0.0}},{"type":"Feature","geometry":{"type":"LineString","coordinates":[[-90.96893,37.45924,12190.0],[-91.10455,37.49306,12190.0]]},"properties":{"ef_share":0.0,"ef_tj":0.0}},{"type":"Feature","geometry":{"type":"LineString","coordinates":[[-91.10455,37.49306,12190.0],[-91.23934,37.52647,12190.0]]},"properties":{"ef_share":0.0,"ef_tj":0.0}},{"type":"Feature","geometry":{"type":"LineString","coordinates":[[-91.23934,37.52647,12190.0],[-91.37458,37.55981,12190.0]]},"properties":{"ef_share":0.0,"ef_tj":0.0}},{"type":"Feature","geometry":{"type":"LineString","coordinates":[[-91.37458,37.55981,12190.0],[-91.50873,37.5927,12190.0]]},"properties":{"ef_share":0.0,"ef_tj":0.0}},{"type":"Feature","geometry":{"type":"LineString","coordinates":[[-91.50873,37.5927,12190.0],[-91.64313,37.6255,12190.0]]},"properties":{"ef_share":0.0,"ef_tj":0.0}},{"type":"Feature","geometry":{"type":"LineString","coordinates":[[-91.64313,37.6255,12190.0],[-91.77864,37.65838,12190.0]]},"properties":{"ef_share":0.0,"ef_tj":0.0}},{"type":"Feature","geometry":{"type":"LineString","coordinates":[[-91.77864,37.65838,12190.0],[-91.91429,37.69112,12190.0]]},"properties":{"ef_share":0.0,"ef_tj":0.0}},{"type":"Feature","geometry":{"type":"LineString","coordinates":[[-91.91429,37.69112,12190.0],[-92.05003,37.72367,12190.0]]},"properties":{"ef_share":0.0,"ef_tj":0.0}},{"type":"Feature","geometry":{"type":"LineString","coordinates":[[-92.05003,37.72367,12190.0],[-92.18761,37.75652,12190.0]]},"properties":{"ef_share":0.0,"ef_tj":0.0}},{"type":"Feature","geometry":{"type":"LineString","coordinates":[[-92.18761,37.75652,12190.0],[-92.32539,37.78921,12120.0]]},"properties":{"ef_share":0.0,"ef_tj":0.0}},{"type":"Feature","geometry":{"type":"LineString","coordinates":[[-92.32539,37.78921,12120.0],[-92.46017,37.8209,11630.0]]},"properties":{"ef_share":0.0,"ef_tj":0.0}},{"type":"Feature","geometry":{"type":"LineString","coordinates":[[-92.46017,37.8209,11630.0],[-92.59812,37.85332,11290.0]]},"properties":{"ef_share":0.0,"ef_tj":0.0}},{"type":"Feature","geometry":{"type":"LineString","coordinates":[[-92.59812,37.85332,11290.0],[-92.73506,37.88519,11090.0]]},"properties":{"ef_share":0.0,"ef_tj":0.0}},{"type":"Feature","geometry":{"type":"LineString","coordinates":[[-92.73506,37.88519,11090.0],[-92.87235,37.91704,10750.0]]},"properties":{"ef_share":0.0,"ef_tj":0.0}},{"type":"Feature","geometry":{"type":"LineString","coordinates":[[-92.87235,37.91704,10750.0],[-93.00662,37.94797,10670.0]]},"properties":{"ef_share":0.0,"ef_tj":0.0}},{"type":"Feature","geometry":{"type":"LineString","coordinates":[[-93.00662,37.94797,10670.0],[-93.14068,37.9787,10540.0]]},"properties":{"ef_share":0.0,"ef_tj":0.0}},{"type":"Feature","geometry":{"type":"LineString","coordinates":[[-93.14068,37.9787,10540.0],[-93.27668,38.00963,10230.0]]},"properties":{"ef_share":0.005,"ef_tj":0.017691}},{"type":"Feature","geometry":{"type":"LineString","coordinates":[[-93.27668,38.00963,10230.0],[-93.41624,38.04116,9920.0]]},"properties":{"ef_share":1.0,"ef_tj":3.473504}},{"type":"Feature","geometry":{"type":"LineString","coordinates":[[-93.41624,38.04116,9920.0],[-93.55581,38.07342,8910.0]]},"properties":{"ef_share":0.0,"ef_tj":0.0}},{"type":"Feature","geometry":{"type":"LineString","coordinates":[[-93.55581,38.07342,8910.0],[-93.68349,38.12608,7820.0]]},"properties":{"ef_share":0.0,"ef_tj":0.0}},{"type":"Feature","geometry":{"type":"LineString","coordinates":[[-93.68349,38.12608,7820.0],[-93.78788,38.20281,7210.0]]},"properties":{"ef_share":0.0,"ef_tj":0.0}},{"type":"Feature","geometry":{"type":"LineString","coordinates":[[-93.78788,38.20281,7210.0],[-93.86288,38.29991,6420.0]]},"properties":{"ef_share":0.0,"ef_tj":0.0}},{"type":"Feature","geometry":{"type":"LineString","coordinates":[[-93.86288,38.29991,6420.0],[-93.9204,38.39909,5780.0]]},"properties":{"ef_share":0.0,"ef_tj":0.0}},{"type":"Feature","geometry":{"type":"LineString","coordinates":[[-93.9204,38.39909,5780.0],[-93.98373,38.50968,5030.0]]},"properties":{"ef_share":0.0,"ef_tj":0.0}},{"type":"Feature","geometry":{"type":"LineString","coordinates":[[-93.98373,38.50968,5030.0],[-94.04767,38.62108,4280.0]]},"properties":{"ef_share":0.0,"ef_tj":0.0}},{"type":"Feature","geometry":{"type":"LineString","coordinates":[[-94.04767,38.62108,4280.0],[-94.12616,38.71775,3780.0]]},"properties":{"ef_share":0.0,"ef_tj":0.0}},{"type":"Feature","geometry":{"type":"LineString","coordinates":[[-94.12616,38.71775,3780.0],[-94.23818,38.77449,3440.0]]},"properties":{"ef_share":0.0,"ef_tj":0.0}},{"type":"Feature","geometry":{"type":"LineString","coordinates":[[-94.23818,38.77449,3440.0],[-94.34564,38.81382,3020.0]]},"properties":{"ef_share":0.0,"ef_tj":0.0}},{"type":"Feature","geometry":{"type":"LineString","coordinates":[[-94.34564,38.81382,3020.0],[-94.43333,38.84536,2680.0]]},"properties":{"ef_share":0.0,"ef_tj":0.0}},{"type":"Feature","geometry":{"type":"LineString","coordinates":[[-94.43333,38.84536,2680.0],[-94.52367,38.87773,2210.0]]},"properties":{"ef_share":0.0,"ef_tj":0.0}},{"type":"Feature","geometry":{"type":"LineString","coordinates":[[-94.52367,38.87773,2210.0],[-94.61385,38.91011,1800.0]]},"properties":{"ef_share":0.0,"ef_tj":0.0}},{"type":"Feature","geometry":{"type":"LineString","coordinates":[[-94.61385,38.91011,1800.0],[-94.70138,38.94138,1370.0]]},"properties":{"ef_share":0.0,"ef_tj":0.0}},{"type":"Feature","geometry":{"type":"LineString","coordinates":[[-94.70138,38.94138,1370.0],[-94.76698,38.98552,1140.0]]},"properties":{"ef_share":0.0,"ef_tj":0.0}},{"type":"Feature","geometry":{"type":"LineString","coordinates":[[-94.76698,38.98552,1140.0],[-94.70776,39.0292,930.0]]},"properties":{"ef_share":0.0,"ef_tj":0.0}},{"type":"Feature","geometry":{"type":"LineString","coordinates":[[-94.70776,39.0292,930.0],[-94.65582,39.0576,750.0]]},"properties":{"ef_share":0.0,"ef_tj":0.0}},{"type":"Feature","geometry":{"type":"LineString","coordinates":[[-94.65582,39.0576,750.0],[-94.61659,39.07699,460.0]]},"properties":{"ef_share":0.0,"ef_tj":0.0}},{"type":"Feature","geometry":{"type":"LineString","coordinates":[[-94.61659,39.07699,460.0],[-94.59834,39.1043,230.0]]},"properties":{"ef_share":0.0,"ef_tj":0.0}}]}