{"type":"FeatureCollection","properties":{"icao24":"a81b13","registration":"N621MM","owner_label":"Taylor Swift","combined_co2e_central":10215.3,"fuel_co2_kg":4988.6,"contrail_co2e_central":5226.7,"tier":"low"},"features":[{"type":"Feature","geometry":{"type":"LineString","coordinates":[[-86.69247,36.10487,520.0],[-86.76163,36.08352,1070.0]]},"properties":{"ef_share":0.0,"ef_tj":0.0}},{"type":"Feature","geometry":{"type":"LineString","coordinates":[[-86.76163,36.08352,1070.0],[-86.84267,36.09985,1280.0]]},"properties":{"ef_share":0.0,"ef_tj":0.0}},{"type":"Feature","geometry":{"type":"LineString","coordinates":[[-86.84267,36.09985,1280.0],[-86.92506,36.13645,2950.0]]},"properties":{"ef_share":0.0,"ef_tj":0.0}},{"type":"Feature","geometry":{"type":"LineString","coordinates":[[-86.92506,36.13645,2950.0],[-87.02037,36.1795,4010.0]]},"properties":{"ef_share":0.0,"ef_tj":0.0}},{"type":"Feature","geometry":{"type":"LineString","coordinates":[[-87.02037,36.1795,4010.0],[-87.12421,36.22605,5230.0]]},"properties":{"ef_share":0.0,"ef_tj":0.0}},{"type":"Feature","geometry":{"type":"LineString","coordinates":[[-87.12421,36.22605,5230.0],[-87.23447,36.27121,6450.0]]},"properties":{"ef_share":0.0,"ef_tj":0.0}},{"type":"Feature","geometry":{"type":"LineString","coordinates":[[-87.23447,36.27121,6450.0],[-87.35955,36.29301,7560.0]]},"properties":{"ef_share":0.0,"ef_tj":0.0}},{"type":"Feature","geometry":{"type":"LineString","coordinates":[[-87.35955,36.29301,7560.0],[-87.4893,36.31511,8430.0]]},"properties":{"ef_share":0.0,"ef_tj":0.0}},{"type":"Feature","geometry":{"type":"LineString","coordinates":[[-87.4893,36.31511,8430.0],[-87.61765,36.36175,9130.0]]},"properties":{"ef_share":0.0,"ef_tj":0.0}},{"type":"Feature","geometry":{"type":"LineString","coordinates":[[-87.61765,36.36175,9130.0],[-87.74982,36.41415,9780.0]]},"properties":{"ef_share":0.0,"ef_tj":0.0}},{"type":"Feature","geometry":{"type":"LineString","coordinates":[[-87.74982,36.41415,9780.0],[-87.88354,36.46705,10370.0]]},"properties":{"ef_share":0.0,"ef_tj":0.0}},{"type":"Feature","geometry":{"type":"LineString","coordinates":[[-87.88354,36.46705,10370.0],[-88.01545,36.51905,10940.0]]},"properties":{"ef_share":0.0,"ef_tj":0.0}},{"type":"Feature","geometry":{"type":"LineString","coordinates":[[-88.01545,36.51905,10940.0],[-88.14426,36.56956,11570.0]]},"properties":{"ef_share":0.0,"ef_tj":0.0}},{"type":"Feature","geometry":{"type":"LineString","coordinates":[[-88.14426,36.56956,11570.0],[-88.27837,36.62199,11580.0]]},"properties":{"ef_share":0.0,"ef_tj":0.0}},{"type":"Feature","geometry":{"type":"LineString","coordinates":[[-88.27837,36.62199,11580.0],[-88.41451,36.67624,11580.0]]},"properties":{"ef_share":0.0,"ef_tj":0.0}},{"type":"Feature","geometry":{"type":"LineString","coordinates":[[-88.41451,36.67624,11580.0],[-88.5567,36.72052,11580.0]]},"properties":{"ef_share":0.0,"ef_tj":0.0}},{"type":"Feature","geometry":{"type":"LineString","coordinates":[[-88.5567,36.72052,11580.0],[-88.70074,36.76321,11580.0]]},"properties":{"ef_share":0.0,"ef_tj":0.0}},{"type":"Feature","geometry":{"type":"LineString","coordinates":[[-88.70074,36.76321,11580.0],[-88.84498,36.80555,11580.0]]},"properties":{"ef_share":0.0,"ef_tj":0.0}},{"type":"Feature","geometry":{"type":"LineString","coordinates":[[-88.84498,36.80555,11580.0],[-88.99015,36.848,11580.0]]},"properties":{"ef_share":0.0,"ef_tj":0.0}},{"type":"Feature","geometry":{"type":"LineString","coordinates":[[-88.99015,36.848,11580.0],[-89.13367,36.88959,11580.0]]},"properties":{"ef_share":0.0,"ef_tj":0.0}},{"type":"Feature","geometry":{"type":"LineString","coordinates":[[-89.13367,36.88959,11580.0],[-89.27722,36.93108,11580.0]]},"properties":{"ef_share":0.0,"ef_tj":0.0}},{"type":"Feature","geometry":{"type":"LineString","coordinates":[[-89.27722,36.93108,11580.0],[-89.42197,36.97263,11580.0]]},"properties":{"ef_share":0.0,"ef_tj":0.0}},{"type":"Feature","geometry":{"type":"LineString","coordinates":[[-89.42197,36.97263,11580.0],[-89.56658,37.01407,11580.0]]},"properties":{"ef_share":0.0,"ef_tj":0.0}},{"type":"Feature","geometry":{"type":"LineString","coordinates":[[-89.56658,37.01407,11580.0],[-89.70975,37.05469,11580.0]]},"properties":{"ef_share":0.0,"ef_tj":0.0}},{"type":"Feature","geometry":{"type":"LineString","coordinates":[[-89.70975,37.05469,11580.0],[-89.85439,37.09563,11580.0]]},"properties":{"ef_share":0.0,"ef_tj":0.0}},{"type":"Feature","geometry":{"type":"LineString","coordinates":[[-89.85439,37.09563,11580.0],[-90.0,37.13662,11580.0]]},"properties":{"ef_share":0.0,"ef_tj":0.0}},{"type":"Feature","geometry":{"type":"LineString","coordinates":[[-90.0,37.13662,11580.0],[-90.14561,37.17728,11580.0]]},"properties":{"ef_share":0.0,"ef_tj":0.0}},{"type":"Feature","geometry":{"type":"LineString","coordinates":[[-90.14561,37.17728,11580.0],[-90.28997,37.21748,11580.0]]},"properties":{"ef_share":0.0,"ef_tj":0.0}},{"type":"Feature","geometry":{"type":"LineString","coordinates":[[-90.28997,37.21748,11580.0],[-90.43454,37.25747,11580.0]]},"properties":{"ef_share":0.0,"ef_tj":0.0}},{"type":"Feature","geometry":{"type":"LineString","coordinates":[[-90.43454,37.25747,11580.0],[-90.58018,37.29754,11580.0]]},"properties":{"ef_share":0.0,"ef_tj":0.0}},{"type":"Feature","geometry":{"type":"LineString","coordinates":[[-90.58018,37.29754,11580.0],[-90.72533,37.33731,11580.0]]},"properties":{"ef_share":0.0,"ef_tj":0.0}},{"type":"Feature","geometry":{"type":"LineString","coordinates":[[-90.72533,37.33731,11580.0],[-90.87082,37.3769,11580.0]]},"properties":{"ef_share":0.0,"ef_tj":0.0}},{"type":"Feature","geometry":{"type":"LineString","coordinates":[[-90.87082,37.3769,11580.0],[-91.01748,37.41661,11580.0]]},"properties":{"ef_share":0.0,"ef_tj":0.0}},{"type":"Feature","geometry":{"type":"LineString","coordinates":[[-91.01748,37.41661,11580.0],[-91.16369,37.45592,11580.0]]},"properties":{"ef_share":0.0,"ef_tj":0.0}},{"type":"Feature","geometry":{"type":"LineString","coordinates":[[-91.16369,37.45592,11580.0],[-91.30912,37.49483,11580.0]]},"properties":{"ef_share":0.0,"ef_tj":0.0}},{"type":"Feature","geometry":{"type":"LineString","coordinates":[[-91.30912,37.49483,11580.0],[-91.45368,37.53329,11580.0]]},"properties":{"ef_share":0.0,"ef_tj":0.0}},{"type":"Feature","geometry":{"type":"LineString","coordinates":[[-91.45368,37.53329,11580.0],[-91.59841,37.57162,11580.0]]},"properties":{"ef_share":0.0,"ef_tj":0.0}},{"type":"Feature","geometry":{"type":"LineString","coordinates":[[-91.59841,37.57162,11580.0],[-91.74406,37.60996,11580.0]]},"properties":{"ef_share":0.0,"ef_tj":0.0}},{"type":"Feature","geometry":{"type":"LineString","coordinates":[[-91.74406,37.60996,11580.0],[-91.88948,37.64806,11580.0]]},"properties":{"ef_share":0.0,"ef_tj":0.0}},{"type":"Feature","geometry":{"type":"LineString","coordinates":[[-91.88948,37.64806,11580.0],[-92.03348,37.68548,11480.0]]},"properties":{"ef_share":0.0,"ef_tj":0.0}},{"type":"Feature","geometry":{"type":"LineString","coordinates":[[-92.03348,37.68548,11480.0],[-92.17993,37.72335,11280.0]]},"properties":{"ef_share":0.0,"ef_tj":0.0}},{"type":"Feature","geometry":{"type":"LineString","coordinates":[[-92.17993,37.72335,11280.0],[-92.3277,37.76136,11280.0]]},"properties":{"ef_share":0.0,"ef_tj":0.0}},{"type":"Feature","geometry":{"type":"LineString","coordinates":[[-92.3277,37.76136,11280.0],[-92.47579,37.79923,11280.0]]},"properties":{"ef_share":0.0,"ef_tj":0.0}},{"type":"Feature","geometry":{"type":"LineString","coordinates":[[-92.47579,37.79923,11280.0],[-92.62432,37.83701,11280.0]]},"properties":{"ef_share":0.0,"ef_tj":0.0}},{"type":"Feature","geometry":{"type":"LineString","coordinates":[[-92.62432,37.83701,11280.0],[-92.7712,37.87414,11070.0]]},"properties":{"ef_share":0.0,"ef_tj":0.0}},{"type":"Feature","geometry":{"type":"LineString","coordinates":[[-92.7712,37.87414,11070.0],[-92.91595,37.91042,10650.0]]},"properties":{"ef_share":0.0,"ef_tj":0.0}},{"type":"Feature","geometry":{"type":"LineString","coordinates":[[-92.91595,37.91042,10650.0],[-93.06179,37.94681,10220.0]]},"properties":{"ef_share":0.434,"ef_tj":5.563166}},{"type":"Feature","geometry":{"type":"LineString","coordinates":[[-93.06179,37.94681,10220.0],[-93.20946,37.98349,9790.0]]},"properties":{"ef_share":1.0,"ef_tj":12.806477}},{"type":"Feature","geometry":{"type":"LineString","coordinates":[[-93.20946,37.98349,9790.0],[-93.35511,38.01937,9360.0]]},"properties":{"ef_share":0.0,"ef_tj":0.0}},{"type":"Feature","geometry":{"type":"LineString","coordinates":[[-93.35511,38.01937,9360.0],[-93.49791,38.05443,8720.0]]},"properties":{"ef_share":0.0,"ef_tj":0.0}},{"type":"Feature","geometry":{"type":"LineString","coordinates":[[-93.49791,38.05443,8720.0],[-93.63471,38.08776,8060.0]]},"properties":{"ef_share":0.0,"ef_tj":0.0}},{"type":"Feature","geometry":{"type":"LineString","coordinates":[[-93.63471,38.08776,8060.0],[-93.76157,38.1337,7410.0]]},"properties":{"ef_share":0.0,"ef_tj":0.0}},{"type":"Feature","geometry":{"type":"LineString","coordinates":[[-93.76157,38.1337,7410.0],[-93.8254,38.23238,6760.0]]},"properties":{"ef_share":0.0,"ef_tj":0.0}},{"type":"Feature","geometry":{"type":"LineString","coordinates":[[-93.8254,38.23238,6760.0],[-93.88201,38.33179,6120.0]]},"properties":{"ef_share":0.0,"ef_tj":0.0}},{"type":"Feature","geometry":{"type":"LineString","coordinates":[[-93.88201,38.33179,6120.0],[-93.93791,38.42958,5460.0]]},"properties":{"ef_share":0.0,"ef_tj":0.0}},{"type":"Feature","geometry":{"type":"LineString","coordinates":[[-93.93791,38.42958,5460.0],[-93.99356,38.52668,4820.0]]},"properties":{"ef_share":0.0,"ef_tj":0.0}},{"type":"Feature","geometry":{"type":"LineString","coordinates":[[-93.99356,38.52668,4820.0],[-94.0472,38.62014,4220.0]]},"properties":{"ef_share":0.0,"ef_tj":0.0}},{"type":"Feature","geometry":{"type":"LineString","coordinates":[[-94.0472,38.62014,4220.0],[-94.11001,38.70728,3910.0]]},"properties":{"ef_share":0.0,"ef_tj":0.0}},{"type":"Feature","geometry":{"type":"LineString","coordinates":[[-94.11001,38.70728,3910.0],[-94.17092,38.79225,3690.0]]},"properties":{"ef_share":0.0,"ef_tj":0.0}},{"type":"Feature","geometry":{"type":"LineString","coordinates":[[-94.17092,38.79225,3690.0],[-94.22124,38.87958,3480.0]]},"properties":{"ef_share":0.0,"ef_tj":0.0}},{"type":"Feature","geometry":{"type":"LineString","coordinates":[[-94.22124,38.87958,3480.0],[-94.26704,38.95838,2860.0]]},"properties":{"ef_share":0.0,"ef_tj":0.0}},{"type":"Feature","geometry":{"type":"LineString","coordinates":[[-94.26704,38.95838,2860.0],[-94.30724,39.026,1990.0]]},"properties":{"ef_share":0.0,"ef_tj":0.0}},{"type":"Feature","geometry":{"type":"LineString","coordinates":[[-94.30724,39.026,1990.0],[-94.34774,39.09227,1170.0]]},"properties":{"ef_share":0.0,"ef_tj":0.0}},{"type":"Feature","geometry":{"type":"LineString","coordinates":[[-94.34774,39.09227,1170.0],[-94.38088,39.14803,1170.0]]},"properties":{"ef_share":0.0,"ef_tj":0.0}},{"type":"Feature","geometry":{"type":"LineString","coordinates":[[-94.38088,39.14803,1170.0],[-94.40941,39.19571,1170.0]]},"properties":{"ef_share":0.0,"ef_tj":0.0}},{"type":"Feature","geometry":{"type":"LineString","coordinates":[[-94.40941,39.19571,1170.0],[-94.43902,39.24237,1150.0]]},"properties":{"ef_share":0.0,"ef_tj":0.0}},{"type":"Feature","geometry":{"type":"LineString","coordinates":[[-94.43902,39.24237,1150.0],[-94.49988,39.26095,860.0]]},"properties":{"ef_share":0.0,"ef_tj":0.0}},{"type":"Feature","geometry":{"type":"LineString","coordinates":[[-94.49988,39.26095,860.0],[-94.55661,39.24142,840.0]]},"properties":{"ef_share":0.0,"ef_tj":0.0}},{"type":"Feature","geometry":{"type":"LineString","coordinates":[[-94.55661,39.24142,840.0],[-94.57185,39.1972,580.0]]},"properties":{"ef_share":0.0,"ef_tj":0.0}}]}