{"type":"FeatureCollection","properties":{"icao24":"a835af","registration":"N628TS","owner_label":"Elon Musk","combined_co2e_central":7694.8,"fuel_co2_kg":7694.8,"contrail_co2e_central":0.0,"tier":"low"},"features":[{"type":"Feature","geometry":{"type":"LineString","coordinates":[[-80.03128,26.7047,910.0],[-79.96433,26.7497,1980.0]]},"properties":{"ef_share":0.0,"ef_tj":0.0}},{"type":"Feature","geometry":{"type":"LineString","coordinates":[[-79.96433,26.7497,1980.0],[-79.88885,26.80113,3220.0]]},"properties":{"ef_share":0.0,"ef_tj":0.0}},{"type":"Feature","geometry":{"type":"LineString","coordinates":[[-79.88885,26.80113,3220.0],[-79.80686,26.85597,4250.0]]},"properties":{"ef_share":0.0,"ef_tj":0.0}},{"type":"Feature","geometry":{"type":"LineString","coordinates":[[-79.80686,26.85597,4250.0],[-79.69934,26.90636,4930.0]]},"properties":{"ef_share":0.0,"ef_tj":0.0}},{"type":"Feature","geometry":{"type":"LineString","coordinates":[[-79.69934,26.90636,4930.0],[-79.57662,26.96298,5550.0]]},"properties":{"ef_share":0.0,"ef_tj":0.0}},{"type":"Feature","geometry":{"type":"LineString","coordinates":[[-79.57662,26.96298,5550.0],[-79.44596,27.02176,6290.0]]},"properties":{"ef_share":0.0,"ef_tj":0.0}},{"type":"Feature","geometry":{"type":"LineString","coordinates":[[-79.44596,27.02176,6290.0],[-79.34339,27.11977,6750.0]]},"properties":{"ef_share":0.0,"ef_tj":0.0}},{"type":"Feature","geometry":{"type":"LineString","coordinates":[[-79.34339,27.11977,6750.0],[-79.25772,27.23074,7340.0]]},"properties":{"ef_share":0.0,"ef_tj":0.0}},{"type":"Feature","geometry":{"type":"LineString","coordinates":[[-79.25772,27.23074,7340.0],[-79.17138,27.34158,7960.0]]},"properties":{"ef_share":0.0,"ef_tj":0.0}},{"type":"Feature","geometry":{"type":"LineString","coordinates":[[-79.17138,27.34158,7960.0],[-79.08399,27.45336,8580.0]]},"properties":{"ef_share":0.0,"ef_tj":0.0}},{"type":"Feature","geometry":{"type":"LineString","coordinates":[[-79.08399,27.45336,8580.0],[-79.00414,27.56899,9300.0]]},"properties":{"ef_share":0.0,"ef_tj":0.0}},{"type":"Feature","geometry":{"type":"LineString","coordinates":[[-79.00414,27.56899,9300.0],[-78.97633,27.69862,9510.0]]},"properties":{"ef_share":0.0,"ef_tj":0.0}},{"type":"Feature","geometry":{"type":"LineString","coordinates":[[-78.97633,27.69862,9510.0],[-78.95559,27.8303,10090.0]]},"properties":{"ef_share":0.0,"ef_tj":0.0}},{"type":"Feature","geometry":{"type":"LineString","coordinates":[[-78.95559,27.8303,10090.0],[-78.93462,27.96078,10930.0]]},"properties":{"ef_share":0.0,"ef_tj":0.0}},{"type":"Feature","geometry":{"type":"LineString","coordinates":[[-78.93462,27.96078,10930.0],[-78.9145,28.08685,11510.0]]},"properties":{"ef_share":0.0,"ef_tj":0.0}},{"type":"Feature","geometry":{"type":"LineString","coordinates":[[-78.9145,28.08685,11510.0],[-78.89391,28.21504,11820.0]]},"properties":{"ef_share":0.0,"ef_tj":0.0}},{"type":"Feature","geometry":{"type":"LineString","coordinates":[[-78.89391,28.21504,11820.0],[-78.87295,28.34463,12130.0]]},"properties":{"ef_share":0.0,"ef_tj":0.0}},{"type":"Feature","geometry":{"type":"LineString","coordinates":[[-78.87295,28.34463,12130.0],[-78.85199,28.47476,12400.0]]},"properties":{"ef_share":0.0,"ef_tj":0.0}},{"type":"Feature","geometry":{"type":"LineString","coordinates":[[-78.85199,28.47476,12400.0],[-78.83072,28.6058,12680.0]]},"properties":{"ef_share":0.0,"ef_tj":0.0}},{"type":"Feature","geometry":{"type":"LineString","coordinates":[[-78.83072,28.6058,12680.0],[-78.80956,28.73648,12920.0]]},"properties":{"ef_share":0.0,"ef_tj":0.0}},{"type":"Feature","geometry":{"type":"LineString","coordinates":[[-78.80956,28.73648,12920.0],[-78.78773,28.87054,13070.0]]},"properties":{"ef_share":0.0,"ef_tj":0.0}},{"type":"Feature","geometry":{"type":"LineString","coordinates":[[-78.78773,28.87054,13070.0],[-78.76541,29.00709,13230.0]]},"properties":{"ef_share":0.0,"ef_tj":0.0}},{"type":"Feature","geometry":{"type":"LineString","coordinates":[[-78.76541,29.00709,13230.0],[-78.74278,29.14537,13390.0]]},"properties":{"ef_share":0.0,"ef_tj":0.0}},{"type":"Feature","geometry":{"type":"LineString","coordinates":[[-78.74278,29.14537,13390.0],[-78.71999,29.28425,13540.0]]},"properties":{"ef_share":0.0,"ef_tj":0.0}},{"type":"Feature","geometry":{"type":"LineString","coordinates":[[-78.71999,29.28425,13540.0],[-78.69726,29.42212,13690.0]]},"properties":{"ef_share":0.0,"ef_tj":0.0}},{"type":"Feature","geometry":{"type":"LineString","coordinates":[[-78.69726,29.42212,13690.0],[-78.67439,29.56096,13720.0]]},"properties":{"ef_share":0.0,"ef_tj":0.0}},{"type":"Feature","geometry":{"type":"LineString","coordinates":[[-78.67439,29.56096,13720.0],[-78.65147,29.69944,13720.0]]},"properties":{"ef_share":0.0,"ef_tj":0.0}},{"type":"Feature","geometry":{"type":"LineString","coordinates":[[-78.65147,29.69944,13720.0],[-78.6286,29.83725,13720.0]]},"properties":{"ef_share":0.0,"ef_tj":0.0}},{"type":"Feature","geometry":{"type":"LineString","coordinates":[[-78.6286,29.83725,13720.0],[-78.60568,29.97491,13720.0]]},"properties":{"ef_share":0.0,"ef_tj":0.0}},{"type":"Feature","geometry":{"type":"LineString","coordinates":[[-78.60568,29.97491,13720.0],[-78.58284,30.11191,13720.0]]},"properties":{"ef_share":0.0,"ef_tj":0.0}},{"type":"Feature","geometry":{"type":"LineString","coordinates":[[-78.58284,30.11191,13720.0],[-78.55996,30.24849,13720.0]]},"properties":{"ef_share":0.0,"ef_tj":0.0}},{"type":"Feature","geometry":{"type":"LineString","coordinates":[[-78.55996,30.24849,13720.0],[-78.53708,30.38478,13720.0]]},"properties":{"ef_share":0.0,"ef_tj":0.0}},{"type":"Feature","geometry":{"type":"LineString","coordinates":[[-78.53708,30.38478,13720.0],[-78.51412,30.5212,13720.0]]},"properties":{"ef_share":0.0,"ef_tj":0.0}},{"type":"Feature","geometry":{"type":"LineString","coordinates":[[-78.51412,30.5212,13720.0],[-78.49101,30.65826,13720.0]]},"properties":{"ef_share":0.0,"ef_tj":0.0}},{"type":"Feature","geometry":{"type":"LineString","coordinates":[[-78.49101,30.65826,13720.0],[-78.46759,30.7967,13720.0]]},"properties":{"ef_share":0.0,"ef_tj":0.0}},{"type":"Feature","geometry":{"type":"LineString","coordinates":[[-78.46759,30.7967,13720.0],[-78.44396,30.93584,13720.0]]},"properties":{"ef_share":0.0,"ef_tj":0.0}},{"type":"Feature","geometry":{"type":"LineString","coordinates":[[-78.44396,30.93584,13720.0],[-78.42016,31.0753,13720.0]]},"properties":{"ef_share":0.0,"ef_tj":0.0}},{"type":"Feature","geometry":{"type":"LineString","coordinates":[[-78.42016,31.0753,13720.0],[-78.39625,31.21455,13720.0]]},"properties":{"ef_share":0.0,"ef_tj":0.0}},{"type":"Feature","geometry":{"type":"LineString","coordinates":[[-78.39625,31.21455,13720.0],[-78.37234,31.3538,13720.0]]},"properties":{"ef_share":0.0,"ef_tj":0.0}},{"type":"Feature","geometry":{"type":"LineString","coordinates":[[-78.37234,31.3538,13720.0],[-78.34843,31.49304,13720.0]]},"properties":{"ef_share":0.0,"ef_tj":0.0}},{"type":"Feature","geometry":{"type":"LineString","coordinates":[[-78.34843,31.49304,13720.0],[-78.32452,31.63229,13720.0]]},"properties":{"ef_share":0.0,"ef_tj":0.0}},{"type":"Feature","geometry":{"type":"LineString","coordinates":[[-78.32452,31.63229,13720.0],[-78.30061,31.77153,13720.0]]},"properties":{"ef_share":0.0,"ef_tj":0.0}},{"type":"Feature","geometry":{"type":"LineString","coordinates":[[-78.30061,31.77153,13720.0],[-78.27645,31.91069,13720.0]]},"properties":{"ef_share":0.0,"ef_tj":0.0}},{"type":"Feature","geometry":{"type":"LineString","coordinates":[[-78.27645,31.91069,13720.0],[-78.25386,32.04929,13720.0]]},"properties":{"ef_share":0.0,"ef_tj":0.0}},{"type":"Feature","geometry":{"type":"LineString","coordinates":[[-78.25386,32.04929,13720.0],[-78.2329,32.18737,13720.0]]},"properties":{"ef_share":0.0,"ef_tj":0.0}},{"type":"Feature","geometry":{"type":"LineString","coordinates":[[-78.2329,32.18737,13720.0],[-78.21285,32.325,13720.0]]},"properties":{"ef_share":0.0,"ef_tj":0.0}},{"type":"Feature","geometry":{"type":"LineString","coordinates":[[-78.21285,32.325,13720.0],[-78.19283,32.46124,13720.0]]},"properties":{"ef_share":0.0,"ef_tj":0.0}},{"type":"Feature","geometry":{"type":"LineString","coordinates":[[-78.19283,32.46124,13720.0],[-78.17277,32.59775,13720.0]]},"properties":{"ef_share":0.0,"ef_tj":0.0}},{"type":"Feature","geometry":{"type":"LineString","coordinates":[[-78.17277,32.59775,13720.0],[-78.1526,32.73445,13720.0]]},"properties":{"ef_share":0.0,"ef_tj":0.0}},{"type":"Feature","geometry":{"type":"LineString","coordinates":[[-78.1526,32.73445,13720.0],[-78.13237,32.87102,13720.0]]},"properties":{"ef_share":0.0,"ef_tj":0.0}},{"type":"Feature","geometry":{"type":"LineString","coordinates":[[-78.13237,32.87102,13720.0],[-78.11197,33.0084,13720.0]]},"properties":{"ef_share":0.0,"ef_tj":0.0}},{"type":"Feature","geometry":{"type":"LineString","coordinates":[[-78.11197,33.0084,13720.0],[-78.09161,33.14498,13720.0]]},"properties":{"ef_share":0.0,"ef_tj":0.0}},{"type":"Feature","geometry":{"type":"LineString","coordinates":[[-78.09161,33.14498,13720.0],[-78.07127,33.28125,13720.0]]},"properties":{"ef_share":0.0,"ef_tj":0.0}},{"type":"Feature","geometry":{"type":"LineString","coordinates":[[-78.07127,33.28125,13720.0],[-78.05065,33.41865,13720.0]]},"properties":{"ef_share":0.0,"ef_tj":0.0}},{"type":"Feature","geometry":{"type":"LineString","coordinates":[[-78.05065,33.41865,13720.0],[-78.02974,33.55765,13720.0]]},"properties":{"ef_share":0.0,"ef_tj":0.0}},{"type":"Feature","geometry":{"type":"LineString","coordinates":[[-78.02974,33.55765,13720.0],[-78.0127,33.69615,13720.0]]},"properties":{"ef_share":0.0,"ef_tj":0.0}},{"type":"Feature","geometry":{"type":"LineString","coordinates":[[-78.0127,33.69615,13720.0],[-78.00434,33.83362,13720.0]]},"properties":{"ef_share":0.0,"ef_tj":0.0}},{"type":"Feature","geometry":{"type":"LineString","coordinates":[[-78.00434,33.83362,13720.0],[-77.99615,33.9717,13720.0]]},"properties":{"ef_share":0.0,"ef_tj":0.0}},{"type":"Feature","geometry":{"type":"LineString","coordinates":[[-77.99615,33.9717,13720.0],[-77.98784,34.11037,13720.0]]},"properties":{"ef_share":0.0,"ef_tj":0.0}},{"type":"Feature","geometry":{"type":"LineString","coordinates":[[-77.98784,34.11037,13720.0],[-77.97951,34.24886,13720.0]]},"properties":{"ef_share":0.0,"ef_tj":0.0}},{"type":"Feature","geometry":{"type":"LineString","coordinates":[[-77.97951,34.24886,13720.0],[-77.9712,34.3872,13720.0]]},"properties":{"ef_share":0.0,"ef_tj":0.0}},{"type":"Feature","geometry":{"type":"LineString","coordinates":[[-77.9712,34.3872,13720.0],[-77.96287,34.52532,13720.0]]},"properties":{"ef_share":0.0,"ef_tj":0.0}},{"type":"Feature","geometry":{"type":"LineString","coordinates":[[-77.96287,34.52532,13720.0],[-77.95445,34.66458,13720.0]]},"properties":{"ef_share":0.0,"ef_tj":0.0}},{"type":"Feature","geometry":{"type":"LineString","coordinates":[[-77.95445,34.66458,13720.0],[-77.94603,34.80385,13720.0]]},"properties":{"ef_share":0.0,"ef_tj":0.0}},{"type":"Feature","geometry":{"type":"LineString","coordinates":[[-77.94603,34.80385,13720.0],[-77.93754,34.94294,13720.0]]},"properties":{"ef_share":0.0,"ef_tj":0.0}},{"type":"Feature","geometry":{"type":"LineString","coordinates":[[-77.93754,34.94294,13720.0],[-77.92899,35.08214,13720.0]]},"properties":{"ef_share":0.0,"ef_tj":0.0}},{"type":"Feature","geometry":{"type":"LineString","coordinates":[[-77.92899,35.08214,13720.0],[-77.92043,35.22242,13720.0]]},"properties":{"ef_share":0.0,"ef_tj":0.0}},{"type":"Feature","geometry":{"type":"LineString","coordinates":[[-77.92043,35.22242,13720.0],[-77.9117,35.36385,13720.0]]},"properties":{"ef_share":0.0,"ef_tj":0.0}},{"type":"Feature","geometry":{"type":"LineString","coordinates":[[-77.9117,35.36385,13720.0],[-77.90298,35.50498,13720.0]]},"properties":{"ef_share":0.0,"ef_tj":0.0}},{"type":"Feature","geometry":{"type":"LineString","coordinates":[[-77.90298,35.50498,13720.0],[-77.89428,35.64579,13720.0]]},"properties":{"ef_share":0.0,"ef_tj":0.0}},{"type":"Feature","geometry":{"type":"LineString","coordinates":[[-77.89428,35.64579,13720.0],[-77.87938,35.7875,13680.0]]},"properties":{"ef_share":0.0,"ef_tj":0.0}},{"type":"Feature","geometry":{"type":"LineString","coordinates":[[-77.87938,35.7875,13680.0],[-77.86219,35.92859,13200.0]]},"properties":{"ef_share":0.0,"ef_tj":0.0}},{"type":"Feature","geometry":{"type":"LineString","coordinates":[[-77.86219,35.92859,13200.0],[-77.84533,36.06909,12630.0]]},"properties":{"ef_share":0.0,"ef_tj":0.0}},{"type":"Feature","geometry":{"type":"LineString","coordinates":[[-77.84533,36.06909,12630.0],[-77.82875,36.20735,12020.0]]},"properties":{"ef_share":0.0,"ef_tj":0.0}},{"type":"Feature","geometry":{"type":"LineString","coordinates":[[-77.82875,36.20735,12020.0],[-77.81263,36.342,11410.0]]},"properties":{"ef_share":0.0,"ef_tj":0.0}},{"type":"Feature","geometry":{"type":"LineString","coordinates":[[-77.81263,36.342,11410.0],[-77.7962,36.47795,10800.0]]},"properties":{"ef_share":0.0,"ef_tj":0.0}},{"type":"Feature","geometry":{"type":"LineString","coordinates":[[-77.7962,36.47795,10800.0],[-77.77934,36.61719,10180.0]]},"properties":{"ef_share":0.0,"ef_tj":0.0}},{"type":"Feature","geometry":{"type":"LineString","coordinates":[[-77.77934,36.61719,10180.0],[-77.76196,36.75931,9580.0]]},"properties":{"ef_share":0.0,"ef_tj":0.0}},{"type":"Feature","geometry":{"type":"LineString","coordinates":[[-77.76196,36.75931,9580.0],[-77.74493,36.8983,8980.0]]},"properties":{"ef_share":0.0,"ef_tj":0.0}},{"type":"Feature","geometry":{"type":"LineString","coordinates":[[-77.74493,36.8983,8980.0],[-77.72829,37.03472,8380.0]]},"properties":{"ef_share":0.0,"ef_tj":0.0}},{"type":"Feature","geometry":{"type":"LineString","coordinates":[[-77.72829,37.03472,8380.0],[-77.71166,37.16924,7770.0]]},"properties":{"ef_share":0.0,"ef_tj":0.0}},{"type":"Feature","geometry":{"type":"LineString","coordinates":[[-77.71166,37.16924,7770.0],[-77.6956,37.29964,7180.0]]},"properties":{"ef_share":0.0,"ef_tj":0.0}},{"type":"Feature","geometry":{"type":"LineString","coordinates":[[-77.6956,37.29964,7180.0],[-77.67975,37.42759,6630.0]]},"properties":{"ef_share":0.0,"ef_tj":0.0}},{"type":"Feature","geometry":{"type":"LineString","coordinates":[[-77.67975,37.42759,6630.0],[-77.66416,37.55313,6090.0]]},"properties":{"ef_share":0.0,"ef_tj":0.0}},{"type":"Feature","geometry":{"type":"LineString","coordinates":[[-77.66416,37.55313,6090.0],[-77.64885,37.67568,5570.0]]},"properties":{"ef_share":0.0,"ef_tj":0.0}},{"type":"Feature","geometry":{"type":"LineString","coordinates":[[-77.64885,37.67568,5570.0],[-77.63399,37.79462,5020.0]]},"properties":{"ef_share":0.0,"ef_tj":0.0}},{"type":"Feature","geometry":{"type":"LineString","coordinates":[[-77.63399,37.79462,5020.0],[-77.61941,37.91069,4520.0]]},"properties":{"ef_share":0.0,"ef_tj":0.0}},{"type":"Feature","geometry":{"type":"LineString","coordinates":[[-77.61941,37.91069,4520.0],[-77.60505,38.02298,4040.0]]},"properties":{"ef_share":0.0,"ef_tj":0.0}},{"type":"Feature","geometry":{"type":"LineString","coordinates":[[-77.60505,38.02298,4040.0],[-77.56028,38.1191,3610.0]]},"properties":{"ef_share":0.0,"ef_tj":0.0}},{"type":"Feature","geometry":{"type":"LineString","coordinates":[[-77.56028,38.1191,3610.0],[-77.50714,38.20225,3190.0]]},"properties":{"ef_share":0.0,"ef_tj":0.0}},{"type":"Feature","geometry":{"type":"LineString","coordinates":[[-77.50714,38.20225,3190.0],[-77.46792,38.28325,2850.0]]},"properties":{"ef_share":0.0,"ef_tj":0.0}},{"type":"Feature","geometry":{"type":"LineString","coordinates":[[-77.46792,38.28325,2850.0],[-77.43903,38.36528,2570.0]]},"properties":{"ef_share":0.0,"ef_tj":0.0}},{"type":"Feature","geometry":{"type":"LineString","coordinates":[[-77.43903,38.36528,2570.0],[-77.41078,38.44514,2280.0]]},"properties":{"ef_share":0.0,"ef_tj":0.0}},{"type":"Feature","geometry":{"type":"LineString","coordinates":[[-77.41078,38.44514,2280.0],[-77.38337,38.52399,2010.0]]},"properties":{"ef_share":0.0,"ef_tj":0.0}},{"type":"Feature","geometry":{"type":"LineString","coordinates":[[-77.38337,38.52399,2010.0],[-77.36322,38.60372,1740.0]]},"properties":{"ef_share":0.0,"ef_tj":0.0}},{"type":"Feature","geometry":{"type":"LineString","coordinates":[[-77.36322,38.60372,1740.0],[-77.36027,38.68409,1480.0]]},"properties":{"ef_share":0.0,"ef_tj":0.0}},{"type":"Feature","geometry":{"type":"LineString","coordinates":[[-77.36027,38.68409,1480.0],[-77.35745,38.76302,1220.0]]},"properties":{"ef_share":0.0,"ef_tj":0.0}},{"type":"Feature","geometry":{"type":"LineString","coordinates":[[-77.35745,38.76302,1220.0],[-77.3547,38.83824,1180.0]]},"properties":{"ef_share":0.0,"ef_tj":0.0}},{"type":"Feature","geometry":{"type":"LineString","coordinates":[[-77.3547,38.83824,1180.0],[-77.35212,38.90836,1180.0]]},"properties":{"ef_share":0.0,"ef_tj":0.0}},{"type":"Feature","geometry":{"type":"LineString","coordinates":[[-77.35212,38.90836,1180.0],[-77.35014,38.97057,1020.0]]},"properties":{"ef_share":0.0,"ef_tj":0.0}},{"type":"Feature","geometry":{"type":"LineString","coordinates":[[-77.35014,38.97057,1020.0],[-77.3598,39.02822,810.0]]},"properties":{"ef_share":0.0,"ef_tj":0.0}},{"type":"Feature","geometry":{"type":"LineString","coordinates":[[-77.3598,39.02822,810.0],[-77.41201,39.0397,580.0]]},"properties":{"ef_share":0.0,"ef_tj":0.0}},{"type":"Feature","geometry":{"type":"LineString","coordinates":[[-77.41201,39.0397,580.0],[-77.44998,39.02041,340.0]]},"properties":{"ef_share":0.0,"ef_tj":0.0}},{"type":"Feature","geometry":{"type":"LineString","coordinates":[[-77.44998,39.02041,340.0],[-77.459,38.99126,200.0]]},"properties":{"ef_share":0.0,"ef_tj":0.0}},{"type":"Feature","geometry":{"type":"LineString","coordinates":[[-77.459,38.99126,200.0],[-77.45945,38.96196,50.0]]},"properties":{"ef_share":0.0,"ef_tj":0.0}}]}