{"type":"FeatureCollection","properties":{"icao24":"a835af","registration":"N628TS","owner_label":"Elon Musk","combined_co2e_central":13904.7,"fuel_co2_kg":6838.4,"contrail_co2e_central":7066.3,"tier":"medium"},"features":[{"type":"Feature","geometry":{"type":"LineString","coordinates":[[-78.01865,37.95465,8280.0],[-78.12355,37.85569,9010.0]]},"properties":{"ef_share":0.0,"ef_tj":0.0}},{"type":"Feature","geometry":{"type":"LineString","coordinates":[[-78.12355,37.85569,9010.0],[-78.23015,37.75459,9640.0]]},"properties":{"ef_share":0.0,"ef_tj":0.0}},{"type":"Feature","geometry":{"type":"LineString","coordinates":[[-78.23015,37.75459,9640.0],[-78.33701,37.65293,10270.0]]},"properties":{"ef_share":1.0,"ef_tj":10.57731}},{"type":"Feature","geometry":{"type":"LineString","coordinates":[[-78.33701,37.65293,10270.0],[-78.44275,37.55194,10360.0]]},"properties":{"ef_share":0.142,"ef_tj":1.50272}},{"type":"Feature","geometry":{"type":"LineString","coordinates":[[-78.44275,37.55194,10360.0],[-78.54859,37.45046,10450.0]]},"properties":{"ef_share":0.164,"ef_tj":1.738254}},{"type":"Feature","geometry":{"type":"LineString","coordinates":[[-78.54859,37.45046,10450.0],[-78.65224,37.34989,10750.0]]},"properties":{"ef_share":0.462,"ef_tj":4.884984}},{"type":"Feature","geometry":{"type":"LineString","coordinates":[[-78.65224,37.34989,10750.0],[-78.75304,37.25185,11060.0]]},"properties":{"ef_share":0.466,"ef_tj":4.924014}},{"type":"Feature","geometry":{"type":"LineString","coordinates":[[-78.75304,37.25185,11060.0],[-78.85378,37.1535,11360.0]]},"properties":{"ef_share":0.114,"ef_tj":1.207824}},{"type":"Feature","geometry":{"type":"LineString","coordinates":[[-78.85378,37.1535,11360.0],[-78.95575,37.05363,11660.0]]},"properties":{"ef_share":0.0,"ef_tj":0.0}},{"type":"Feature","geometry":{"type":"LineString","coordinates":[[-78.95575,37.05363,11660.0],[-79.05647,36.95462,11960.0]]},"properties":{"ef_share":0.0,"ef_tj":0.0}},{"type":"Feature","geometry":{"type":"LineString","coordinates":[[-79.05647,36.95462,11960.0],[-79.15589,36.85768,12190.0]]},"properties":{"ef_share":0.0,"ef_tj":0.0}},{"type":"Feature","geometry":{"type":"LineString","coordinates":[[-79.15589,36.85768,12190.0],[-79.25589,36.75995,12190.0]]},"properties":{"ef_share":0.0,"ef_tj":0.0}},{"type":"Feature","geometry":{"type":"LineString","coordinates":[[-79.25589,36.75995,12190.0],[-79.3561,36.66168,12190.0]]},"properties":{"ef_share":0.0,"ef_tj":0.0}},{"type":"Feature","geometry":{"type":"LineString","coordinates":[[-79.3561,36.66168,12190.0],[-79.45506,36.56426,12190.0]]},"properties":{"ef_share":0.0,"ef_tj":0.0}},{"type":"Feature","geometry":{"type":"LineString","coordinates":[[-79.45506,36.56426,12190.0],[-79.55353,36.46704,12190.0]]},"properties":{"ef_share":0.0,"ef_tj":0.0}},{"type":"Feature","geometry":{"type":"LineString","coordinates":[[-79.55353,36.46704,12190.0],[-79.65268,36.36878,12190.0]]},"properties":{"ef_share":0.0,"ef_tj":0.0}},{"type":"Feature","geometry":{"type":"LineString","coordinates":[[-79.65268,36.36878,12190.0],[-79.75275,36.26931,12190.0]]},"properties":{"ef_share":0.0,"ef_tj":0.0}},{"type":"Feature","geometry":{"type":"LineString","coordinates":[[-79.75275,36.26931,12190.0],[-79.85186,36.17047,12190.0]]},"properties":{"ef_share":0.0,"ef_tj":0.0}},{"type":"Feature","geometry":{"type":"LineString","coordinates":[[-79.85186,36.17047,12190.0],[-79.95002,36.07103,12190.0]]},"properties":{"ef_share":0.0,"ef_tj":0.0}},{"type":"Feature","geometry":{"type":"LineString","coordinates":[[-79.95002,36.07103,12190.0],[-80.01786,35.95173,12190.0]]},"properties":{"ef_share":0.0,"ef_tj":0.0}},{"type":"Feature","geometry":{"type":"LineString","coordinates":[[-80.01786,35.95173,12190.0],[-80.05815,35.81899,12190.0]]},"properties":{"ef_share":0.0,"ef_tj":0.0}},{"type":"Feature","geometry":{"type":"LineString","coordinates":[[-80.05815,35.81899,12190.0],[-80.09821,35.68684,12190.0]]},"properties":{"ef_share":0.0,"ef_tj":0.0}},{"type":"Feature","geometry":{"type":"LineString","coordinates":[[-80.09821,35.68684,12190.0],[-80.13799,35.55549,12190.0]]},"properties":{"ef_share":0.0,"ef_tj":0.0}},{"type":"Feature","geometry":{"type":"LineString","coordinates":[[-80.13799,35.55549,12190.0],[-80.17771,35.42394,12190.0]]},"properties":{"ef_share":0.0,"ef_tj":0.0}},{"type":"Feature","geometry":{"type":"LineString","coordinates":[[-80.17771,35.42394,12190.0],[-80.21714,35.29282,12190.0]]},"properties":{"ef_share":0.0,"ef_tj":0.0}},{"type":"Feature","geometry":{"type":"LineString","coordinates":[[-80.21714,35.29282,12190.0],[-80.25658,35.16129,12190.0]]},"properties":{"ef_share":0.0,"ef_tj":0.0}},{"type":"Feature","geometry":{"type":"LineString","coordinates":[[-80.25658,35.16129,12190.0],[-80.2958,35.02996,12190.0]]},"properties":{"ef_share":0.0,"ef_tj":0.0}},{"type":"Feature","geometry":{"type":"LineString","coordinates":[[-80.2958,35.02996,12190.0],[-80.33512,34.89788,12190.0]]},"properties":{"ef_share":0.0,"ef_tj":0.0}},{"type":"Feature","geometry":{"type":"LineString","coordinates":[[-80.33512,34.89788,12190.0],[-80.37447,34.76532,12190.0]]},"properties":{"ef_share":0.0,"ef_tj":0.0}},{"type":"Feature","geometry":{"type":"LineString","coordinates":[[-80.37447,34.76532,12190.0],[-80.41417,34.63106,12190.0]]},"properties":{"ef_share":0.0,"ef_tj":0.0}},{"type":"Feature","geometry":{"type":"LineString","coordinates":[[-80.41417,34.63106,12190.0],[-80.45372,34.49684,12190.0]]},"properties":{"ef_share":0.0,"ef_tj":0.0}},{"type":"Feature","geometry":{"type":"LineString","coordinates":[[-80.45372,34.49684,12190.0],[-80.49343,34.36168,12190.0]]},"properties":{"ef_share":0.0,"ef_tj":0.0}},{"type":"Feature","geometry":{"type":"LineString","coordinates":[[-80.49343,34.36168,12190.0],[-80.53291,34.22675,12190.0]]},"properties":{"ef_share":0.0,"ef_tj":0.0}},{"type":"Feature","geometry":{"type":"LineString","coordinates":[[-80.53291,34.22675,12190.0],[-80.57215,34.09227,12190.0]]},"properties":{"ef_share":0.0,"ef_tj":0.0}},{"type":"Feature","geometry":{"type":"LineString","coordinates":[[-80.57215,34.09227,12190.0],[-80.61117,33.95818,12190.0]]},"properties":{"ef_share":0.0,"ef_tj":0.0}},{"type":"Feature","geometry":{"type":"LineString","coordinates":[[-80.61117,33.95818,12190.0],[-80.65001,33.82416,12190.0]]},"properties":{"ef_share":0.0,"ef_tj":0.0}},{"type":"Feature","geometry":{"type":"LineString","coordinates":[[-80.65001,33.82416,12190.0],[-80.68873,33.69016,12190.0]]},"properties":{"ef_share":0.0,"ef_tj":0.0}},{"type":"Feature","geometry":{"type":"LineString","coordinates":[[-80.68873,33.69016,12190.0],[-80.72762,33.55513,12190.0]]},"properties":{"ef_share":0.0,"ef_tj":0.0}},{"type":"Feature","geometry":{"type":"LineString","coordinates":[[-80.72762,33.55513,12190.0],[-80.76644,33.41987,12190.0]]},"properties":{"ef_share":0.0,"ef_tj":0.0}},{"type":"Feature","geometry":{"type":"LineString","coordinates":[[-80.76644,33.41987,12190.0],[-80.80528,33.2842,12190.0]]},"properties":{"ef_share":0.0,"ef_tj":0.0}},{"type":"Feature","geometry":{"type":"LineString","coordinates":[[-80.80528,33.2842,12190.0],[-80.84395,33.14861,12190.0]]},"properties":{"ef_share":0.0,"ef_tj":0.0}},{"type":"Feature","geometry":{"type":"LineString","coordinates":[[-80.84395,33.14861,12190.0],[-80.88276,33.0121,12190.0]]},"properties":{"ef_share":0.0,"ef_tj":0.0}},{"type":"Feature","geometry":{"type":"LineString","coordinates":[[-80.88276,33.0121,12190.0],[-80.92125,32.87624,12190.0]]},"properties":{"ef_share":0.0,"ef_tj":0.0}},{"type":"Feature","geometry":{"type":"LineString","coordinates":[[-80.92125,32.87624,12190.0],[-80.95974,32.74004,12190.0]]},"properties":{"ef_share":0.0,"ef_tj":0.0}},{"type":"Feature","geometry":{"type":"LineString","coordinates":[[-80.95974,32.74004,12190.0],[-80.99787,32.60464,12190.0]]},"properties":{"ef_share":0.0,"ef_tj":0.0}},{"type":"Feature","geometry":{"type":"LineString","coordinates":[[-80.99787,32.60464,12190.0],[-81.02015,32.46568,12190.0]]},"properties":{"ef_share":0.0,"ef_tj":0.0}},{"type":"Feature","geometry":{"type":"LineString","coordinates":[[-81.02015,32.46568,12190.0],[-81.02261,32.32436,12190.0]]},"properties":{"ef_share":0.0,"ef_tj":0.0}},{"type":"Feature","geometry":{"type":"LineString","coordinates":[[-81.02261,32.32436,12190.0],[-81.02504,32.18388,12190.0]]},"properties":{"ef_share":0.0,"ef_tj":0.0}},{"type":"Feature","geometry":{"type":"LineString","coordinates":[[-81.02504,32.18388,12190.0],[-81.02759,32.04282,12190.0]]},"properties":{"ef_share":0.0,"ef_tj":0.0}},{"type":"Feature","geometry":{"type":"LineString","coordinates":[[-81.02759,32.04282,12190.0],[-81.03097,31.90217,12190.0]]},"properties":{"ef_share":0.0,"ef_tj":0.0}},{"type":"Feature","geometry":{"type":"LineString","coordinates":[[-81.03097,31.90217,12190.0],[-81.03487,31.7611,12190.0]]},"properties":{"ef_share":0.0,"ef_tj":0.0}},{"type":"Feature","geometry":{"type":"LineString","coordinates":[[-81.03487,31.7611,12190.0],[-81.03874,31.61936,12190.0]]},"properties":{"ef_share":0.0,"ef_tj":0.0}},{"type":"Feature","geometry":{"type":"LineString","coordinates":[[-81.03874,31.61936,12190.0],[-81.04635,31.47808,12190.0]]},"properties":{"ef_share":0.0,"ef_tj":0.0}},{"type":"Feature","geometry":{"type":"LineString","coordinates":[[-81.04635,31.47808,12190.0],[-81.05563,31.33706,12190.0]]},"properties":{"ef_share":0.0,"ef_tj":0.0}},{"type":"Feature","geometry":{"type":"LineString","coordinates":[[-81.05563,31.33706,12190.0],[-81.06304,31.19589,12190.0]]},"properties":{"ef_share":0.0,"ef_tj":0.0}},{"type":"Feature","geometry":{"type":"LineString","coordinates":[[-81.06304,31.19589,12190.0],[-81.06534,31.05418,12190.0]]},"properties":{"ef_share":0.0,"ef_tj":0.0}},{"type":"Feature","geometry":{"type":"LineString","coordinates":[[-81.06534,31.05418,12190.0],[-81.06816,30.91355,12190.0]]},"properties":{"ef_share":0.0,"ef_tj":0.0}},{"type":"Feature","geometry":{"type":"LineString","coordinates":[[-81.06816,30.91355,12190.0],[-81.07107,30.77297,12190.0]]},"properties":{"ef_share":0.0,"ef_tj":0.0}},{"type":"Feature","geometry":{"type":"LineString","coordinates":[[-81.07107,30.77297,12190.0],[-81.07398,30.63247,12190.0]]},"properties":{"ef_share":0.0,"ef_tj":0.0}},{"type":"Feature","geometry":{"type":"LineString","coordinates":[[-81.07398,30.63247,12190.0],[-81.08196,30.49342,12190.0]]},"properties":{"ef_share":0.0,"ef_tj":0.0}},{"type":"Feature","geometry":{"type":"LineString","coordinates":[[-81.08196,30.49342,12190.0],[-81.09051,30.35337,12190.0]]},"properties":{"ef_share":0.0,"ef_tj":0.0}},{"type":"Feature","geometry":{"type":"LineString","coordinates":[[-81.09051,30.35337,12190.0],[-81.09887,30.2137,12190.0]]},"properties":{"ef_share":0.0,"ef_tj":0.0}},{"type":"Feature","geometry":{"type":"LineString","coordinates":[[-81.09887,30.2137,12190.0],[-81.10721,30.07448,12060.0]]},"properties":{"ef_share":0.0,"ef_tj":0.0}},{"type":"Feature","geometry":{"type":"LineString","coordinates":[[-81.10721,30.07448,12060.0],[-81.11549,29.93558,11680.0]]},"properties":{"ef_share":0.0,"ef_tj":0.0}},{"type":"Feature","geometry":{"type":"LineString","coordinates":[[-81.11549,29.93558,11680.0],[-81.12364,29.79542,11300.0]]},"properties":{"ef_share":0.0,"ef_tj":0.0}},{"type":"Feature","geometry":{"type":"LineString","coordinates":[[-81.12364,29.79542,11300.0],[-81.1234,29.65414,10980.0]]},"properties":{"ef_share":0.0,"ef_tj":0.0}},{"type":"Feature","geometry":{"type":"LineString","coordinates":[[-81.1234,29.65414,10980.0],[-81.09889,29.51423,10970.0]]},"properties":{"ef_share":0.0,"ef_tj":0.0}},{"type":"Feature","geometry":{"type":"LineString","coordinates":[[-81.09889,29.51423,10970.0],[-81.04194,29.37714,10970.0]]},"properties":{"ef_share":0.0,"ef_tj":0.0}},{"type":"Feature","geometry":{"type":"LineString","coordinates":[[-81.04194,29.37714,10970.0],[-80.98519,29.23974,10970.0]]},"properties":{"ef_share":0.0,"ef_tj":0.0}},{"type":"Feature","geometry":{"type":"LineString","coordinates":[[-80.98519,29.23974,10970.0],[-80.92862,29.10233,10970.0]]},"properties":{"ef_share":0.0,"ef_tj":0.0}},{"type":"Feature","geometry":{"type":"LineString","coordinates":[[-80.92862,29.10233,10970.0],[-80.87183,28.96395,10970.0]]},"properties":{"ef_share":0.0,"ef_tj":0.0}},{"type":"Feature","geometry":{"type":"LineString","coordinates":[[-80.87183,28.96395,10970.0],[-80.81524,28.82557,10970.0]]},"properties":{"ef_share":0.0,"ef_tj":0.0}},{"type":"Feature","geometry":{"type":"LineString","coordinates":[[-80.81524,28.82557,10970.0],[-80.75867,28.68674,10750.0]]},"properties":{"ef_share":0.0,"ef_tj":0.0}},{"type":"Feature","geometry":{"type":"LineString","coordinates":[[-80.75867,28.68674,10750.0],[-80.70285,28.54956,10070.0]]},"properties":{"ef_share":0.0,"ef_tj":0.0}},{"type":"Feature","geometry":{"type":"LineString","coordinates":[[-80.70285,28.54956,10070.0],[-80.64724,28.41591,9470.0]]},"properties":{"ef_share":0.0,"ef_tj":0.0}},{"type":"Feature","geometry":{"type":"LineString","coordinates":[[-80.64724,28.41591,9470.0],[-80.5898,28.28931,8940.0]]},"properties":{"ef_share":0.0,"ef_tj":0.0}},{"type":"Feature","geometry":{"type":"LineString","coordinates":[[-80.5898,28.28931,8940.0],[-80.53349,28.16365,8220.0]]},"properties":{"ef_share":0.0,"ef_tj":0.0}},{"type":"Feature","geometry":{"type":"LineString","coordinates":[[-80.53349,28.16365,8220.0],[-80.47948,28.0426,7500.0]]},"properties":{"ef_share":0.0,"ef_tj":0.0}},{"type":"Feature","geometry":{"type":"LineString","coordinates":[[-80.47948,28.0426,7500.0],[-80.42728,27.92541,6820.0]]},"properties":{"ef_share":0.0,"ef_tj":0.0}},{"type":"Feature","geometry":{"type":"LineString","coordinates":[[-80.42728,27.92541,6820.0],[-80.37657,27.81126,6160.0]]},"properties":{"ef_share":0.0,"ef_tj":0.0}},{"type":"Feature","geometry":{"type":"LineString","coordinates":[[-80.37657,27.81126,6160.0],[-80.32741,27.70036,5520.0]]},"properties":{"ef_share":0.0,"ef_tj":0.0}},{"type":"Feature","geometry":{"type":"LineString","coordinates":[[-80.32741,27.70036,5520.0],[-80.2796,27.59227,4900.0]]},"properties":{"ef_share":0.0,"ef_tj":0.0}},{"type":"Feature","geometry":{"type":"LineString","coordinates":[[-80.2796,27.59227,4900.0],[-80.23469,27.49057,4310.0]]},"properties":{"ef_share":0.0,"ef_tj":0.0}},{"type":"Feature","geometry":{"type":"LineString","coordinates":[[-80.23469,27.49057,4310.0],[-80.19386,27.39786,3830.0]]},"properties":{"ef_share":0.0,"ef_tj":0.0}},{"type":"Feature","geometry":{"type":"LineString","coordinates":[[-80.19386,27.39786,3830.0],[-80.15772,27.3157,3510.0]]},"properties":{"ef_share":0.0,"ef_tj":0.0}},{"type":"Feature","geometry":{"type":"LineString","coordinates":[[-80.15772,27.3157,3510.0],[-80.12374,27.23911,3230.0]]},"properties":{"ef_share":0.0,"ef_tj":0.0}},{"type":"Feature","geometry":{"type":"LineString","coordinates":[[-80.12374,27.23911,3230.0],[-80.0888,27.16791,3070.0]]},"properties":{"ef_share":0.0,"ef_tj":0.0}},{"type":"Feature","geometry":{"type":"LineString","coordinates":[[-80.0888,27.16791,3070.0],[-80.05246,27.09383,2890.0]]},"properties":{"ef_share":0.0,"ef_tj":0.0}},{"type":"Feature","geometry":{"type":"LineString","coordinates":[[-80.05246,27.09383,2890.0],[-80.01976,27.0277,2480.0]]},"properties":{"ef_share":0.0,"ef_tj":0.0}},{"type":"Feature","geometry":{"type":"LineString","coordinates":[[-80.01976,27.0277,2480.0],[-79.99428,26.9418,1770.0]]},"properties":{"ef_share":0.0,"ef_tj":0.0}},{"type":"Feature","geometry":{"type":"LineString","coordinates":[[-79.99428,26.9418,1770.0],[-80.04972,26.87349,1340.0]]},"properties":{"ef_share":0.0,"ef_tj":0.0}},{"type":"Feature","geometry":{"type":"LineString","coordinates":[[-80.04972,26.87349,1340.0],[-80.10188,26.81544,1140.0]]},"properties":{"ef_share":0.0,"ef_tj":0.0}},{"type":"Feature","geometry":{"type":"LineString","coordinates":[[-80.10188,26.81544,1140.0],[-80.17575,26.80132,1140.0]]},"properties":{"ef_share":0.0,"ef_tj":0.0}},{"type":"Feature","geometry":{"type":"LineString","coordinates":[[-80.17575,26.80132,1140.0],[-80.24994,26.78397,930.0]]},"properties":{"ef_share":0.0,"ef_tj":0.0}},{"type":"Feature","geometry":{"type":"LineString","coordinates":[[-80.24994,26.78397,930.0],[-80.32444,26.76549,820.0]]},"properties":{"ef_share":0.0,"ef_tj":0.0}},{"type":"Feature","geometry":{"type":"LineString","coordinates":[[-80.32444,26.76549,820.0],[-80.38603,26.73593,830.0]]},"properties":{"ef_share":0.0,"ef_tj":0.0}},{"type":"Feature","geometry":{"type":"LineString","coordinates":[[-80.38603,26.73593,830.0],[-80.3609,26.70003,830.0]]},"properties":{"ef_share":0.0,"ef_tj":0.0}},{"type":"Feature","geometry":{"type":"LineString","coordinates":[[-80.3609,26.70003,830.0],[-80.31178,26.69277,830.0]]},"properties":{"ef_share":0.0,"ef_tj":0.0}},{"type":"Feature","geometry":{"type":"LineString","coordinates":[[-80.31178,26.69277,830.0],[-80.26221,26.68983,750.0]]},"properties":{"ef_share":0.0,"ef_tj":0.0}},{"type":"Feature","geometry":{"type":"LineString","coordinates":[[-80.26221,26.68983,750.0],[-80.2138,26.68772,490.0]]},"properties":{"ef_share":0.0,"ef_tj":0.0}}]}