{"type":"FeatureCollection","properties":{"icao24":"a835af","registration":"N628TS","owner_label":"Elon Musk","combined_co2e_central":10595.6,"fuel_co2_kg":22028.5,"contrail_co2e_central":-11432.8,"tier":"medium"},"features":[{"type":"Feature","geometry":{"type":"LineString","coordinates":[[-79.97599,26.70781,1580.0],[-79.97473,26.78354,2500.0]]},"properties":{"ef_share":0.0,"ef_tj":0.0}},{"type":"Feature","geometry":{"type":"LineString","coordinates":[[-79.97473,26.78354,2500.0],[-80.05534,26.82041,3360.0]]},"properties":{"ef_share":0.0,"ef_tj":0.0}},{"type":"Feature","geometry":{"type":"LineString","coordinates":[[-80.05534,26.82041,3360.0],[-80.15144,26.84863,3880.0]]},"properties":{"ef_share":0.0,"ef_tj":0.0}},{"type":"Feature","geometry":{"type":"LineString","coordinates":[[-80.15144,26.84863,3880.0],[-80.26644,26.88394,4100.0]]},"properties":{"ef_share":0.0,"ef_tj":0.0}},{"type":"Feature","geometry":{"type":"LineString","coordinates":[[-80.26644,26.88394,4100.0],[-80.38995,26.91644,4260.0]]},"properties":{"ef_share":0.0,"ef_tj":0.0}},{"type":"Feature","geometry":{"type":"LineString","coordinates":[[-80.38995,26.91644,4260.0],[-80.51893,26.93093,4750.0]]},"properties":{"ef_share":0.0,"ef_tj":0.0}},{"type":"Feature","geometry":{"type":"LineString","coordinates":[[-80.51893,26.93093,4750.0],[-80.64886,26.94478,5160.0]]},"properties":{"ef_share":0.0,"ef_tj":0.0}},{"type":"Feature","geometry":{"type":"LineString","coordinates":[[-80.64886,26.94478,5160.0],[-80.78138,26.95783,5450.0]]},"properties":{"ef_share":0.0,"ef_tj":0.0}},{"type":"Feature","geometry":{"type":"LineString","coordinates":[[-80.78138,26.95783,5450.0],[-80.9137,26.96378,6210.0]]},"properties":{"ef_share":0.0,"ef_tj":0.0}},{"type":"Feature","geometry":{"type":"LineString","coordinates":[[-80.9137,26.96378,6210.0],[-81.04811,26.96896,6890.0]]},"properties":{"ef_share":0.0,"ef_tj":0.0}},{"type":"Feature","geometry":{"type":"LineString","coordinates":[[-81.04811,26.96896,6890.0],[-81.18864,26.97425,7210.0]]},"properties":{"ef_share":0.0,"ef_tj":0.0}},{"type":"Feature","geometry":{"type":"LineString","coordinates":[[-81.18864,26.97425,7210.0],[-81.33278,26.98118,7660.0]]},"properties":{"ef_share":0.0,"ef_tj":0.0}},{"type":"Feature","geometry":{"type":"LineString","coordinates":[[-81.33278,26.98118,7660.0],[-81.46177,27.03308,8110.0]]},"properties":{"ef_share":0.0,"ef_tj":0.0}},{"type":"Feature","geometry":{"type":"LineString","coordinates":[[-81.46177,27.03308,8110.0],[-81.58566,27.10339,8570.0]]},"properties":{"ef_share":0.0,"ef_tj":0.0}},{"type":"Feature","geometry":{"type":"LineString","coordinates":[[-81.58566,27.10339,8570.0],[-81.71321,27.17528,9020.0]]},"properties":{"ef_share":0.0,"ef_tj":0.0}},{"type":"Feature","geometry":{"type":"LineString","coordinates":[[-81.71321,27.17528,9020.0],[-81.84216,27.2496,9470.0]]},"properties":{"ef_share":0.0,"ef_tj":0.0}},{"type":"Feature","geometry":{"type":"LineString","coordinates":[[-81.84216,27.2496,9470.0],[-81.94815,27.35133,10010.0]]},"properties":{"ef_share":0.0,"ef_tj":0.0}},{"type":"Feature","geometry":{"type":"LineString","coordinates":[[-81.94815,27.35133,10010.0],[-82.05245,27.45506,10320.0]]},"properties":{"ef_share":0.0,"ef_tj":0.0}},{"type":"Feature","geometry":{"type":"LineString","coordinates":[[-82.05245,27.45506,10320.0],[-82.18756,27.51704,10360.0]]},"properties":{"ef_share":0.0,"ef_tj":0.0}},{"type":"Feature","geometry":{"type":"LineString","coordinates":[[-82.18756,27.51704,10360.0],[-82.33975,27.53652,10500.0]]},"properties":{"ef_share":0.0,"ef_tj":0.0}},{"type":"Feature","geometry":{"type":"LineString","coordinates":[[-82.33975,27.53652,10500.0],[-82.49129,27.55596,10790.0]]},"properties":{"ef_share":0.0,"ef_tj":0.0}},{"type":"Feature","geometry":{"type":"LineString","coordinates":[[-82.49129,27.55596,10790.0],[-82.64198,27.57531,10970.0]]},"properties":{"ef_share":0.0,"ef_tj":0.0}},{"type":"Feature","geometry":{"type":"LineString","coordinates":[[-82.64198,27.57531,10970.0],[-82.79214,27.59447,10970.0]]},"properties":{"ef_share":0.0,"ef_tj":0.0}},{"type":"Feature","geometry":{"type":"LineString","coordinates":[[-82.79214,27.59447,10970.0],[-82.94213,27.61342,10970.0]]},"properties":{"ef_share":0.0,"ef_tj":0.0}},{"type":"Feature","geometry":{"type":"LineString","coordinates":[[-82.94213,27.61342,10970.0],[-83.09201,27.63215,10970.0]]},"properties":{"ef_share":0.0,"ef_tj":0.0}},{"type":"Feature","geometry":{"type":"LineString","coordinates":[[-83.09201,27.63215,10970.0],[-83.24148,27.65067,10970.0]]},"properties":{"ef_share":0.0,"ef_tj":0.0}},{"type":"Feature","geometry":{"type":"LineString","coordinates":[[-83.24148,27.65067,10970.0],[-83.39102,27.669,10980.0]]},"properties":{"ef_share":0.0,"ef_tj":0.0}},{"type":"Feature","geometry":{"type":"LineString","coordinates":[[-83.39102,27.669,10980.0],[-83.54027,27.68715,10970.0]]},"properties":{"ef_share":0.0,"ef_tj":0.0}},{"type":"Feature","geometry":{"type":"LineString","coordinates":[[-83.54027,27.68715,10970.0],[-83.68912,27.70509,10970.0]]},"properties":{"ef_share":0.0,"ef_tj":0.0}},{"type":"Feature","geometry":{"type":"LineString","coordinates":[[-83.68912,27.70509,10970.0],[-83.83804,27.72289,10970.0]]},"properties":{"ef_share":0.0,"ef_tj":0.0}},{"type":"Feature","geometry":{"type":"LineString","coordinates":[[-83.83804,27.72289,10970.0],[-83.98695,27.74049,10970.0]]},"properties":{"ef_share":0.0,"ef_tj":0.0}},{"type":"Feature","geometry":{"type":"LineString","coordinates":[[-83.98695,27.74049,10970.0],[-84.13573,27.75795,10970.0]]},"properties":{"ef_share":0.0,"ef_tj":0.0}},{"type":"Feature","geometry":{"type":"LineString","coordinates":[[-84.13573,27.75795,10970.0],[-84.28499,27.77526,10970.0]]},"properties":{"ef_share":0.0,"ef_tj":0.0}},{"type":"Feature","geometry":{"type":"LineString","coordinates":[[-84.28499,27.77526,10970.0],[-84.43482,27.79247,10970.0]]},"properties":{"ef_share":0.0,"ef_tj":0.0}},{"type":"Feature","geometry":{"type":"LineString","coordinates":[[-84.43482,27.79247,10970.0],[-84.58475,27.80954,10970.0]]},"properties":{"ef_share":0.0,"ef_tj":0.0}},{"type":"Feature","geometry":{"type":"LineString","coordinates":[[-84.58475,27.80954,10970.0],[-84.73428,27.82636,10970.0]]},"properties":{"ef_share":0.0,"ef_tj":0.0}},{"type":"Feature","geometry":{"type":"LineString","coordinates":[[-84.73428,27.82636,10970.0],[-84.88409,27.84309,10970.0]]},"properties":{"ef_share":0.0,"ef_tj":0.0}},{"type":"Feature","geometry":{"type":"LineString","coordinates":[[-84.88409,27.84309,10970.0],[-85.03382,27.85965,10970.0]]},"properties":{"ef_share":0.0,"ef_tj":0.0}},{"type":"Feature","geometry":{"type":"LineString","coordinates":[[-85.03382,27.85965,10970.0],[-85.18416,27.8761,10970.0]]},"properties":{"ef_share":0.0,"ef_tj":0.0}},{"type":"Feature","geometry":{"type":"LineString","coordinates":[[-85.18416,27.8761,10970.0],[-85.3314,27.90632,10970.0]]},"properties":{"ef_share":0.0,"ef_tj":0.0}},{"type":"Feature","geometry":{"type":"LineString","coordinates":[[-85.3314,27.90632,10970.0],[-85.47639,27.95028,10970.0]]},"properties":{"ef_share":0.0,"ef_tj":0.0}},{"type":"Feature","geometry":{"type":"LineString","coordinates":[[-85.47639,27.95028,10970.0],[-85.6211,27.99391,10970.0]]},"properties":{"ef_share":0.0,"ef_tj":0.0}},{"type":"Feature","geometry":{"type":"LineString","coordinates":[[-85.6211,27.99391,10970.0],[-85.766,28.03737,10970.0]]},"properties":{"ef_share":0.0,"ef_tj":0.0}},{"type":"Feature","geometry":{"type":"LineString","coordinates":[[-85.766,28.03737,10970.0],[-85.91127,28.08074,10970.0]]},"properties":{"ef_share":0.0,"ef_tj":0.0}},{"type":"Feature","geometry":{"type":"LineString","coordinates":[[-85.91127,28.08074,10970.0],[-86.05646,28.12391,10980.0]]},"properties":{"ef_share":0.0,"ef_tj":0.0}},{"type":"Feature","geometry":{"type":"LineString","coordinates":[[-86.05646,28.12391,10980.0],[-86.20195,28.16702,10970.0]]},"properties":{"ef_share":0.0,"ef_tj":0.0}},{"type":"Feature","geometry":{"type":"LineString","coordinates":[[-86.20195,28.16702,10970.0],[-86.34681,28.20972,10970.0]]},"properties":{"ef_share":0.0,"ef_tj":0.0}},{"type":"Feature","geometry":{"type":"LineString","coordinates":[[-86.34681,28.20972,10970.0],[-86.49131,28.25213,10970.0]]},"properties":{"ef_share":0.0,"ef_tj":0.0}},{"type":"Feature","geometry":{"type":"LineString","coordinates":[[-86.49131,28.25213,10970.0],[-86.63558,28.29429,10970.0]]},"properties":{"ef_share":0.0,"ef_tj":0.0}},{"type":"Feature","geometry":{"type":"LineString","coordinates":[[-86.63558,28.29429,10970.0],[-86.77946,28.33632,10970.0]]},"properties":{"ef_share":0.0,"ef_tj":0.0}},{"type":"Feature","geometry":{"type":"LineString","coordinates":[[-86.77946,28.33632,10970.0],[-86.92286,28.37825,10970.0]]},"properties":{"ef_share":0.0,"ef_tj":0.0}},{"type":"Feature","geometry":{"type":"LineString","coordinates":[[-86.92286,28.37825,10970.0],[-87.06535,28.41973,10970.0]]},"properties":{"ef_share":0.0,"ef_tj":0.0}},{"type":"Feature","geometry":{"type":"LineString","coordinates":[[-87.06535,28.41973,10970.0],[-87.20876,28.46126,10970.0]]},"properties":{"ef_share":0.0,"ef_tj":0.0}},{"type":"Feature","geometry":{"type":"LineString","coordinates":[[-87.20876,28.46126,10970.0],[-87.35219,28.50263,10970.0]]},"properties":{"ef_share":0.0,"ef_tj":0.0}},{"type":"Feature","geometry":{"type":"LineString","coordinates":[[-87.35219,28.50263,10970.0],[-87.49529,28.54373,10970.0]]},"properties":{"ef_share":0.0,"ef_tj":0.0}},{"type":"Feature","geometry":{"type":"LineString","coordinates":[[-87.49529,28.54373,10970.0],[-87.63787,28.58451,10970.0]]},"properties":{"ef_share":0.0,"ef_tj":0.0}},{"type":"Feature","geometry":{"type":"LineString","coordinates":[[-87.63787,28.58451,10970.0],[-87.77996,28.62494,10970.0]]},"properties":{"ef_share":0.0,"ef_tj":0.0}},{"type":"Feature","geometry":{"type":"LineString","coordinates":[[-87.77996,28.62494,10970.0],[-87.92159,28.66507,10970.0]]},"properties":{"ef_share":0.0,"ef_tj":0.0}},{"type":"Feature","geometry":{"type":"LineString","coordinates":[[-87.92159,28.66507,10970.0],[-88.06281,28.70494,10970.0]]},"properties":{"ef_share":0.0,"ef_tj":0.0}},{"type":"Feature","geometry":{"type":"LineString","coordinates":[[-88.06281,28.70494,10970.0],[-88.20404,28.74459,10970.0]]},"properties":{"ef_share":0.0,"ef_tj":0.0}},{"type":"Feature","geometry":{"type":"LineString","coordinates":[[-88.20404,28.74459,10970.0],[-88.34512,28.78404,10970.0]]},"properties":{"ef_share":0.0,"ef_tj":0.0}},{"type":"Feature","geometry":{"type":"LineString","coordinates":[[-88.34512,28.78404,10970.0],[-88.48645,28.82338,10970.0]]},"properties":{"ef_share":0.0,"ef_tj":0.0}},{"type":"Feature","geometry":{"type":"LineString","coordinates":[[-88.48645,28.82338,10970.0],[-88.62792,28.8626,10970.0]]},"properties":{"ef_share":0.0,"ef_tj":0.0}},{"type":"Feature","geometry":{"type":"LineString","coordinates":[[-88.62792,28.8626,10970.0],[-88.76959,28.90754,10970.0]]},"properties":{"ef_share":0.0,"ef_tj":0.0}},{"type":"Feature","geometry":{"type":"LineString","coordinates":[[-88.76959,28.90754,10970.0],[-88.9097,28.95819,10970.0]]},"properties":{"ef_share":0.0,"ef_tj":0.0}},{"type":"Feature","geometry":{"type":"LineString","coordinates":[[-88.9097,28.95819,10970.0],[-89.05,29.0087,10970.0]]},"properties":{"ef_share":0.0,"ef_tj":0.0}},{"type":"Feature","geometry":{"type":"LineString","coordinates":[[-89.05,29.0087,10970.0],[-89.18952,29.05874,10970.0]]},"properties":{"ef_share":0.0,"ef_tj":0.0}},{"type":"Feature","geometry":{"type":"LineString","coordinates":[[-89.18952,29.05874,10970.0],[-89.32888,29.10852,10970.0]]},"properties":{"ef_share":0.0,"ef_tj":0.0}},{"type":"Feature","geometry":{"type":"LineString","coordinates":[[-89.32888,29.10852,10970.0],[-89.46943,29.15846,10970.0]]},"properties":{"ef_share":0.0,"ef_tj":0.0}},{"type":"Feature","geometry":{"type":"LineString","coordinates":[[-89.46943,29.15846,10970.0],[-89.61006,29.20836,10970.0]]},"properties":{"ef_share":0.0,"ef_tj":0.0}},{"type":"Feature","geometry":{"type":"LineString","coordinates":[[-89.61006,29.20836,10970.0],[-89.75146,29.25827,10970.0]]},"properties":{"ef_share":0.0,"ef_tj":0.0}},{"type":"Feature","geometry":{"type":"LineString","coordinates":[[-89.75146,29.25827,10970.0],[-89.89272,29.30792,10970.0]]},"properties":{"ef_share":0.0,"ef_tj":0.0}},{"type":"Feature","geometry":{"type":"LineString","coordinates":[[-89.89272,29.30792,10970.0],[-90.03448,29.35757,10970.0]]},"properties":{"ef_share":0.0,"ef_tj":0.0}},{"type":"Feature","geometry":{"type":"LineString","coordinates":[[-90.03448,29.35757,10970.0],[-90.17723,29.40734,10970.0]]},"properties":{"ef_share":0.0,"ef_tj":0.0}},{"type":"Feature","geometry":{"type":"LineString","coordinates":[[-90.17723,29.40734,10970.0],[-90.32092,29.45727,10970.0]]},"properties":{"ef_share":0.0,"ef_tj":0.0}},{"type":"Feature","geometry":{"type":"LineString","coordinates":[[-90.32092,29.45727,10970.0],[-90.4649,29.50709,10970.0]]},"properties":{"ef_share":0.0,"ef_tj":0.0}},{"type":"Feature","geometry":{"type":"LineString","coordinates":[[-90.4649,29.50709,10970.0],[-90.60899,29.55674,10970.0]]},"properties":{"ef_share":0.0,"ef_tj":0.0}},{"type":"Feature","geometry":{"type":"LineString","coordinates":[[-90.60899,29.55674,10970.0],[-90.75297,29.60615,10970.0]]},"properties":{"ef_share":0.0,"ef_tj":0.0}},{"type":"Feature","geometry":{"type":"LineString","coordinates":[[-90.75297,29.60615,10970.0],[-90.89706,29.65576,10970.0]]},"properties":{"ef_share":0.0,"ef_tj":0.0}},{"type":"Feature","geometry":{"type":"LineString","coordinates":[[-90.89706,29.65576,10970.0],[-91.03784,29.71073,10970.0]]},"properties":{"ef_share":0.0,"ef_tj":0.0}},{"type":"Feature","geometry":{"type":"LineString","coordinates":[[-91.03784,29.71073,10970.0],[-91.1781,29.76752,10970.0]]},"properties":{"ef_share":0.0,"ef_tj":0.0}},{"type":"Feature","geometry":{"type":"LineString","coordinates":[[-91.1781,29.76752,10970.0],[-91.31879,29.82425,10970.0]]},"properties":{"ef_share":0.0,"ef_tj":0.0}},{"type":"Feature","geometry":{"type":"LineString","coordinates":[[-91.31879,29.82425,10970.0],[-91.45988,29.88092,10970.0]]},"properties":{"ef_share":0.0,"ef_tj":0.0}},{"type":"Feature","geometry":{"type":"LineString","coordinates":[[-91.45988,29.88092,10970.0],[-91.60124,29.93752,10970.0]]},"properties":{"ef_share":0.0,"ef_tj":0.0}},{"type":"Feature","geometry":{"type":"LineString","coordinates":[[-91.60124,29.93752,10970.0],[-91.74289,29.99398,10970.0]]},"properties":{"ef_share":0.0,"ef_tj":0.0}},{"type":"Feature","geometry":{"type":"LineString","coordinates":[[-91.74289,29.99398,10970.0],[-91.88505,30.05045,10970.0]]},"properties":{"ef_share":0.0,"ef_tj":0.0}},{"type":"Feature","geometry":{"type":"LineString","coordinates":[[-91.88505,30.05045,10970.0],[-92.02726,30.10668,10970.0]]},"properties":{"ef_share":0.0,"ef_tj":0.0}},{"type":"Feature","geometry":{"type":"LineString","coordinates":[[-92.02726,30.10668,10970.0],[-92.16928,30.1627,10970.0]]},"properties":{"ef_share":0.0,"ef_tj":0.0}},{"type":"Feature","geometry":{"type":"LineString","coordinates":[[-92.16928,30.1627,10970.0],[-92.31111,30.21938,10970.0]]},"properties":{"ef_share":0.0,"ef_tj":0.0}},{"type":"Feature","geometry":{"type":"LineString","coordinates":[[-92.31111,30.21938,10970.0],[-92.45229,30.27658,10970.0]]},"properties":{"ef_share":0.0,"ef_tj":0.0}},{"type":"Feature","geometry":{"type":"LineString","coordinates":[[-92.45229,30.27658,10970.0],[-92.5926,30.33311,10970.0]]},"properties":{"ef_share":0.0,"ef_tj":0.0}},{"type":"Feature","geometry":{"type":"LineString","coordinates":[[-92.5926,30.33311,10970.0],[-92.7322,30.38914,10970.0]]},"properties":{"ef_share":0.0,"ef_tj":0.0}},{"type":"Feature","geometry":{"type":"LineString","coordinates":[[-92.7322,30.38914,10970.0],[-92.87096,30.44462,10970.0]]},"properties":{"ef_share":0.0,"ef_tj":0.0}},{"type":"Feature","geometry":{"type":"LineString","coordinates":[[-92.87096,30.44462,10970.0],[-93.00984,30.49994,10970.0]]},"properties":{"ef_share":0.0,"ef_tj":0.0}},{"type":"Feature","geometry":{"type":"LineString","coordinates":[[-93.00984,30.49994,10970.0],[-93.14864,30.55498,10970.0]]},"properties":{"ef_share":0.0,"ef_tj":0.0}},{"type":"Feature","geometry":{"type":"LineString","coordinates":[[-93.14864,30.55498,10970.0],[-93.28655,30.60947,10970.0]]},"properties":{"ef_share":0.0,"ef_tj":0.0}},{"type":"Feature","geometry":{"type":"LineString","coordinates":[[-93.28655,30.60947,10970.0],[-93.4247,30.66385,10970.0]]},"properties":{"ef_share":0.0,"ef_tj":0.0}},{"type":"Feature","geometry":{"type":"LineString","coordinates":[[-93.4247,30.66385,10970.0],[-93.56353,30.71831,10970.0]]},"properties":{"ef_share":0.0,"ef_tj":0.0}},{"type":"Feature","geometry":{"type":"LineString","coordinates":[[-93.56353,30.71831,10970.0],[-93.70306,30.77281,10970.0]]},"properties":{"ef_share":0.0,"ef_tj":0.0}},{"type":"Feature","geometry":{"type":"LineString","coordinates":[[-93.70306,30.77281,10970.0],[-93.84231,30.827,10970.0]]},"properties":{"ef_share":0.0,"ef_tj":0.0}},{"type":"Feature","geometry":{"type":"LineString","coordinates":[[-93.84231,30.827,10970.0],[-93.98144,30.88096,10970.0]]},"properties":{"ef_share":0.0,"ef_tj":0.0}},{"type":"Feature","geometry":{"type":"LineString","coordinates":[[-93.98144,30.88096,10970.0],[-94.12041,30.93462,10970.0]]},"properties":{"ef_share":0.0,"ef_tj":0.0}},{"type":"Feature","geometry":{"type":"LineString","coordinates":[[-94.12041,30.93462,10970.0],[-94.25976,30.98821,10970.0]]},"properties":{"ef_share":0.0,"ef_tj":0.0}},{"type":"Feature","geometry":{"type":"LineString","coordinates":[[-94.25976,30.98821,10970.0],[-94.40028,31.04202,10970.0]]},"properties":{"ef_share":0.0,"ef_tj":0.0}},{"type":"Feature","geometry":{"type":"LineString","coordinates":[[-94.40028,31.04202,10970.0],[-94.54185,31.09606,10970.0]]},"properties":{"ef_share":0.0,"ef_tj":0.0}},{"type":"Feature","geometry":{"type":"LineString","coordinates":[[-94.54185,31.09606,10970.0],[-94.68425,31.15015,10970.0]]},"properties":{"ef_share":0.0,"ef_tj":0.0}},{"type":"Feature","geometry":{"type":"LineString","coordinates":[[-94.68425,31.15015,10970.0],[-94.82627,31.20738,10970.0]]},"properties":{"ef_share":0.0,"ef_tj":0.0}},{"type":"Feature","geometry":{"type":"LineString","coordinates":[[-94.82627,31.20738,10970.0],[-94.96864,31.26601,10970.0]]},"properties":{"ef_share":0.0,"ef_tj":0.0}},{"type":"Feature","geometry":{"type":"LineString","coordinates":[[-94.96864,31.26601,10970.0],[-95.11078,31.32414,10970.0]]},"properties":{"ef_share":0.0,"ef_tj":0.0}},{"type":"Feature","geometry":{"type":"LineString","coordinates":[[-95.11078,31.32414,10970.0],[-95.25346,31.38011,10970.0]]},"properties":{"ef_share":0.0,"ef_tj":0.0}},{"type":"Feature","geometry":{"type":"LineString","coordinates":[[-95.25346,31.38011,10970.0],[-95.40236,31.42371,10970.0]]},"properties":{"ef_share":0.0,"ef_tj":0.0}},{"type":"Feature","geometry":{"type":"LineString","coordinates":[[-95.40236,31.42371,10970.0],[-95.55196,31.46533,10970.0]]},"properties":{"ef_share":0.0,"ef_tj":0.0}},{"type":"Feature","geometry":{"type":"LineString","coordinates":[[-95.55196,31.46533,10970.0],[-95.70258,31.50702,10970.0]]},"properties":{"ef_share":0.0,"ef_tj":0.0}},{"type":"Feature","geometry":{"type":"LineString","coordinates":[[-95.70258,31.50702,10970.0],[-95.85175,31.54814,10970.0]]},"properties":{"ef_share":0.0,"ef_tj":0.0}},{"type":"Feature","geometry":{"type":"LineString","coordinates":[[-95.85175,31.54814,10970.0],[-96.00043,31.58889,10970.0]]},"properties":{"ef_share":0.0,"ef_tj":0.0}},{"type":"Feature","geometry":{"type":"LineString","coordinates":[[-96.00043,31.58889,10970.0],[-96.14951,31.62956,10970.0]]},"properties":{"ef_share":0.0,"ef_tj":0.0}},{"type":"Feature","geometry":{"type":"LineString","coordinates":[[-96.14951,31.62956,10970.0],[-96.29897,31.67012,10970.0]]},"properties":{"ef_share":0.0,"ef_tj":0.0}},{"type":"Feature","geometry":{"type":"LineString","coordinates":[[-96.29897,31.67012,10970.0],[-96.44879,31.71057,10970.0]]},"properties":{"ef_share":0.0,"ef_tj":0.0}},{"type":"Feature","geometry":{"type":"LineString","coordinates":[[-96.44879,31.71057,10970.0],[-96.59873,31.75083,10970.0]]},"properties":{"ef_share":0.0,"ef_tj":0.0}},{"type":"Feature","geometry":{"type":"LineString","coordinates":[[-96.59873,31.75083,10970.0],[-96.74873,31.79086,10970.0]]},"properties":{"ef_share":0.0,"ef_tj":0.0}},{"type":"Feature","geometry":{"type":"LineString","coordinates":[[-96.74873,31.79086,10970.0],[-96.89818,31.83054,10970.0]]},"properties":{"ef_share":0.0,"ef_tj":0.0}},{"type":"Feature","geometry":{"type":"LineString","coordinates":[[-96.89818,31.83054,10970.0],[-97.04706,31.86993,10970.0]]},"properties":{"ef_share":0.0,"ef_tj":0.0}},{"type":"Feature","geometry":{"type":"LineString","coordinates":[[-97.04706,31.86993,10970.0],[-97.1967,31.90926,10970.0]]},"properties":{"ef_share":0.0,"ef_tj":0.0}},{"type":"Feature","geometry":{"type":"LineString","coordinates":[[-97.1967,31.90926,10970.0],[-97.34645,31.94841,10970.0]]},"properties":{"ef_share":0.0,"ef_tj":0.0}},{"type":"Feature","geometry":{"type":"LineString","coordinates":[[-97.34645,31.94841,10970.0],[-97.49703,31.98759,10970.0]]},"properties":{"ef_share":0.0,"ef_tj":0.0}},{"type":"Feature","geometry":{"type":"LineString","coordinates":[[-97.49703,31.98759,10970.0],[-97.64865,32.0268,10970.0]]},"properties":{"ef_share":0.0,"ef_tj":0.0}},{"type":"Feature","geometry":{"type":"LineString","coordinates":[[-97.64865,32.0268,10970.0],[-97.80048,32.06585,10970.0]]},"properties":{"ef_share":0.0,"ef_tj":0.0}},{"type":"Feature","geometry":{"type":"LineString","coordinates":[[-97.80048,32.06585,10970.0],[-97.95279,32.10482,10970.0]]},"properties":{"ef_share":0.0,"ef_tj":0.0}},{"type":"Feature","geometry":{"type":"LineString","coordinates":[[-97.95279,32.10482,10970.0],[-98.1049,32.14352,10970.0]]},"properties":{"ef_share":0.0,"ef_tj":0.0}},{"type":"Feature","geometry":{"type":"LineString","coordinates":[[-98.1049,32.14352,10970.0],[-98.25717,32.18206,10970.0]]},"properties":{"ef_share":0.0,"ef_tj":0.0}},{"type":"Feature","geometry":{"type":"LineString","coordinates":[[-98.25717,32.18206,10970.0],[-98.40974,32.22041,10970.0]]},"properties":{"ef_share":0.0,"ef_tj":0.0}},{"type":"Feature","geometry":{"type":"LineString","coordinates":[[-98.40974,32.22041,10970.0],[-98.56274,32.25869,10970.0]]},"properties":{"ef_share":0.0,"ef_tj":0.0}},{"type":"Feature","geometry":{"type":"LineString","coordinates":[[-98.56274,32.25869,10970.0],[-98.71642,32.2969,10970.0]]},"properties":{"ef_share":0.0,"ef_tj":0.0}},{"type":"Feature","geometry":{"type":"LineString","coordinates":[[-98.71642,32.2969,10970.0],[-98.87004,32.33489,10970.0]]},"properties":{"ef_share":0.0,"ef_tj":0.0}},{"type":"Feature","geometry":{"type":"LineString","coordinates":[[-98.87004,32.33489,10970.0],[-99.02271,32.3765,10970.0]]},"properties":{"ef_share":0.0,"ef_tj":0.0}},{"type":"Feature","geometry":{"type":"LineString","coordinates":[[-99.02271,32.3765,10970.0],[-99.17329,32.42526,10970.0]]},"properties":{"ef_share":0.0,"ef_tj":0.0}},{"type":"Feature","geometry":{"type":"LineString","coordinates":[[-99.17329,32.42526,10970.0],[-99.32456,32.47419,10970.0]]},"properties":{"ef_share":0.0,"ef_tj":0.0}},{"type":"Feature","geometry":{"type":"LineString","coordinates":[[-99.32456,32.47419,10970.0],[-99.47549,32.52276,10970.0]]},"properties":{"ef_share":0.0,"ef_tj":0.0}},{"type":"Feature","geometry":{"type":"LineString","coordinates":[[-99.47549,32.52276,10970.0],[-99.62686,32.57124,10970.0]]},"properties":{"ef_share":0.0,"ef_tj":0.0}},{"type":"Feature","geometry":{"type":"LineString","coordinates":[[-99.62686,32.57124,10970.0],[-99.77746,32.61925,10970.0]]},"properties":{"ef_share":0.0,"ef_tj":0.0}},{"type":"Feature","geometry":{"type":"LineString","coordinates":[[-99.77746,32.61925,10970.0],[-99.92946,32.66744,10970.0]]},"properties":{"ef_share":0.0,"ef_tj":0.0}},{"type":"Feature","geometry":{"type":"LineString","coordinates":[[-99.92946,32.66744,10970.0],[-100.08165,32.7155,10970.0]]},"properties":{"ef_share":0.0,"ef_tj":0.0}},{"type":"Feature","geometry":{"type":"LineString","coordinates":[[-100.08165,32.7155,10970.0],[-100.23474,32.7636,10970.0]]},"properties":{"ef_share":0.0,"ef_tj":0.0}},{"type":"Feature","geometry":{"type":"LineString","coordinates":[[-100.23474,32.7636,10970.0],[-100.38645,32.811,10970.0]]},"properties":{"ef_share":0.0,"ef_tj":0.0}},{"type":"Feature","geometry":{"type":"LineString","coordinates":[[-100.38645,32.811,10970.0],[-100.53564,32.8616,10970.0]]},"properties":{"ef_share":0.0,"ef_tj":0.0}},{"type":"Feature","geometry":{"type":"LineString","coordinates":[[-100.53564,32.8616,10970.0],[-100.68427,32.91387,10970.0]]},"properties":{"ef_share":0.0,"ef_tj":0.0}},{"type":"Feature","geometry":{"type":"LineString","coordinates":[[-100.68427,32.91387,10970.0],[-100.83426,32.96609,10970.0]]},"properties":{"ef_share":0.0,"ef_tj":0.0}},{"type":"Feature","geometry":{"type":"LineString","coordinates":[[-100.83426,32.96609,10970.0],[-100.9842,33.01807,10970.0]]},"properties":{"ef_share":0.0,"ef_tj":0.0}},{"type":"Feature","geometry":{"type":"LineString","coordinates":[[-100.9842,33.01807,10970.0],[-101.13302,33.06941,10970.0]]},"properties":{"ef_share":0.0,"ef_tj":0.0}},{"type":"Feature","geometry":{"type":"LineString","coordinates":[[-101.13302,33.06941,10970.0],[-101.28102,33.11864,11220.0]]},"properties":{"ef_share":0.0,"ef_tj":0.0}},{"type":"Feature","geometry":{"type":"LineString","coordinates":[[-101.28102,33.11864,11220.0],[-101.42684,33.16459,11850.0]]},"properties":{"ef_share":0.0,"ef_tj":0.0}},{"type":"Feature","geometry":{"type":"LineString","coordinates":[[-101.42684,33.16459,11850.0],[-101.57265,33.21054,12480.0]]},"properties":{"ef_share":0.0,"ef_tj":0.0}},{"type":"Feature","geometry":{"type":"LineString","coordinates":[[-101.57265,33.21054,12480.0],[-101.71847,33.25649,13110.0]]},"properties":{"ef_share":0.0,"ef_tj":0.0}},{"type":"Feature","geometry":{"type":"LineString","coordinates":[[-101.71847,33.25649,13110.0],[-101.86428,33.30243,13110.0]]},"properties":{"ef_share":0.0,"ef_tj":0.0}},{"type":"Feature","geometry":{"type":"LineString","coordinates":[[-101.86428,33.30243,13110.0],[-102.01023,33.34823,13110.0]]},"properties":{"ef_share":0.0,"ef_tj":0.0}},{"type":"Feature","geometry":{"type":"LineString","coordinates":[[-102.01023,33.34823,13110.0],[-102.15684,33.39328,13110.0]]},"properties":{"ef_share":0.0,"ef_tj":0.0}},{"type":"Feature","geometry":{"type":"LineString","coordinates":[[-102.15684,33.39328,13110.0],[-102.30345,33.43833,13110.0]]},"properties":{"ef_share":0.0,"ef_tj":0.0}},{"type":"Feature","geometry":{"type":"LineString","coordinates":[[-102.30345,33.43833,13110.0],[-102.45005,33.48337,13110.0]]},"properties":{"ef_share":0.0,"ef_tj":0.0}},{"type":"Feature","geometry":{"type":"LineString","coordinates":[[-102.45005,33.48337,13110.0],[-102.59666,33.52842,13110.0]]},"properties":{"ef_share":0.0,"ef_tj":0.0}},{"type":"Feature","geometry":{"type":"LineString","coordinates":[[-102.59666,33.52842,13110.0],[-102.74327,33.57347,13110.0]]},"properties":{"ef_share":0.0,"ef_tj":0.0}},{"type":"Feature","geometry":{"type":"LineString","coordinates":[[-102.74327,33.57347,13110.0],[-102.89063,33.61765,13110.0]]},"properties":{"ef_share":0.0,"ef_tj":0.0}},{"type":"Feature","geometry":{"type":"LineString","coordinates":[[-102.89063,33.61765,13110.0],[-103.03802,33.66179,13110.0]]},"properties":{"ef_share":0.0,"ef_tj":0.0}},{"type":"Feature","geometry":{"type":"LineString","coordinates":[[-103.03802,33.66179,13110.0],[-103.18542,33.70592,13110.0]]},"properties":{"ef_share":0.0,"ef_tj":0.0}},{"type":"Feature","geometry":{"type":"LineString","coordinates":[[-103.18542,33.70592,13110.0],[-103.33282,33.75006,13110.0]]},"properties":{"ef_share":0.0,"ef_tj":0.0}},{"type":"Feature","geometry":{"type":"LineString","coordinates":[[-103.33282,33.75006,13110.0],[-103.48021,33.79419,13110.0]]},"properties":{"ef_share":0.0,"ef_tj":0.0}},{"type":"Feature","geometry":{"type":"LineString","coordinates":[[-103.48021,33.79419,13110.0],[-103.62818,33.83765,13110.0]]},"properties":{"ef_share":0.0,"ef_tj":0.0}},{"type":"Feature","geometry":{"type":"LineString","coordinates":[[-103.62818,33.83765,13110.0],[-103.77636,33.88086,13110.0]]},"properties":{"ef_share":0.0,"ef_tj":0.0}},{"type":"Feature","geometry":{"type":"LineString","coordinates":[[-103.77636,33.88086,13110.0],[-103.92454,33.92407,13110.0]]},"properties":{"ef_share":0.0,"ef_tj":0.0}},{"type":"Feature","geometry":{"type":"LineString","coordinates":[[-103.92454,33.92407,13110.0],[-104.07273,33.96728,13110.0]]},"properties":{"ef_share":0.0,"ef_tj":0.0}},{"type":"Feature","geometry":{"type":"LineString","coordinates":[[-104.07273,33.96728,13110.0],[-104.22091,34.01049,13110.0]]},"properties":{"ef_share":0.0,"ef_tj":0.0}},{"type":"Feature","geometry":{"type":"LineString","coordinates":[[-104.22091,34.01049,13110.0],[-104.3659,34.04962,13110.0]]},"properties":{"ef_share":0.0,"ef_tj":0.0}},{"type":"Feature","geometry":{"type":"LineString","coordinates":[[-104.3659,34.04962,13110.0],[-104.50781,34.08477,13110.0]]},"properties":{"ef_share":0.0,"ef_tj":0.0}},{"type":"Feature","geometry":{"type":"LineString","coordinates":[[-104.50781,34.08477,13110.0],[-104.64962,34.11969,13110.0]]},"properties":{"ef_share":0.0,"ef_tj":0.0}},{"type":"Feature","geometry":{"type":"LineString","coordinates":[[-104.64962,34.11969,13110.0],[-104.79224,34.15458,13110.0]]},"properties":{"ef_share":0.0,"ef_tj":0.0}},{"type":"Feature","geometry":{"type":"LineString","coordinates":[[-104.79224,34.15458,13110.0],[-104.93493,34.18932,13110.0]]},"properties":{"ef_share":0.0,"ef_tj":0.0}},{"type":"Feature","geometry":{"type":"LineString","coordinates":[[-104.93493,34.18932,13110.0],[-105.07937,34.22427,13110.0]]},"properties":{"ef_share":0.0,"ef_tj":0.0}},{"type":"Feature","geometry":{"type":"LineString","coordinates":[[-105.07937,34.22427,13110.0],[-105.2231,34.25887,13110.0]]},"properties":{"ef_share":0.0,"ef_tj":0.0}},{"type":"Feature","geometry":{"type":"LineString","coordinates":[[-105.2231,34.25887,13110.0],[-105.36624,34.29316,13110.0]]},"properties":{"ef_share":0.0,"ef_tj":0.0}},{"type":"Feature","geometry":{"type":"LineString","coordinates":[[-105.36624,34.29316,13110.0],[-105.51023,34.3274,13110.0]]},"properties":{"ef_share":0.0,"ef_tj":0.0}},{"type":"Feature","geometry":{"type":"LineString","coordinates":[[-105.51023,34.3274,13110.0],[-105.6563,34.3616,13110.0]]},"properties":{"ef_share":0.0,"ef_tj":0.0}},{"type":"Feature","geometry":{"type":"LineString","coordinates":[[-105.6563,34.3616,13110.0],[-105.80596,34.39102,13110.0]]},"properties":{"ef_share":0.0,"ef_tj":0.0}},{"type":"Feature","geometry":{"type":"LineString","coordinates":[[-105.80596,34.39102,13110.0],[-105.95784,34.41924,13110.0]]},"properties":{"ef_share":0.0,"ef_tj":0.0}},{"type":"Feature","geometry":{"type":"LineString","coordinates":[[-105.95784,34.41924,13110.0],[-106.11044,34.44741,13110.0]]},"properties":{"ef_share":0.0,"ef_tj":0.0}},{"type":"Feature","geometry":{"type":"LineString","coordinates":[[-106.11044,34.44741,13110.0],[-106.26228,34.47526,13110.0]]},"properties":{"ef_share":0.0,"ef_tj":0.0}},{"type":"Feature","geometry":{"type":"LineString","coordinates":[[-106.26228,34.47526,13110.0],[-106.41366,34.50279,13110.0]]},"properties":{"ef_share":0.0,"ef_tj":0.0}},{"type":"Feature","geometry":{"type":"LineString","coordinates":[[-106.41366,34.50279,13110.0],[-106.56623,34.53035,13110.0]]},"properties":{"ef_share":0.0,"ef_tj":0.0}},{"type":"Feature","geometry":{"type":"LineString","coordinates":[[-106.56623,34.53035,13110.0],[-106.72126,34.5581,13110.0]]},"properties":{"ef_share":0.0,"ef_tj":0.0}},{"type":"Feature","geometry":{"type":"LineString","coordinates":[[-106.72126,34.5581,13110.0],[-106.87759,34.58586,13110.0]]},"properties":{"ef_share":0.0,"ef_tj":0.0}},{"type":"Feature","geometry":{"type":"LineString","coordinates":[[-106.87759,34.58586,13110.0],[-107.03436,34.61352,13110.0]]},"properties":{"ef_share":0.0,"ef_tj":0.0}},{"type":"Feature","geometry":{"type":"LineString","coordinates":[[-107.03436,34.61352,13110.0],[-107.19147,34.64099,13110.0]]},"properties":{"ef_share":0.0,"ef_tj":0.0}},{"type":"Feature","geometry":{"type":"LineString","coordinates":[[-107.19147,34.64099,13110.0],[-107.3457,34.66775,13110.0]]},"properties":{"ef_share":0.0,"ef_tj":0.0}},{"type":"Feature","geometry":{"type":"LineString","coordinates":[[-107.3457,34.66775,13110.0],[-107.49911,34.69419,13110.0]]},"properties":{"ef_share":0.0,"ef_tj":0.0}},{"type":"Feature","geometry":{"type":"LineString","coordinates":[[-107.49911,34.69419,13110.0],[-107.65451,34.7207,13110.0]]},"properties":{"ef_share":0.0,"ef_tj":0.0}},{"type":"Feature","geometry":{"type":"LineString","coordinates":[[-107.65451,34.7207,13110.0],[-107.81058,34.74713,12910.0]]},"properties":{"ef_share":0.0,"ef_tj":0.0}},{"type":"Feature","geometry":{"type":"LineString","coordinates":[[-107.81058,34.74713,12910.0],[-107.96759,34.7735,12690.0]]},"properties":{"ef_share":0.0,"ef_tj":0.0}},{"type":"Feature","geometry":{"type":"LineString","coordinates":[[-107.96759,34.7735,12690.0],[-108.12207,34.79925,12480.0]]},"properties":{"ef_share":0.0,"ef_tj":0.0}},{"type":"Feature","geometry":{"type":"LineString","coordinates":[[-108.12207,34.79925,12480.0],[-108.27401,34.82435,12420.0]]},"properties":{"ef_share":0.0,"ef_tj":0.0}},{"type":"Feature","geometry":{"type":"LineString","coordinates":[[-108.27401,34.82435,12420.0],[-108.42529,34.84918,12500.0]]},"properties":{"ef_share":-0.001,"ef_tj":-0.002666}},{"type":"Feature","geometry":{"type":"LineString","coordinates":[[-108.42529,34.84918,12500.0],[-108.57603,34.87365,12500.0]]},"properties":{"ef_share":-0.001,"ef_tj":-0.002744}},{"type":"Feature","geometry":{"type":"LineString","coordinates":[[-108.57603,34.87365,12500.0],[-108.72816,34.89819,12500.0]]},"properties":{"ef_share":-0.001,"ef_tj":-0.002577}},{"type":"Feature","geometry":{"type":"LineString","coordinates":[[-108.72816,34.89819,12500.0],[-108.88071,34.92257,12500.0]]},"properties":{"ef_share":-0.001,"ef_tj":-0.001908}},{"type":"Feature","geometry":{"type":"LineString","coordinates":[[-108.88071,34.92257,12500.0],[-109.03303,34.94673,12500.0]]},"properties":{"ef_share":0.0,"ef_tj":0.0}},{"type":"Feature","geometry":{"type":"LineString","coordinates":[[-109.03303,34.94673,12500.0],[-109.18563,34.97317,12500.0]]},"properties":{"ef_share":0.0,"ef_tj":0.0}},{"type":"Feature","geometry":{"type":"LineString","coordinates":[[-109.18563,34.97317,12500.0],[-109.33764,35.00702,12500.0]]},"properties":{"ef_share":0.0,"ef_tj":0.0}},{"type":"Feature","geometry":{"type":"LineString","coordinates":[[-109.33764,35.00702,12500.0],[-109.49112,35.04132,12500.0]]},"properties":{"ef_share":0.0,"ef_tj":0.0}},{"type":"Feature","geometry":{"type":"LineString","coordinates":[[-109.49112,35.04132,12500.0],[-109.64316,35.0751,12400.0]]},"properties":{"ef_share":0.0,"ef_tj":0.0}},{"type":"Feature","geometry":{"type":"LineString","coordinates":[[-109.64316,35.0751,12400.0],[-109.79458,35.10849,12250.0]]},"properties":{"ef_share":0.0,"ef_tj":0.0}},{"type":"Feature","geometry":{"type":"LineString","coordinates":[[-109.79458,35.10849,12250.0],[-109.94915,35.14227,12190.0]]},"properties":{"ef_share":0.0,"ef_tj":0.0}},{"type":"Feature","geometry":{"type":"LineString","coordinates":[[-109.94915,35.14227,12190.0],[-110.10519,35.17625,12190.0]]},"properties":{"ef_share":0.0,"ef_tj":0.0}},{"type":"Feature","geometry":{"type":"LineString","coordinates":[[-110.10519,35.17625,12190.0],[-110.26082,35.2099,12190.0]]},"properties":{"ef_share":0.0,"ef_tj":0.0}},{"type":"Feature","geometry":{"type":"LineString","coordinates":[[-110.26082,35.2099,12190.0],[-110.41717,35.24347,12190.0]]},"properties":{"ef_share":0.0,"ef_tj":0.0}},{"type":"Feature","geometry":{"type":"LineString","coordinates":[[-110.41717,35.24347,12190.0],[-110.57333,35.27678,12190.0]]},"properties":{"ef_share":0.0,"ef_tj":0.0}},{"type":"Feature","geometry":{"type":"LineString","coordinates":[[-110.57333,35.27678,12190.0],[-110.73027,35.31,12190.0]]},"properties":{"ef_share":0.0,"ef_tj":0.0}},{"type":"Feature","geometry":{"type":"LineString","coordinates":[[-110.73027,35.31,12190.0],[-110.88594,35.34275,12190.0]]},"properties":{"ef_share":0.0,"ef_tj":0.0}},{"type":"Feature","geometry":{"type":"LineString","coordinates":[[-110.88594,35.34275,12190.0],[-111.04141,35.37475,12190.0]]},"properties":{"ef_share":-0.003,"ef_tj":-0.009887}},{"type":"Feature","geometry":{"type":"LineString","coordinates":[[-111.04141,35.37475,12190.0],[-111.19861,35.40239,12190.0]]},"properties":{"ef_share":-0.005,"ef_tj":-0.018024}},{"type":"Feature","geometry":{"type":"LineString","coordinates":[[-111.19861,35.40239,12190.0],[-111.35648,35.43039,12190.0]]},"properties":{"ef_share":-0.018,"ef_tj":-0.063962}},{"type":"Feature","geometry":{"type":"LineString","coordinates":[[-111.35648,35.43039,12190.0],[-111.51388,35.45812,12190.0]]},"properties":{"ef_share":-0.057,"ef_tj":-0.208578}},{"type":"Feature","geometry":{"type":"LineString","coordinates":[[-111.51388,35.45812,12190.0],[-111.67234,35.48585,12190.0]]},"properties":{"ef_share":-0.065,"ef_tj":-0.234912}},{"type":"Feature","geometry":{"type":"LineString","coordinates":[[-111.67234,35.48585,12190.0],[-111.83063,35.5133,12190.0]]},"properties":{"ef_share":-0.084,"ef_tj":-0.306197}},{"type":"Feature","geometry":{"type":"LineString","coordinates":[[-111.83063,35.5133,12190.0],[-111.98983,35.54067,12190.0]]},"properties":{"ef_share":-0.095,"ef_tj":-0.345365}},{"type":"Feature","geometry":{"type":"LineString","coordinates":[[-111.98983,35.54067,12190.0],[-112.14798,35.56764,12190.0]]},"properties":{"ef_share":-0.086,"ef_tj":-0.312793}},{"type":"Feature","geometry":{"type":"LineString","coordinates":[[-112.14798,35.56764,12190.0],[-112.30673,35.59451,12190.0]]},"properties":{"ef_share":-0.073,"ef_tj":-0.2668}},{"type":"Feature","geometry":{"type":"LineString","coordinates":[[-112.30673,35.59451,12190.0],[-112.46512,35.62104,12190.0]]},"properties":{"ef_share":-0.065,"ef_tj":-0.237292}},{"type":"Feature","geometry":{"type":"LineString","coordinates":[[-112.46512,35.62104,12190.0],[-112.62462,35.64756,12190.0]]},"properties":{"ef_share":-0.06,"ef_tj":-0.217426}},{"type":"Feature","geometry":{"type":"LineString","coordinates":[[-112.62462,35.64756,12190.0],[-112.78341,35.67376,12190.0]]},"properties":{"ef_share":-0.042,"ef_tj":-0.15408}},{"type":"Feature","geometry":{"type":"LineString","coordinates":[[-112.78341,35.67376,12190.0],[-112.94296,35.69983,12190.0]]},"properties":{"ef_share":-0.002,"ef_tj":-0.00826}},{"type":"Feature","geometry":{"type":"LineString","coordinates":[[-112.94296,35.69983,12190.0],[-113.1015,35.72549,12200.0]]},"properties":{"ef_share":-0.002,"ef_tj":-0.00623}},{"type":"Feature","geometry":{"type":"LineString","coordinates":[[-113.1015,35.72549,12200.0],[-113.2595,35.75087,12190.0]]},"properties":{"ef_share":-0.001,"ef_tj":-0.004703}},{"type":"Feature","geometry":{"type":"LineString","coordinates":[[-113.2595,35.75087,12190.0],[-113.41773,35.77605,12190.0]]},"properties":{"ef_share":-0.001,"ef_tj":-0.003411}},{"type":"Feature","geometry":{"type":"LineString","coordinates":[[-113.41773,35.77605,12190.0],[-113.57555,35.80095,12190.0]]},"properties":{"ef_share":-0.001,"ef_tj":-0.002272}},{"type":"Feature","geometry":{"type":"LineString","coordinates":[[-113.57555,35.80095,12190.0],[-113.73422,35.82572,12190.0]]},"properties":{"ef_share":-0.011,"ef_tj":-0.038429}},{"type":"Feature","geometry":{"type":"LineString","coordinates":[[-113.73422,35.82572,12190.0],[-113.89224,35.85022,12190.0]]},"properties":{"ef_share":-0.013,"ef_tj":-0.048972}},{"type":"Feature","geometry":{"type":"LineString","coordinates":[[-113.89224,35.85022,12190.0],[-114.05053,35.87451,12190.0]]},"properties":{"ef_share":-0.115,"ef_tj":-0.417404}},{"type":"Feature","geometry":{"type":"LineString","coordinates":[[-114.05053,35.87451,12190.0],[-114.20967,35.8987,12190.0]]},"properties":{"ef_share":-0.234,"ef_tj":-0.852643}},{"type":"Feature","geometry":{"type":"LineString","coordinates":[[-114.20967,35.8987,12190.0],[-114.36831,35.92262,12190.0]]},"properties":{"ef_share":-0.278,"ef_tj":-1.00955}},{"type":"Feature","geometry":{"type":"LineString","coordinates":[[-114.36831,35.92262,12190.0],[-114.52759,35.94636,12190.0]]},"properties":{"ef_share":-0.383,"ef_tj":-1.394658}},{"type":"Feature","geometry":{"type":"LineString","coordinates":[[-114.52759,35.94636,12190.0],[-114.68651,35.96988,12190.0]]},"properties":{"ef_share":-0.493,"ef_tj":-1.794204}},{"type":"Feature","geometry":{"type":"LineString","coordinates":[[-114.68651,35.96988,12190.0],[-114.84485,35.99547,12190.0]]},"properties":{"ef_share":-0.637,"ef_tj":-2.318328}},{"type":"Feature","geometry":{"type":"LineString","coordinates":[[-114.84485,35.99547,12190.0],[-114.98698,36.0498,12190.0]]},"properties":{"ef_share":-0.634,"ef_tj":-2.307702}},{"type":"Feature","geometry":{"type":"LineString","coordinates":[[-114.98698,36.0498,12190.0],[-115.12578,36.11061,12190.0]]},"properties":{"ef_share":-0.692,"ef_tj":-2.515951}},{"type":"Feature","geometry":{"type":"LineString","coordinates":[[-115.12578,36.11061,12190.0],[-115.26396,36.17074,12190.0]]},"properties":{"ef_share":-0.864,"ef_tj":-3.142449}},{"type":"Feature","geometry":{"type":"LineString","coordinates":[[-115.26396,36.17074,12190.0],[-115.40238,36.23071,12190.0]]},"properties":{"ef_share":-0.898,"ef_tj":-3.265164}},{"type":"Feature","geometry":{"type":"LineString","coordinates":[[-115.40238,36.23071,12190.0],[-115.54066,36.29036,12190.0]]},"properties":{"ef_share":-0.951,"ef_tj":-3.460509}},{"type":"Feature","geometry":{"type":"LineString","coordinates":[[-115.54066,36.29036,12190.0],[-115.67906,36.34984,12190.0]]},"properties":{"ef_share":-1.0,"ef_tj":-3.637559}},{"type":"Feature","geometry":{"type":"LineString","coordinates":[[-115.67906,36.34984,12190.0],[-115.81713,36.40892,12190.0]]},"properties":{"ef_share":-0.828,"ef_tj":-3.012115}},{"type":"Feature","geometry":{"type":"LineString","coordinates":[[-115.81713,36.40892,12190.0],[-115.95613,36.46818,12190.0]]},"properties":{"ef_share":-0.627,"ef_tj":-2.279058}},{"type":"Feature","geometry":{"type":"LineString","coordinates":[[-115.95613,36.46818,12190.0],[-116.09563,36.52735,12190.0]]},"properties":{"ef_share":-0.586,"ef_tj":-2.132635}},{"type":"Feature","geometry":{"type":"LineString","coordinates":[[-116.09563,36.52735,12190.0],[-116.23463,36.58608,12190.0]]},"properties":{"ef_share":-0.575,"ef_tj":-2.091215}},{"type":"Feature","geometry":{"type":"LineString","coordinates":[[-116.23463,36.58608,12190.0],[-116.37381,36.64462,12190.0]]},"properties":{"ef_share":-0.564,"ef_tj":-2.050393}},{"type":"Feature","geometry":{"type":"LineString","coordinates":[[-116.37381,36.64462,12190.0],[-116.51306,36.70298,12190.0]]},"properties":{"ef_share":0.0,"ef_tj":0.0}},{"type":"Feature","geometry":{"type":"LineString","coordinates":[[-116.51306,36.70298,12190.0],[-116.65227,36.76099,12190.0]]},"properties":{"ef_share":0.0,"ef_tj":0.0}},{"type":"Feature","geometry":{"type":"LineString","coordinates":[[-116.65227,36.76099,12190.0],[-116.78054,36.83084,12190.0]]},"properties":{"ef_share":0.0,"ef_tj":0.0}},{"type":"Feature","geometry":{"type":"LineString","coordinates":[[-116.78054,36.83084,12190.0],[-116.88323,36.92319,12190.0]]},"properties":{"ef_share":0.0,"ef_tj":0.0}},{"type":"Feature","geometry":{"type":"LineString","coordinates":[[-116.88323,36.92319,12190.0],[-116.98535,37.01507,12190.0]]},"properties":{"ef_share":0.0,"ef_tj":0.0}},{"type":"Feature","geometry":{"type":"LineString","coordinates":[[-116.98535,37.01507,12190.0],[-117.08747,37.10695,12190.0]]},"properties":{"ef_share":0.0,"ef_tj":0.0}},{"type":"Feature","geometry":{"type":"LineString","coordinates":[[-117.08747,37.10695,12190.0],[-117.18959,37.19883,12190.0]]},"properties":{"ef_share":0.0,"ef_tj":0.0}},{"type":"Feature","geometry":{"type":"LineString","coordinates":[[-117.18959,37.19883,12190.0],[-117.29171,37.29071,12190.0]]},"properties":{"ef_share":0.0,"ef_tj":0.0}},{"type":"Feature","geometry":{"type":"LineString","coordinates":[[-117.29171,37.29071,12190.0],[-117.39406,37.38233,12190.0]]},"properties":{"ef_share":0.0,"ef_tj":0.0}},{"type":"Feature","geometry":{"type":"LineString","coordinates":[[-117.39406,37.38233,12190.0],[-117.50161,37.47035,12190.0]]},"properties":{"ef_share":0.0,"ef_tj":-0.00139}},{"type":"Feature","geometry":{"type":"LineString","coordinates":[[-117.50161,37.47035,12190.0],[-117.65748,37.48441,12190.0]]},"properties":{"ef_share":0.0,"ef_tj":-0.00103}},{"type":"Feature","geometry":{"type":"LineString","coordinates":[[-117.65748,37.48441,12190.0],[-117.82127,37.47063,12190.0]]},"properties":{"ef_share":0.0,"ef_tj":0.0}},{"type":"Feature","geometry":{"type":"LineString","coordinates":[[-117.82127,37.47063,12190.0],[-117.98396,37.45746,11830.0]]},"properties":{"ef_share":0.0,"ef_tj":0.0}},{"type":"Feature","geometry":{"type":"LineString","coordinates":[[-117.98396,37.45746,11830.0],[-118.1453,37.44422,11220.0]]},"properties":{"ef_share":0.0,"ef_tj":0.0}},{"type":"Feature","geometry":{"type":"LineString","coordinates":[[-118.1453,37.44422,11220.0],[-118.30909,37.43055,10610.0]]},"properties":{"ef_share":0.0,"ef_tj":0.0}},{"type":"Feature","geometry":{"type":"LineString","coordinates":[[-118.30909,37.43055,10610.0],[-118.47613,37.41639,9990.0]]},"properties":{"ef_share":0.0,"ef_tj":0.0}},{"type":"Feature","geometry":{"type":"LineString","coordinates":[[-118.47613,37.41639,9990.0],[-118.64466,37.40184,9400.0]]},"properties":{"ef_share":0.0,"ef_tj":0.0}},{"type":"Feature","geometry":{"type":"LineString","coordinates":[[-118.64466,37.40184,9400.0],[-118.81002,37.38577,9140.0]]},"properties":{"ef_share":0.0,"ef_tj":0.0}},{"type":"Feature","geometry":{"type":"LineString","coordinates":[[-118.81002,37.38577,9140.0],[-118.9727,37.36421,9130.0]]},"properties":{"ef_share":0.0,"ef_tj":0.0}},{"type":"Feature","geometry":{"type":"LineString","coordinates":[[-118.9727,37.36421,9130.0],[-119.13297,37.34232,8720.0]]},"properties":{"ef_share":0.0,"ef_tj":0.0}},{"type":"Feature","geometry":{"type":"LineString","coordinates":[[-119.13297,37.34232,8720.0],[-119.29154,37.32052,8260.0]]},"properties":{"ef_share":0.0,"ef_tj":0.0}},{"type":"Feature","geometry":{"type":"LineString","coordinates":[[-119.29154,37.32052,8260.0],[-119.44413,37.29929,8050.0]]},"properties":{"ef_share":0.0,"ef_tj":0.0}},{"type":"Feature","geometry":{"type":"LineString","coordinates":[[-119.44413,37.29929,8050.0],[-119.59644,37.27791,7900.0]]},"properties":{"ef_share":0.0,"ef_tj":0.0}},{"type":"Feature","geometry":{"type":"LineString","coordinates":[[-119.59644,37.27791,7900.0],[-119.73768,37.25784,7750.0]]},"properties":{"ef_share":0.0,"ef_tj":0.0}},{"type":"Feature","geometry":{"type":"LineString","coordinates":[[-119.73768,37.25784,7750.0],[-119.88202,37.23723,7580.0]]},"properties":{"ef_share":0.0,"ef_tj":0.0}},{"type":"Feature","geometry":{"type":"LineString","coordinates":[[-119.88202,37.23723,7580.0],[-120.03052,37.21861,7360.0]]},"properties":{"ef_share":0.0,"ef_tj":0.0}},{"type":"Feature","geometry":{"type":"LineString","coordinates":[[-120.03052,37.21861,7360.0],[-120.17762,37.20335,6870.0]]},"properties":{"ef_share":0.0,"ef_tj":0.0}},{"type":"Feature","geometry":{"type":"LineString","coordinates":[[-120.17762,37.20335,6870.0],[-120.32408,37.18763,6360.0]]},"properties":{"ef_share":0.0,"ef_tj":0.0}},{"type":"Feature","geometry":{"type":"LineString","coordinates":[[-120.32408,37.18763,6360.0],[-120.46769,37.17187,5870.0]]},"properties":{"ef_share":0.0,"ef_tj":0.0}},{"type":"Feature","geometry":{"type":"LineString","coordinates":[[-120.46769,37.17187,5870.0],[-120.6069,37.15637,5280.0]]},"properties":{"ef_share":0.0,"ef_tj":0.0}},{"type":"Feature","geometry":{"type":"LineString","coordinates":[[-120.6069,37.15637,5280.0],[-120.73834,37.14148,4820.0]]},"properties":{"ef_share":0.0,"ef_tj":0.0}},{"type":"Feature","geometry":{"type":"LineString","coordinates":[[-120.73834,37.14148,4820.0],[-120.85728,37.12839,4370.0]]},"properties":{"ef_share":0.0,"ef_tj":0.0}},{"type":"Feature","geometry":{"type":"LineString","coordinates":[[-120.85728,37.12839,4370.0],[-120.9753,37.11519,3930.0]]},"properties":{"ef_share":0.0,"ef_tj":0.0}},{"type":"Feature","geometry":{"type":"LineString","coordinates":[[-120.9753,37.11519,3930.0],[-121.09136,37.10215,3490.0]]},"properties":{"ef_share":0.0,"ef_tj":0.0}},{"type":"Feature","geometry":{"type":"LineString","coordinates":[[-121.09136,37.10215,3490.0],[-121.1976,37.10624,3090.0]]},"properties":{"ef_share":0.0,"ef_tj":0.0}},{"type":"Feature","geometry":{"type":"LineString","coordinates":[[-121.1976,37.10624,3090.0],[-121.29363,37.11732,2730.0]]},"properties":{"ef_share":0.0,"ef_tj":0.0}},{"type":"Feature","geometry":{"type":"LineString","coordinates":[[-121.29363,37.11732,2730.0],[-121.3807,37.12726,2400.0]]},"properties":{"ef_share":0.0,"ef_tj":0.0}},{"type":"Feature","geometry":{"type":"LineString","coordinates":[[-121.3807,37.12726,2400.0],[-121.45912,37.13606,2110.0]]},"properties":{"ef_share":0.0,"ef_tj":0.0}},{"type":"Feature","geometry":{"type":"LineString","coordinates":[[-121.45912,37.13606,2110.0],[-121.52824,37.14353,1860.0]]},"properties":{"ef_share":0.0,"ef_tj":0.0}},{"type":"Feature","geometry":{"type":"LineString","coordinates":[[-121.52824,37.14353,1860.0],[-121.58581,37.11151,1570.0]]},"properties":{"ef_share":0.0,"ef_tj":0.0}},{"type":"Feature","geometry":{"type":"LineString","coordinates":[[-121.58581,37.11151,1570.0],[-121.64004,37.13256,1420.0]]},"properties":{"ef_share":0.0,"ef_tj":0.0}},{"type":"Feature","geometry":{"type":"LineString","coordinates":[[-121.64004,37.13256,1420.0],[-121.69428,37.15619,1210.0]]},"properties":{"ef_share":0.0,"ef_tj":0.0}},{"type":"Feature","geometry":{"type":"LineString","coordinates":[[-121.69428,37.15619,1210.0],[-121.73962,37.18856,1030.0]]},"properties":{"ef_share":0.0,"ef_tj":0.0}},{"type":"Feature","geometry":{"type":"LineString","coordinates":[[-121.73962,37.18856,1030.0],[-121.77948,37.22511,830.0]]},"properties":{"ef_share":0.0,"ef_tj":0.0}},{"type":"Feature","geometry":{"type":"LineString","coordinates":[[-121.77948,37.22511,830.0],[-121.81563,37.25836,690.0]]},"properties":{"ef_share":0.0,"ef_tj":0.0}},{"type":"Feature","geometry":{"type":"LineString","coordinates":[[-121.81563,37.25836,690.0],[-121.8471,37.28711,470.0]]},"properties":{"ef_share":0.0,"ef_tj":0.0}},{"type":"Feature","geometry":{"type":"LineString","coordinates":[[-121.8471,37.28711,470.0],[-121.87697,37.31432,270.0]]},"properties":{"ef_share":0.0,"ef_tj":0.0}},{"type":"Feature","geometry":{"type":"LineString","coordinates":[[-121.87697,37.31432,270.0],[-121.90701,37.34173,30.0]]},"properties":{"ef_share":0.0,"ef_tj":0.0}},{"type":"Feature","geometry":{"type":"LineString","coordinates":[[-121.90701,37.34173,30.0],[-121.93249,37.36503,-100.0]]},"properties":{"ef_share":0.0,"ef_tj":0.0}}]}