{"type":"FeatureCollection","properties":{"icao24":"a835af","registration":"N628TS","owner_label":"Elon Musk","combined_co2e_central":8371.9,"fuel_co2_kg":8371.9,"contrail_co2e_central":0.0,"tier":"low"},"features":[{"type":"Feature","geometry":{"type":"LineString","coordinates":[[-97.65748,30.18781,60.0],[-97.63602,30.23062,990.0]]},"properties":{"ef_share":0.0,"ef_tj":0.0}},{"type":"Feature","geometry":{"type":"LineString","coordinates":[[-97.63602,30.23062,990.0],[-97.56188,30.26567,1880.0]]},"properties":{"ef_share":0.0,"ef_tj":0.0}},{"type":"Feature","geometry":{"type":"LineString","coordinates":[[-97.56188,30.26567,1880.0],[-97.46854,30.2823,3250.0]]},"properties":{"ef_share":0.0,"ef_tj":0.0}},{"type":"Feature","geometry":{"type":"LineString","coordinates":[[-97.46854,30.2823,3250.0],[-97.35897,30.30223,3810.0]]},"properties":{"ef_share":0.0,"ef_tj":0.0}},{"type":"Feature","geometry":{"type":"LineString","coordinates":[[-97.35897,30.30223,3810.0],[-97.22742,30.32602,4670.0]]},"properties":{"ef_share":0.0,"ef_tj":0.0}},{"type":"Feature","geometry":{"type":"LineString","coordinates":[[-97.22742,30.32602,4670.0],[-97.08772,30.34872,5540.0]]},"properties":{"ef_share":0.0,"ef_tj":0.0}},{"type":"Feature","geometry":{"type":"LineString","coordinates":[[-97.08772,30.34872,5540.0],[-96.93776,30.34452,6410.0]]},"properties":{"ef_share":0.0,"ef_tj":0.0}},{"type":"Feature","geometry":{"type":"LineString","coordinates":[[-96.93776,30.34452,6410.0],[-96.77979,30.33498,7020.0]]},"properties":{"ef_share":0.0,"ef_tj":0.0}},{"type":"Feature","geometry":{"type":"LineString","coordinates":[[-96.77979,30.33498,7020.0],[-96.61591,30.32474,7550.0]]},"properties":{"ef_share":0.0,"ef_tj":0.0}},{"type":"Feature","geometry":{"type":"LineString","coordinates":[[-96.61591,30.32474,7550.0],[-96.44589,30.31394,8260.0]]},"properties":{"ef_share":0.0,"ef_tj":0.0}},{"type":"Feature","geometry":{"type":"LineString","coordinates":[[-96.44589,30.31394,8260.0],[-96.27021,30.30256,8880.0]]},"properties":{"ef_share":0.0,"ef_tj":0.0}},{"type":"Feature","geometry":{"type":"LineString","coordinates":[[-96.27021,30.30256,8880.0],[-96.08851,30.29707,9350.0]]},"properties":{"ef_share":0.0,"ef_tj":0.0}},{"type":"Feature","geometry":{"type":"LineString","coordinates":[[-96.08851,30.29707,9350.0],[-95.9316,30.37143,9770.0]]},"properties":{"ef_share":0.0,"ef_tj":0.0}},{"type":"Feature","geometry":{"type":"LineString","coordinates":[[-95.9316,30.37143,9770.0],[-95.78452,30.46936,10050.0]]},"properties":{"ef_share":0.0,"ef_tj":0.0}},{"type":"Feature","geometry":{"type":"LineString","coordinates":[[-95.78452,30.46936,10050.0],[-95.63334,30.56865,10620.0]]},"properties":{"ef_share":0.0,"ef_tj":0.0}},{"type":"Feature","geometry":{"type":"LineString","coordinates":[[-95.63334,30.56865,10620.0],[-95.48428,30.66618,11130.0]]},"properties":{"ef_share":0.0,"ef_tj":0.0}},{"type":"Feature","geometry":{"type":"LineString","coordinates":[[-95.48428,30.66618,11130.0],[-95.33376,30.76417,11650.0]]},"properties":{"ef_share":0.0,"ef_tj":0.0}},{"type":"Feature","geometry":{"type":"LineString","coordinates":[[-95.33376,30.76417,11650.0],[-95.18619,30.86473,12030.0]]},"properties":{"ef_share":0.0,"ef_tj":0.0}},{"type":"Feature","geometry":{"type":"LineString","coordinates":[[-95.18619,30.86473,12030.0],[-95.06233,30.98122,12330.0]]},"properties":{"ef_share":0.0,"ef_tj":0.0}},{"type":"Feature","geometry":{"type":"LineString","coordinates":[[-95.06233,30.98122,12330.0],[-94.94621,31.09896,12500.0]]},"properties":{"ef_share":0.0,"ef_tj":0.0}},{"type":"Feature","geometry":{"type":"LineString","coordinates":[[-94.94621,31.09896,12500.0],[-94.83053,31.21575,12500.0]]},"properties":{"ef_share":0.0,"ef_tj":0.0}},{"type":"Feature","geometry":{"type":"LineString","coordinates":[[-94.83053,31.21575,12500.0],[-94.71487,31.33215,12500.0]]},"properties":{"ef_share":0.0,"ef_tj":0.0}},{"type":"Feature","geometry":{"type":"LineString","coordinates":[[-94.71487,31.33215,12500.0],[-94.59868,31.44876,12500.0]]},"properties":{"ef_share":0.0,"ef_tj":0.0}},{"type":"Feature","geometry":{"type":"LineString","coordinates":[[-94.59868,31.44876,12500.0],[-94.48175,31.56566,12500.0]]},"properties":{"ef_share":0.0,"ef_tj":0.0}},{"type":"Feature","geometry":{"type":"LineString","coordinates":[[-94.48175,31.56566,12500.0],[-94.36427,31.68266,12500.0]]},"properties":{"ef_share":0.0,"ef_tj":0.0}},{"type":"Feature","geometry":{"type":"LineString","coordinates":[[-94.36427,31.68266,12500.0],[-94.24637,31.79974,12500.0]]},"properties":{"ef_share":0.0,"ef_tj":0.0}},{"type":"Feature","geometry":{"type":"LineString","coordinates":[[-94.24637,31.79974,12500.0],[-94.12828,31.91657,12500.0]]},"properties":{"ef_share":0.0,"ef_tj":0.0}},{"type":"Feature","geometry":{"type":"LineString","coordinates":[[-94.12828,31.91657,12500.0],[-94.00911,32.03404,12500.0]]},"properties":{"ef_share":0.0,"ef_tj":0.0}},{"type":"Feature","geometry":{"type":"LineString","coordinates":[[-94.00911,32.03404,12500.0],[-93.89043,32.15066,12500.0]]},"properties":{"ef_share":0.0,"ef_tj":0.0}},{"type":"Feature","geometry":{"type":"LineString","coordinates":[[-93.89043,32.15066,12500.0],[-93.77239,32.26619,12500.0]]},"properties":{"ef_share":0.0,"ef_tj":0.0}},{"type":"Feature","geometry":{"type":"LineString","coordinates":[[-93.77239,32.26619,12500.0],[-93.6545,32.38126,12500.0]]},"properties":{"ef_share":0.0,"ef_tj":0.0}},{"type":"Feature","geometry":{"type":"LineString","coordinates":[[-93.6545,32.38126,12500.0],[-93.53577,32.4966,12500.0]]},"properties":{"ef_share":0.0,"ef_tj":0.0}},{"type":"Feature","geometry":{"type":"LineString","coordinates":[[-93.53577,32.4966,12500.0],[-93.41622,32.6125,12500.0]]},"properties":{"ef_share":0.0,"ef_tj":0.0}},{"type":"Feature","geometry":{"type":"LineString","coordinates":[[-93.41622,32.6125,12500.0],[-93.2973,32.72717,12500.0]]},"properties":{"ef_share":0.0,"ef_tj":0.0}},{"type":"Feature","geometry":{"type":"LineString","coordinates":[[-93.2973,32.72717,12500.0],[-93.17958,32.84042,12500.0]]},"properties":{"ef_share":0.0,"ef_tj":0.0}},{"type":"Feature","geometry":{"type":"LineString","coordinates":[[-93.17958,32.84042,12500.0],[-93.06127,32.95396,12500.0]]},"properties":{"ef_share":0.0,"ef_tj":0.0}},{"type":"Feature","geometry":{"type":"LineString","coordinates":[[-93.06127,32.95396,12500.0],[-92.94184,33.06799,12500.0]]},"properties":{"ef_share":0.0,"ef_tj":0.0}},{"type":"Feature","geometry":{"type":"LineString","coordinates":[[-92.94184,33.06799,12500.0],[-92.82146,33.18254,12500.0]]},"properties":{"ef_share":0.0,"ef_tj":0.0}},{"type":"Feature","geometry":{"type":"LineString","coordinates":[[-92.82146,33.18254,12500.0],[-92.7006,33.29734,12500.0]]},"properties":{"ef_share":0.0,"ef_tj":0.0}},{"type":"Feature","geometry":{"type":"LineString","coordinates":[[-92.7006,33.29734,12500.0],[-92.57971,33.41248,12500.0]]},"properties":{"ef_share":0.0,"ef_tj":0.0}},{"type":"Feature","geometry":{"type":"LineString","coordinates":[[-92.57971,33.41248,12500.0],[-92.45991,33.52613,12500.0]]},"properties":{"ef_share":0.0,"ef_tj":0.0}},{"type":"Feature","geometry":{"type":"LineString","coordinates":[[-92.45991,33.52613,12500.0],[-92.34086,33.63877,12500.0]]},"properties":{"ef_share":0.0,"ef_tj":0.0}},{"type":"Feature","geometry":{"type":"LineString","coordinates":[[-92.34086,33.63877,12500.0],[-92.2196,33.753,12500.0]]},"properties":{"ef_share":0.0,"ef_tj":0.0}},{"type":"Feature","geometry":{"type":"LineString","coordinates":[[-92.2196,33.753,12500.0],[-92.09623,33.86875,12500.0]]},"properties":{"ef_share":0.0,"ef_tj":0.0}},{"type":"Feature","geometry":{"type":"LineString","coordinates":[[-92.09623,33.86875,12500.0],[-91.97372,33.98326,12500.0]]},"properties":{"ef_share":0.0,"ef_tj":0.0}},{"type":"Feature","geometry":{"type":"LineString","coordinates":[[-91.97372,33.98326,12500.0],[-91.85063,34.09794,12500.0]]},"properties":{"ef_share":0.0,"ef_tj":0.0}},{"type":"Feature","geometry":{"type":"LineString","coordinates":[[-91.85063,34.09794,12500.0],[-91.72607,34.21349,12500.0]]},"properties":{"ef_share":0.0,"ef_tj":0.0}},{"type":"Feature","geometry":{"type":"LineString","coordinates":[[-91.72607,34.21349,12500.0],[-91.60077,34.32924,12500.0]]},"properties":{"ef_share":0.0,"ef_tj":0.0}},{"type":"Feature","geometry":{"type":"LineString","coordinates":[[-91.60077,34.32924,12500.0],[-91.4745,34.44555,12500.0]]},"properties":{"ef_share":0.0,"ef_tj":0.0}},{"type":"Feature","geometry":{"type":"LineString","coordinates":[[-91.4745,34.44555,12500.0],[-91.34659,34.56282,12500.0]]},"properties":{"ef_share":0.0,"ef_tj":0.0}},{"type":"Feature","geometry":{"type":"LineString","coordinates":[[-91.34659,34.56282,12500.0],[-91.21957,34.67873,12500.0]]},"properties":{"ef_share":0.0,"ef_tj":0.0}},{"type":"Feature","geometry":{"type":"LineString","coordinates":[[-91.21957,34.67873,12500.0],[-91.09351,34.79354,12500.0]]},"properties":{"ef_share":0.0,"ef_tj":0.0}},{"type":"Feature","geometry":{"type":"LineString","coordinates":[[-91.09351,34.79354,12500.0],[-90.96732,34.90791,12500.0]]},"properties":{"ef_share":0.0,"ef_tj":0.0}},{"type":"Feature","geometry":{"type":"LineString","coordinates":[[-90.96732,34.90791,12500.0],[-90.83967,35.02314,12500.0]]},"properties":{"ef_share":0.0,"ef_tj":0.0}},{"type":"Feature","geometry":{"type":"LineString","coordinates":[[-90.83967,35.02314,12500.0],[-90.71339,35.1366,12500.0]]},"properties":{"ef_share":0.0,"ef_tj":0.0}},{"type":"Feature","geometry":{"type":"LineString","coordinates":[[-90.71339,35.1366,12500.0],[-90.58661,35.25016,12500.0]]},"properties":{"ef_share":0.0,"ef_tj":0.0}},{"type":"Feature","geometry":{"type":"LineString","coordinates":[[-90.58661,35.25016,12500.0],[-90.46176,35.36522,12500.0]]},"properties":{"ef_share":0.0,"ef_tj":0.0}},{"type":"Feature","geometry":{"type":"LineString","coordinates":[[-90.46176,35.36522,12500.0],[-90.34577,35.48441,12500.0]]},"properties":{"ef_share":0.0,"ef_tj":0.0}},{"type":"Feature","geometry":{"type":"LineString","coordinates":[[-90.34577,35.48441,12500.0],[-90.23089,35.6033,12500.0]]},"properties":{"ef_share":0.0,"ef_tj":0.0}},{"type":"Feature","geometry":{"type":"LineString","coordinates":[[-90.23089,35.6033,12500.0],[-90.116,35.72168,12500.0]]},"properties":{"ef_share":0.0,"ef_tj":0.0}},{"type":"Feature","geometry":{"type":"LineString","coordinates":[[-90.116,35.72168,12500.0],[-90.0002,35.84046,12500.0]]},"properties":{"ef_share":0.0,"ef_tj":0.0}},{"type":"Feature","geometry":{"type":"LineString","coordinates":[[-90.0002,35.84046,12500.0],[-89.88315,35.96007,12500.0]]},"properties":{"ef_share":0.0,"ef_tj":0.0}},{"type":"Feature","geometry":{"type":"LineString","coordinates":[[-89.88315,35.96007,12500.0],[-89.7666,36.07877,12500.0]]},"properties":{"ef_share":0.0,"ef_tj":0.0}},{"type":"Feature","geometry":{"type":"LineString","coordinates":[[-89.7666,36.07877,12500.0],[-89.64917,36.19789,12500.0]]},"properties":{"ef_share":0.0,"ef_tj":0.0}},{"type":"Feature","geometry":{"type":"LineString","coordinates":[[-89.64917,36.19789,12500.0],[-89.53203,36.31606,12500.0]]},"properties":{"ef_share":0.0,"ef_tj":0.0}},{"type":"Feature","geometry":{"type":"LineString","coordinates":[[-89.53203,36.31606,12500.0],[-89.41563,36.43322,12500.0]]},"properties":{"ef_share":0.0,"ef_tj":0.0}},{"type":"Feature","geometry":{"type":"LineString","coordinates":[[-89.41563,36.43322,12500.0],[-89.29879,36.55031,12500.0]]},"properties":{"ef_share":0.0,"ef_tj":0.0}},{"type":"Feature","geometry":{"type":"LineString","coordinates":[[-89.29879,36.55031,12500.0],[-89.18143,36.66734,12500.0]]},"properties":{"ef_share":0.0,"ef_tj":0.0}},{"type":"Feature","geometry":{"type":"LineString","coordinates":[[-89.18143,36.66734,12500.0],[-89.06366,36.78444,12500.0]]},"properties":{"ef_share":0.0,"ef_tj":0.0}},{"type":"Feature","geometry":{"type":"LineString","coordinates":[[-89.06366,36.78444,12500.0],[-88.94637,36.90058,12500.0]]},"properties":{"ef_share":0.0,"ef_tj":0.0}},{"type":"Feature","geometry":{"type":"LineString","coordinates":[[-88.94637,36.90058,12500.0],[-88.82829,37.01723,12500.0]]},"properties":{"ef_share":0.0,"ef_tj":0.0}},{"type":"Feature","geometry":{"type":"LineString","coordinates":[[-88.82829,37.01723,12500.0],[-88.71185,37.13544,12500.0]]},"properties":{"ef_share":0.0,"ef_tj":0.0}},{"type":"Feature","geometry":{"type":"LineString","coordinates":[[-88.71185,37.13544,12500.0],[-88.59497,37.2537,12500.0]]},"properties":{"ef_share":0.0,"ef_tj":0.0}},{"type":"Feature","geometry":{"type":"LineString","coordinates":[[-88.59497,37.2537,12500.0],[-88.47702,37.3725,12500.0]]},"properties":{"ef_share":0.0,"ef_tj":0.0}},{"type":"Feature","geometry":{"type":"LineString","coordinates":[[-88.47702,37.3725,12500.0],[-88.35828,37.49152,12500.0]]},"properties":{"ef_share":0.0,"ef_tj":0.0}},{"type":"Feature","geometry":{"type":"LineString","coordinates":[[-88.35828,37.49152,12500.0],[-88.23967,37.60995,12500.0]]},"properties":{"ef_share":0.0,"ef_tj":0.0}},{"type":"Feature","geometry":{"type":"LineString","coordinates":[[-88.23967,37.60995,12500.0],[-88.12125,37.7277,12490.0]]},"properties":{"ef_share":0.0,"ef_tj":0.0}},{"type":"Feature","geometry":{"type":"LineString","coordinates":[[-88.12125,37.7277,12490.0],[-88.0031,37.84469,12050.0]]},"properties":{"ef_share":0.0,"ef_tj":0.0}},{"type":"Feature","geometry":{"type":"LineString","coordinates":[[-88.0031,37.84469,12050.0],[-87.88351,37.96261,11600.0]]},"properties":{"ef_share":0.0,"ef_tj":0.0}},{"type":"Feature","geometry":{"type":"LineString","coordinates":[[-87.88351,37.96261,11600.0],[-87.76286,38.08113,11150.0]]},"properties":{"ef_share":0.0,"ef_tj":0.0}},{"type":"Feature","geometry":{"type":"LineString","coordinates":[[-87.76286,38.08113,11150.0],[-87.64158,38.19967,10700.0]]},"properties":{"ef_share":0.0,"ef_tj":0.0}},{"type":"Feature","geometry":{"type":"LineString","coordinates":[[-87.64158,38.19967,10700.0],[-87.5214,38.31667,10190.0]]},"properties":{"ef_share":0.0,"ef_tj":0.0}},{"type":"Feature","geometry":{"type":"LineString","coordinates":[[-87.5214,38.31667,10190.0],[-87.40438,38.42997,9570.0]]},"properties":{"ef_share":0.0,"ef_tj":0.0}},{"type":"Feature","geometry":{"type":"LineString","coordinates":[[-87.40438,38.42997,9570.0],[-87.29178,38.53874,8970.0]]},"properties":{"ef_share":0.0,"ef_tj":0.0}},{"type":"Feature","geometry":{"type":"LineString","coordinates":[[-87.29178,38.53874,8970.0],[-87.18144,38.6448,8380.0]]},"properties":{"ef_share":0.0,"ef_tj":0.0}},{"type":"Feature","geometry":{"type":"LineString","coordinates":[[-87.18144,38.6448,8380.0],[-87.07457,38.74717,7820.0]]},"properties":{"ef_share":0.0,"ef_tj":0.0}},{"type":"Feature","geometry":{"type":"LineString","coordinates":[[-87.07457,38.74717,7820.0],[-86.97105,38.84598,7280.0]]},"properties":{"ef_share":0.0,"ef_tj":0.0}},{"type":"Feature","geometry":{"type":"LineString","coordinates":[[-86.97105,38.84598,7280.0],[-86.87042,38.9417,7010.0]]},"properties":{"ef_share":0.0,"ef_tj":0.0}},{"type":"Feature","geometry":{"type":"LineString","coordinates":[[-86.87042,38.9417,7010.0],[-86.76969,39.03716,7010.0]]},"properties":{"ef_share":0.0,"ef_tj":0.0}},{"type":"Feature","geometry":{"type":"LineString","coordinates":[[-86.76969,39.03716,7010.0],[-86.66926,39.13189,6730.0]]},"properties":{"ef_share":0.0,"ef_tj":0.0}},{"type":"Feature","geometry":{"type":"LineString","coordinates":[[-86.66926,39.13189,6730.0],[-86.57304,39.22241,5700.0]]},"properties":{"ef_share":0.0,"ef_tj":0.0}},{"type":"Feature","geometry":{"type":"LineString","coordinates":[[-86.57304,39.22241,5700.0],[-86.48158,39.30814,4700.0]]},"properties":{"ef_share":0.0,"ef_tj":0.0}},{"type":"Feature","geometry":{"type":"LineString","coordinates":[[-86.48158,39.30814,4700.0],[-86.37636,39.37419,3800.0]]},"properties":{"ef_share":0.0,"ef_tj":0.0}},{"type":"Feature","geometry":{"type":"LineString","coordinates":[[-86.37636,39.37419,3800.0],[-86.27629,39.42886,3070.0]]},"properties":{"ef_share":0.0,"ef_tj":0.0}},{"type":"Feature","geometry":{"type":"LineString","coordinates":[[-86.27629,39.42886,3070.0],[-86.19028,39.47349,2410.0]]},"properties":{"ef_share":0.0,"ef_tj":0.0}},{"type":"Feature","geometry":{"type":"LineString","coordinates":[[-86.19028,39.47349,2410.0],[-86.10357,39.51624,2190.0]]},"properties":{"ef_share":0.0,"ef_tj":0.0}},{"type":"Feature","geometry":{"type":"LineString","coordinates":[[-86.10357,39.51624,2190.0],[-86.01784,39.55294,1770.0]]},"properties":{"ef_share":0.0,"ef_tj":0.0}},{"type":"Feature","geometry":{"type":"LineString","coordinates":[[-86.01784,39.55294,1770.0],[-85.93408,39.59172,1740.0]]},"properties":{"ef_share":0.0,"ef_tj":0.0}},{"type":"Feature","geometry":{"type":"LineString","coordinates":[[-85.93408,39.59172,1740.0],[-85.85841,39.63682,1740.0]]},"properties":{"ef_share":0.0,"ef_tj":0.0}}]}