{"type":"FeatureCollection","properties":{"icao24":"a835af","registration":"N628TS","owner_label":"Elon Musk","combined_co2e_central":17908.1,"fuel_co2_kg":13057.9,"contrail_co2e_central":4850.2,"tier":"medium"},"features":[{"type":"Feature","geometry":{"type":"LineString","coordinates":[[-121.94901,37.37984,320.0],[-121.98438,37.42915,1300.0]]},"properties":{"ef_share":0.0,"ef_tj":0.0}},{"type":"Feature","geometry":{"type":"LineString","coordinates":[[-121.98438,37.42915,1300.0],[-121.9234,37.452,1490.0]]},"properties":{"ef_share":0.0,"ef_tj":0.0}},{"type":"Feature","geometry":{"type":"LineString","coordinates":[[-121.9234,37.452,1490.0],[-121.87354,37.40873,1540.0]]},"properties":{"ef_share":0.0,"ef_tj":0.0}},{"type":"Feature","geometry":{"type":"LineString","coordinates":[[-121.87354,37.40873,1540.0],[-121.81776,37.35645,2320.0]]},"properties":{"ef_share":0.0,"ef_tj":0.0}},{"type":"Feature","geometry":{"type":"LineString","coordinates":[[-121.81776,37.35645,2320.0],[-121.75308,37.29776,3120.0]]},"properties":{"ef_share":0.0,"ef_tj":0.0}},{"type":"Feature","geometry":{"type":"LineString","coordinates":[[-121.75308,37.29776,3120.0],[-121.6826,37.23589,3920.0]]},"properties":{"ef_share":0.0,"ef_tj":0.0}},{"type":"Feature","geometry":{"type":"LineString","coordinates":[[-121.6826,37.23589,3920.0],[-121.6097,37.17142,4720.0]]},"properties":{"ef_share":0.0,"ef_tj":0.0}},{"type":"Feature","geometry":{"type":"LineString","coordinates":[[-121.6097,37.17142,4720.0],[-121.53344,37.10369,5520.0]]},"properties":{"ef_share":0.0,"ef_tj":0.0}},{"type":"Feature","geometry":{"type":"LineString","coordinates":[[-121.53344,37.10369,5520.0],[-121.44907,37.03507,6320.0]]},"properties":{"ef_share":0.0,"ef_tj":0.0}},{"type":"Feature","geometry":{"type":"LineString","coordinates":[[-121.44907,37.03507,6320.0],[-121.3588,36.96921,7110.0]]},"properties":{"ef_share":0.0,"ef_tj":0.0}},{"type":"Feature","geometry":{"type":"LineString","coordinates":[[-121.3588,36.96921,7110.0],[-121.26112,36.89755,7770.0]]},"properties":{"ef_share":0.0,"ef_tj":0.0}},{"type":"Feature","geometry":{"type":"LineString","coordinates":[[-121.26112,36.89755,7770.0],[-121.15305,36.81809,8330.0]]},"properties":{"ef_share":0.0,"ef_tj":0.0}},{"type":"Feature","geometry":{"type":"LineString","coordinates":[[-121.15305,36.81809,8330.0],[-121.03569,36.73161,8880.0]]},"properties":{"ef_share":0.0,"ef_tj":0.0}},{"type":"Feature","geometry":{"type":"LineString","coordinates":[[-121.03569,36.73161,8880.0],[-120.91347,36.63791,9410.0]]},"properties":{"ef_share":0.0,"ef_tj":0.0}},{"type":"Feature","geometry":{"type":"LineString","coordinates":[[-120.91347,36.63791,9410.0],[-120.79228,36.5348,9900.0]]},"properties":{"ef_share":0.0,"ef_tj":0.0}},{"type":"Feature","geometry":{"type":"LineString","coordinates":[[-120.79228,36.5348,9900.0],[-120.66747,36.42758,10400.0]]},"properties":{"ef_share":0.0,"ef_tj":0.0}},{"type":"Feature","geometry":{"type":"LineString","coordinates":[[-120.66747,36.42758,10400.0],[-120.54093,36.31847,10890.0]]},"properties":{"ef_share":0.0,"ef_tj":0.0}},{"type":"Feature","geometry":{"type":"LineString","coordinates":[[-120.54093,36.31847,10890.0],[-120.41554,36.20994,11390.0]]},"properties":{"ef_share":0.0,"ef_tj":0.0}},{"type":"Feature","geometry":{"type":"LineString","coordinates":[[-120.41554,36.20994,11390.0],[-120.29211,36.10264,11880.0]]},"properties":{"ef_share":0.0,"ef_tj":0.0}},{"type":"Feature","geometry":{"type":"LineString","coordinates":[[-120.29211,36.10264,11880.0],[-120.16897,35.99523,12270.0]]},"properties":{"ef_share":0.0,"ef_tj":0.0}},{"type":"Feature","geometry":{"type":"LineString","coordinates":[[-120.16897,35.99523,12270.0],[-120.04504,35.88708,12500.0]]},"properties":{"ef_share":0.0,"ef_tj":0.0}},{"type":"Feature","geometry":{"type":"LineString","coordinates":[[-120.04504,35.88708,12500.0],[-119.908,35.79269,12500.0]]},"properties":{"ef_share":0.0,"ef_tj":0.0}},{"type":"Feature","geometry":{"type":"LineString","coordinates":[[-119.908,35.79269,12500.0],[-119.75902,35.70425,12500.0]]},"properties":{"ef_share":0.0,"ef_tj":0.0}},{"type":"Feature","geometry":{"type":"LineString","coordinates":[[-119.75902,35.70425,12500.0],[-119.60858,35.61426,12500.0]]},"properties":{"ef_share":0.0,"ef_tj":0.0}},{"type":"Feature","geometry":{"type":"LineString","coordinates":[[-119.60858,35.61426,12500.0],[-119.45982,35.5212,12500.0]]},"properties":{"ef_share":0.0,"ef_tj":0.0}},{"type":"Feature","geometry":{"type":"LineString","coordinates":[[-119.45982,35.5212,12500.0],[-119.31078,35.42783,12500.0]]},"properties":{"ef_share":0.0,"ef_tj":0.0}},{"type":"Feature","geometry":{"type":"LineString","coordinates":[[-119.31078,35.42783,12500.0],[-119.16539,35.33648,12500.0]]},"properties":{"ef_share":0.0,"ef_tj":0.0}},{"type":"Feature","geometry":{"type":"LineString","coordinates":[[-119.16539,35.33648,12500.0],[-119.02138,35.2455,12500.0]]},"properties":{"ef_share":0.0,"ef_tj":0.0}},{"type":"Feature","geometry":{"type":"LineString","coordinates":[[-119.02138,35.2455,12500.0],[-118.87701,35.15395,12500.0]]},"properties":{"ef_share":0.0,"ef_tj":0.0}},{"type":"Feature","geometry":{"type":"LineString","coordinates":[[-118.87701,35.15395,12500.0],[-118.73311,35.06235,12500.0]]},"properties":{"ef_share":0.0,"ef_tj":0.0}},{"type":"Feature","geometry":{"type":"LineString","coordinates":[[-118.73311,35.06235,12500.0],[-118.58916,34.97035,12500.0]]},"properties":{"ef_share":0.0,"ef_tj":0.0}},{"type":"Feature","geometry":{"type":"LineString","coordinates":[[-118.58916,34.97035,12500.0],[-118.44593,34.87842,12500.0]]},"properties":{"ef_share":0.0,"ef_tj":0.0}},{"type":"Feature","geometry":{"type":"LineString","coordinates":[[-118.44593,34.87842,12500.0],[-118.30316,34.78641,12500.0]]},"properties":{"ef_share":0.0,"ef_tj":0.0}},{"type":"Feature","geometry":{"type":"LineString","coordinates":[[-118.30316,34.78641,12500.0],[-118.16209,34.69514,12500.0]]},"properties":{"ef_share":0.0,"ef_tj":0.0}},{"type":"Feature","geometry":{"type":"LineString","coordinates":[[-118.16209,34.69514,12500.0],[-118.00956,34.61662,12500.0]]},"properties":{"ef_share":0.0,"ef_tj":0.0}},{"type":"Feature","geometry":{"type":"LineString","coordinates":[[-118.00956,34.61662,12500.0],[-117.83613,34.5661,12500.0]]},"properties":{"ef_share":0.0,"ef_tj":0.0}},{"type":"Feature","geometry":{"type":"LineString","coordinates":[[-117.83613,34.5661,12500.0],[-117.66318,34.51625,12500.0]]},"properties":{"ef_share":0.0,"ef_tj":0.0}},{"type":"Feature","geometry":{"type":"LineString","coordinates":[[-117.66318,34.51625,12500.0],[-117.48993,34.4659,12500.0]]},"properties":{"ef_share":0.0,"ef_tj":0.0}},{"type":"Feature","geometry":{"type":"LineString","coordinates":[[-117.48993,34.4659,12500.0],[-117.31601,34.41508,12500.0]]},"properties":{"ef_share":0.0,"ef_tj":0.0}},{"type":"Feature","geometry":{"type":"LineString","coordinates":[[-117.31601,34.41508,12500.0],[-117.14272,34.36417,12500.0]]},"properties":{"ef_share":0.0,"ef_tj":0.0}},{"type":"Feature","geometry":{"type":"LineString","coordinates":[[-117.14272,34.36417,12500.0],[-116.96956,34.31297,12500.0]]},"properties":{"ef_share":0.0,"ef_tj":0.0}},{"type":"Feature","geometry":{"type":"LineString","coordinates":[[-116.96956,34.31297,12500.0],[-116.79638,34.26145,12500.0]]},"properties":{"ef_share":0.0,"ef_tj":0.0}},{"type":"Feature","geometry":{"type":"LineString","coordinates":[[-116.79638,34.26145,12500.0],[-116.62315,34.20963,12500.0]]},"properties":{"ef_share":0.0,"ef_tj":0.0}},{"type":"Feature","geometry":{"type":"LineString","coordinates":[[-116.62315,34.20963,12500.0],[-116.44885,34.15721,12500.0]]},"properties":{"ef_share":0.0,"ef_tj":0.0}},{"type":"Feature","geometry":{"type":"LineString","coordinates":[[-116.44885,34.15721,12500.0],[-116.27327,34.104,12500.0]]},"properties":{"ef_share":0.0,"ef_tj":0.0}},{"type":"Feature","geometry":{"type":"LineString","coordinates":[[-116.27327,34.104,12500.0],[-116.09878,34.05086,12500.0]]},"properties":{"ef_share":0.0,"ef_tj":0.0}},{"type":"Feature","geometry":{"type":"LineString","coordinates":[[-116.09878,34.05086,12500.0],[-115.92471,33.9975,12500.0]]},"properties":{"ef_share":0.0,"ef_tj":0.0}},{"type":"Feature","geometry":{"type":"LineString","coordinates":[[-115.92471,33.9975,12500.0],[-115.75138,33.94411,12500.0]]},"properties":{"ef_share":0.0,"ef_tj":0.0}},{"type":"Feature","geometry":{"type":"LineString","coordinates":[[-115.75138,33.94411,12500.0],[-115.57774,33.89024,12500.0]]},"properties":{"ef_share":0.0,"ef_tj":0.0}},{"type":"Feature","geometry":{"type":"LineString","coordinates":[[-115.57774,33.89024,12500.0],[-115.40459,33.83625,12500.0]]},"properties":{"ef_share":0.0,"ef_tj":0.0}},{"type":"Feature","geometry":{"type":"LineString","coordinates":[[-115.40459,33.83625,12500.0],[-115.23061,33.78171,12500.0]]},"properties":{"ef_share":0.0,"ef_tj":0.0}},{"type":"Feature","geometry":{"type":"LineString","coordinates":[[-115.23061,33.78171,12500.0],[-115.05625,33.72673,12500.0]]},"properties":{"ef_share":0.0,"ef_tj":0.0}},{"type":"Feature","geometry":{"type":"LineString","coordinates":[[-115.05625,33.72673,12500.0],[-114.88199,33.67146,12500.0]]},"properties":{"ef_share":0.0,"ef_tj":0.0}},{"type":"Feature","geometry":{"type":"LineString","coordinates":[[-114.88199,33.67146,12500.0],[-114.70837,33.61606,12500.0]]},"properties":{"ef_share":0.0,"ef_tj":0.0}},{"type":"Feature","geometry":{"type":"LineString","coordinates":[[-114.70837,33.61606,12500.0],[-114.5337,33.56027,12500.0]]},"properties":{"ef_share":0.0,"ef_tj":0.0}},{"type":"Feature","geometry":{"type":"LineString","coordinates":[[-114.5337,33.56027,12500.0],[-114.35253,33.51507,12500.0]]},"properties":{"ef_share":0.0,"ef_tj":0.0}},{"type":"Feature","geometry":{"type":"LineString","coordinates":[[-114.35253,33.51507,12500.0],[-114.16786,33.47654,12500.0]]},"properties":{"ef_share":0.0,"ef_tj":0.0}},{"type":"Feature","geometry":{"type":"LineString","coordinates":[[-114.16786,33.47654,12500.0],[-113.98342,33.43765,12500.0]]},"properties":{"ef_share":0.0,"ef_tj":0.0}},{"type":"Feature","geometry":{"type":"LineString","coordinates":[[-113.98342,33.43765,12500.0],[-113.79704,33.39803,12500.0]]},"properties":{"ef_share":0.0,"ef_tj":0.0}},{"type":"Feature","geometry":{"type":"LineString","coordinates":[[-113.79704,33.39803,12500.0],[-113.61034,33.35807,12500.0]]},"properties":{"ef_share":0.0,"ef_tj":0.0}},{"type":"Feature","geometry":{"type":"LineString","coordinates":[[-113.61034,33.35807,12500.0],[-113.42306,33.31766,12500.0]]},"properties":{"ef_share":0.0,"ef_tj":0.0}},{"type":"Feature","geometry":{"type":"LineString","coordinates":[[-113.42306,33.31766,12500.0],[-113.23635,33.27701,12500.0]]},"properties":{"ef_share":0.0,"ef_tj":0.0}},{"type":"Feature","geometry":{"type":"LineString","coordinates":[[-113.23635,33.27701,12500.0],[-113.04876,33.23586,12500.0]]},"properties":{"ef_share":0.0,"ef_tj":0.0}},{"type":"Feature","geometry":{"type":"LineString","coordinates":[[-113.04876,33.23586,12500.0],[-112.86153,33.1945,12500.0]]},"properties":{"ef_share":0.0,"ef_tj":0.0}},{"type":"Feature","geometry":{"type":"LineString","coordinates":[[-112.86153,33.1945,12500.0],[-112.67334,33.15256,12500.0]]},"properties":{"ef_share":0.0,"ef_tj":0.0}},{"type":"Feature","geometry":{"type":"LineString","coordinates":[[-112.67334,33.15256,12500.0],[-112.48557,33.11042,12500.0]]},"properties":{"ef_share":0.0,"ef_tj":0.0}},{"type":"Feature","geometry":{"type":"LineString","coordinates":[[-112.48557,33.11042,12500.0],[-112.29826,33.06805,12500.0]]},"properties":{"ef_share":0.0,"ef_tj":0.0}},{"type":"Feature","geometry":{"type":"LineString","coordinates":[[-112.29826,33.06805,12500.0],[-112.11068,33.02532,12500.0]]},"properties":{"ef_share":0.634,"ef_tj":0.626876}},{"type":"Feature","geometry":{"type":"LineString","coordinates":[[-112.11068,33.02532,12500.0],[-111.92097,32.98773,12500.0]]},"properties":{"ef_share":0.805,"ef_tj":0.796448}},{"type":"Feature","geometry":{"type":"LineString","coordinates":[[-111.92097,32.98773,12500.0],[-111.72542,32.96232,12500.0]]},"properties":{"ef_share":0.897,"ef_tj":0.886643}},{"type":"Feature","geometry":{"type":"LineString","coordinates":[[-111.72542,32.96232,12500.0],[-111.53046,32.93732,12500.0]]},"properties":{"ef_share":1.0,"ef_tj":0.988876}},{"type":"Feature","geometry":{"type":"LineString","coordinates":[[-111.53046,32.93732,12500.0],[-111.33474,32.91185,12500.0]]},"properties":{"ef_share":0.648,"ef_tj":0.64057}},{"type":"Feature","geometry":{"type":"LineString","coordinates":[[-111.33474,32.91185,12500.0],[-111.13871,32.88603,12500.0]]},"properties":{"ef_share":0.573,"ef_tj":0.566854}},{"type":"Feature","geometry":{"type":"LineString","coordinates":[[-111.13871,32.88603,12500.0],[-110.94232,32.85981,12500.0]]},"properties":{"ef_share":0.506,"ef_tj":0.500493}},{"type":"Feature","geometry":{"type":"LineString","coordinates":[[-110.94232,32.85981,12500.0],[-110.74572,32.8333,12500.0]]},"properties":{"ef_share":0.489,"ef_tj":0.483438}},{"type":"Feature","geometry":{"type":"LineString","coordinates":[[-110.74572,32.8333,12500.0],[-110.54928,32.80648,12500.0]]},"properties":{"ef_share":0.572,"ef_tj":0.565583}},{"type":"Feature","geometry":{"type":"LineString","coordinates":[[-110.54928,32.80648,12500.0],[-110.35242,32.77925,12500.0]]},"properties":{"ef_share":0.601,"ef_tj":0.594166}},{"type":"Feature","geometry":{"type":"LineString","coordinates":[[-110.35242,32.77925,12500.0],[-110.15627,32.75181,12500.0]]},"properties":{"ef_share":0.468,"ef_tj":0.463281}},{"type":"Feature","geometry":{"type":"LineString","coordinates":[[-110.15627,32.75181,12500.0],[-109.96161,32.72424,12500.0]]},"properties":{"ef_share":0.409,"ef_tj":0.404323}},{"type":"Feature","geometry":{"type":"LineString","coordinates":[[-109.96161,32.72424,12500.0],[-109.76616,32.69622,12500.0]]},"properties":{"ef_share":0.488,"ef_tj":0.483}},{"type":"Feature","geometry":{"type":"LineString","coordinates":[[-109.76616,32.69622,12500.0],[-109.57124,32.668,12500.0]]},"properties":{"ef_share":0.555,"ef_tj":0.548969}},{"type":"Feature","geometry":{"type":"LineString","coordinates":[[-109.57124,32.668,12500.0],[-109.37707,32.63955,12500.0]]},"properties":{"ef_share":0.377,"ef_tj":0.373106}},{"type":"Feature","geometry":{"type":"LineString","coordinates":[[-109.37707,32.63955,12500.0],[-109.18187,32.61064,12500.0]]},"properties":{"ef_share":0.365,"ef_tj":0.360981}},{"type":"Feature","geometry":{"type":"LineString","coordinates":[[-109.18187,32.61064,12500.0],[-108.98705,32.58147,12500.0]]},"properties":{"ef_share":0.342,"ef_tj":0.338434}},{"type":"Feature","geometry":{"type":"LineString","coordinates":[[-108.98705,32.58147,12500.0],[-108.79206,32.55193,12500.0]]},"properties":{"ef_share":0.322,"ef_tj":0.31853}},{"type":"Feature","geometry":{"type":"LineString","coordinates":[[-108.79206,32.55193,12500.0],[-108.59757,32.52212,12500.0]]},"properties":{"ef_share":0.354,"ef_tj":0.350369}},{"type":"Feature","geometry":{"type":"LineString","coordinates":[[-108.59757,32.52212,12500.0],[-108.40394,32.49217,12500.0]]},"properties":{"ef_share":0.43,"ef_tj":0.425058}},{"type":"Feature","geometry":{"type":"LineString","coordinates":[[-108.40394,32.49217,12500.0],[-108.21043,32.46193,12500.0]]},"properties":{"ef_share":0.691,"ef_tj":0.683575}},{"type":"Feature","geometry":{"type":"LineString","coordinates":[[-108.21043,32.46193,12500.0],[-108.01702,32.4313,12500.0]]},"properties":{"ef_share":0.638,"ef_tj":0.63135}},{"type":"Feature","geometry":{"type":"LineString","coordinates":[[-108.01702,32.4313,12500.0],[-107.82392,32.40045,12500.0]]},"properties":{"ef_share":0.421,"ef_tj":0.415846}},{"type":"Feature","geometry":{"type":"LineString","coordinates":[[-107.82392,32.40045,12500.0],[-107.62987,32.36915,12500.0]]},"properties":{"ef_share":0.354,"ef_tj":0.349869}},{"type":"Feature","geometry":{"type":"LineString","coordinates":[[-107.62987,32.36915,12500.0],[-107.43534,32.33747,12500.0]]},"properties":{"ef_share":0.328,"ef_tj":0.32411}},{"type":"Feature","geometry":{"type":"LineString","coordinates":[[-107.43534,32.33747,12500.0],[-107.24173,32.30561,12500.0]]},"properties":{"ef_share":0.353,"ef_tj":0.348677}},{"type":"Feature","geometry":{"type":"LineString","coordinates":[[-107.24173,32.30561,12500.0],[-107.04914,32.2736,12500.0]]},"properties":{"ef_share":0.437,"ef_tj":0.431757}},{"type":"Feature","geometry":{"type":"LineString","coordinates":[[-107.04914,32.2736,12500.0],[-106.85637,32.24119,12500.0]]},"properties":{"ef_share":0.43,"ef_tj":0.425589}},{"type":"Feature","geometry":{"type":"LineString","coordinates":[[-106.85637,32.24119,12500.0],[-106.66427,32.20861,12500.0]]},"properties":{"ef_share":0.409,"ef_tj":0.404327}},{"type":"Feature","geometry":{"type":"LineString","coordinates":[[-106.66427,32.20861,12500.0],[-106.47183,32.17564,12500.0]]},"properties":{"ef_share":0.364,"ef_tj":0.359515}},{"type":"Feature","geometry":{"type":"LineString","coordinates":[[-106.47183,32.17564,12500.0],[-106.2798,32.14247,12500.0]]},"properties":{"ef_share":0.306,"ef_tj":0.302177}},{"type":"Feature","geometry":{"type":"LineString","coordinates":[[-106.2798,32.14247,12500.0],[-106.08715,32.10884,12500.0]]},"properties":{"ef_share":0.298,"ef_tj":0.294637}},{"type":"Feature","geometry":{"type":"LineString","coordinates":[[-106.08715,32.10884,12500.0],[-105.89522,32.07505,12500.0]]},"properties":{"ef_share":0.305,"ef_tj":0.302079}},{"type":"Feature","geometry":{"type":"LineString","coordinates":[[-105.89522,32.07505,12500.0],[-105.70351,32.04094,12500.0]]},"properties":{"ef_share":0.288,"ef_tj":0.284966}},{"type":"Feature","geometry":{"type":"LineString","coordinates":[[-105.70351,32.04094,12500.0],[-105.51166,32.0065,12500.0]]},"properties":{"ef_share":0.265,"ef_tj":0.262187}},{"type":"Feature","geometry":{"type":"LineString","coordinates":[[-105.51166,32.0065,12500.0],[-105.3207,31.9719,12500.0]]},"properties":{"ef_share":0.133,"ef_tj":0.131569}},{"type":"Feature","geometry":{"type":"LineString","coordinates":[[-105.3207,31.9719,12500.0],[-105.12876,31.93684,12500.0]]},"properties":{"ef_share":0.106,"ef_tj":0.10444}},{"type":"Feature","geometry":{"type":"LineString","coordinates":[[-105.12876,31.93684,12500.0],[-104.93761,31.90161,12500.0]]},"properties":{"ef_share":0.093,"ef_tj":0.091868}},{"type":"Feature","geometry":{"type":"LineString","coordinates":[[-104.93761,31.90161,12500.0],[-104.74739,31.86622,12500.0]]},"properties":{"ef_share":0.069,"ef_tj":0.067854}},{"type":"Feature","geometry":{"type":"LineString","coordinates":[[-104.74739,31.86622,12500.0],[-104.55673,31.83042,12500.0]]},"properties":{"ef_share":0.055,"ef_tj":0.05431}},{"type":"Feature","geometry":{"type":"LineString","coordinates":[[-104.55673,31.83042,12500.0],[-104.36671,31.79445,12500.0]]},"properties":{"ef_share":0.033,"ef_tj":0.033076}},{"type":"Feature","geometry":{"type":"LineString","coordinates":[[-104.36671,31.79445,12500.0],[-104.1771,31.75822,12500.0]]},"properties":{"ef_share":0.009,"ef_tj":0.00867}},{"type":"Feature","geometry":{"type":"LineString","coordinates":[[-104.1771,31.75822,12500.0],[-103.98775,31.72178,12500.0]]},"properties":{"ef_share":0.007,"ef_tj":0.007276}},{"type":"Feature","geometry":{"type":"LineString","coordinates":[[-103.98775,31.72178,12500.0],[-103.79859,31.68505,12500.0]]},"properties":{"ef_share":0.006,"ef_tj":0.006117}},{"type":"Feature","geometry":{"type":"LineString","coordinates":[[-103.79859,31.68505,12500.0],[-103.6085,31.64875,12500.0]]},"properties":{"ef_share":0.005,"ef_tj":0.004646}},{"type":"Feature","geometry":{"type":"LineString","coordinates":[[-103.6085,31.64875,12500.0],[-103.41676,31.61488,12500.0]]},"properties":{"ef_share":0.0,"ef_tj":0.0}},{"type":"Feature","geometry":{"type":"LineString","coordinates":[[-103.41676,31.61488,12500.0],[-103.22502,31.58102,12500.0]]},"properties":{"ef_share":0.0,"ef_tj":0.0}},{"type":"Feature","geometry":{"type":"LineString","coordinates":[[-103.22502,31.58102,12500.0],[-103.03328,31.54715,12500.0]]},"properties":{"ef_share":0.0,"ef_tj":0.0}},{"type":"Feature","geometry":{"type":"LineString","coordinates":[[-103.03328,31.54715,12500.0],[-102.84179,31.51276,12500.0]]},"properties":{"ef_share":0.0,"ef_tj":0.0}},{"type":"Feature","geometry":{"type":"LineString","coordinates":[[-102.84179,31.51276,12500.0],[-102.65058,31.47781,12500.0]]},"properties":{"ef_share":0.0,"ef_tj":0.0}},{"type":"Feature","geometry":{"type":"LineString","coordinates":[[-102.65058,31.47781,12500.0],[-102.45937,31.44287,12500.0]]},"properties":{"ef_share":0.0,"ef_tj":0.0}},{"type":"Feature","geometry":{"type":"LineString","coordinates":[[-102.45937,31.44287,12500.0],[-102.26816,31.40792,12500.0]]},"properties":{"ef_share":0.0,"ef_tj":0.0}},{"type":"Feature","geometry":{"type":"LineString","coordinates":[[-102.26816,31.40792,12500.0],[-102.07733,31.37221,12500.0]]},"properties":{"ef_share":0.0,"ef_tj":0.0}},{"type":"Feature","geometry":{"type":"LineString","coordinates":[[-102.07733,31.37221,12500.0],[-101.88666,31.33619,12500.0]]},"properties":{"ef_share":0.0,"ef_tj":0.0}},{"type":"Feature","geometry":{"type":"LineString","coordinates":[[-101.88666,31.33619,12500.0],[-101.69599,31.30016,12500.0]]},"properties":{"ef_share":0.0,"ef_tj":0.0}},{"type":"Feature","geometry":{"type":"LineString","coordinates":[[-101.69599,31.30016,12500.0],[-101.50532,31.26414,12500.0]]},"properties":{"ef_share":0.0,"ef_tj":0.0}},{"type":"Feature","geometry":{"type":"LineString","coordinates":[[-101.50532,31.26414,12500.0],[-101.31249,31.23097,12500.0]]},"properties":{"ef_share":0.0,"ef_tj":0.0}},{"type":"Feature","geometry":{"type":"LineString","coordinates":[[-101.31249,31.23097,12500.0],[-101.1203,31.19788,12500.0]]},"properties":{"ef_share":0.0,"ef_tj":0.0}},{"type":"Feature","geometry":{"type":"LineString","coordinates":[[-101.1203,31.19788,12500.0],[-100.92864,31.16456,12500.0]]},"properties":{"ef_share":0.0,"ef_tj":0.0}},{"type":"Feature","geometry":{"type":"LineString","coordinates":[[-100.92864,31.16456,12500.0],[-100.7376,31.13108,12500.0]]},"properties":{"ef_share":0.0,"ef_tj":0.0}},{"type":"Feature","geometry":{"type":"LineString","coordinates":[[-100.7376,31.13108,12500.0],[-100.54864,31.09764,11980.0]]},"properties":{"ef_share":0.0,"ef_tj":0.0}},{"type":"Feature","geometry":{"type":"LineString","coordinates":[[-100.54864,31.09764,11980.0],[-100.36025,31.06398,11290.0]]},"properties":{"ef_share":0.0,"ef_tj":0.0}},{"type":"Feature","geometry":{"type":"LineString","coordinates":[[-100.36025,31.06398,11290.0],[-100.17233,31.03013,10580.0]]},"properties":{"ef_share":0.0,"ef_tj":0.0}},{"type":"Feature","geometry":{"type":"LineString","coordinates":[[-100.17233,31.03013,10580.0],[-99.98384,30.99587,9880.0]]},"properties":{"ef_share":0.0,"ef_tj":0.0}},{"type":"Feature","geometry":{"type":"LineString","coordinates":[[-99.98384,30.99587,9880.0],[-99.79768,30.96172,9180.0]]},"properties":{"ef_share":0.0,"ef_tj":0.0}},{"type":"Feature","geometry":{"type":"LineString","coordinates":[[-99.79768,30.96172,9180.0],[-99.61417,30.92783,8490.0]]},"properties":{"ef_share":0.0,"ef_tj":0.0}},{"type":"Feature","geometry":{"type":"LineString","coordinates":[[-99.61417,30.92783,8490.0],[-99.44056,30.89545,7840.0]]},"properties":{"ef_share":0.0,"ef_tj":0.0}},{"type":"Feature","geometry":{"type":"LineString","coordinates":[[-99.44056,30.89545,7840.0],[-99.2742,30.8642,7210.0]]},"properties":{"ef_share":0.0,"ef_tj":0.0}},{"type":"Feature","geometry":{"type":"LineString","coordinates":[[-99.2742,30.8642,7210.0],[-99.11358,30.83381,6590.0]]},"properties":{"ef_share":0.0,"ef_tj":0.0}},{"type":"Feature","geometry":{"type":"LineString","coordinates":[[-99.11358,30.83381,6590.0],[-98.96017,30.80002,6030.0]]},"properties":{"ef_share":0.0,"ef_tj":0.0}},{"type":"Feature","geometry":{"type":"LineString","coordinates":[[-98.96017,30.80002,6030.0],[-98.81823,30.74712,5500.0]]},"properties":{"ef_share":0.0,"ef_tj":0.0}},{"type":"Feature","geometry":{"type":"LineString","coordinates":[[-98.81823,30.74712,5500.0],[-98.682,30.69667,4990.0]]},"properties":{"ef_share":0.0,"ef_tj":0.0}},{"type":"Feature","geometry":{"type":"LineString","coordinates":[[-98.682,30.69667,4990.0],[-98.55084,30.64574,4480.0]]},"properties":{"ef_share":0.0,"ef_tj":0.0}},{"type":"Feature","geometry":{"type":"LineString","coordinates":[[-98.55084,30.64574,4480.0],[-98.42766,30.59195,3970.0]]},"properties":{"ef_share":0.0,"ef_tj":0.0}},{"type":"Feature","geometry":{"type":"LineString","coordinates":[[-98.42766,30.59195,3970.0],[-98.31462,30.54367,3480.0]]},"properties":{"ef_share":0.0,"ef_tj":0.0}},{"type":"Feature","geometry":{"type":"LineString","coordinates":[[-98.31462,30.54367,3480.0],[-98.21124,30.49933,2970.0]]},"properties":{"ef_share":0.0,"ef_tj":0.0}},{"type":"Feature","geometry":{"type":"LineString","coordinates":[[-98.21124,30.49933,2970.0],[-98.11148,30.46663,2580.0]]},"properties":{"ef_share":0.0,"ef_tj":0.0}},{"type":"Feature","geometry":{"type":"LineString","coordinates":[[-98.11148,30.46663,2580.0],[-98.0207,30.43767,2260.0]]},"properties":{"ef_share":0.0,"ef_tj":0.0}},{"type":"Feature","geometry":{"type":"LineString","coordinates":[[-98.0207,30.43767,2260.0],[-97.93728,30.41096,1930.0]]},"properties":{"ef_share":0.0,"ef_tj":0.0}},{"type":"Feature","geometry":{"type":"LineString","coordinates":[[-97.93728,30.41096,1930.0],[-97.86255,30.38706,1620.0]]},"properties":{"ef_share":0.0,"ef_tj":0.0}},{"type":"Feature","geometry":{"type":"LineString","coordinates":[[-97.86255,30.38706,1620.0],[-97.79737,30.36609,1310.0]]},"properties":{"ef_share":0.0,"ef_tj":0.0}},{"type":"Feature","geometry":{"type":"LineString","coordinates":[[-97.79737,30.36609,1310.0],[-97.73983,30.34758,1010.0]]},"properties":{"ef_share":0.0,"ef_tj":0.0}},{"type":"Feature","geometry":{"type":"LineString","coordinates":[[-97.73983,30.34758,1010.0],[-97.68921,30.32881,750.0]]},"properties":{"ef_share":0.0,"ef_tj":0.0}},{"type":"Feature","geometry":{"type":"LineString","coordinates":[[-97.68921,30.32881,750.0],[-97.68142,30.29093,500.0]]},"properties":{"ef_share":0.0,"ef_tj":0.0}},{"type":"Feature","geometry":{"type":"LineString","coordinates":[[-97.68142,30.29093,500.0],[-97.68035,30.25423,290.0]]},"properties":{"ef_share":0.0,"ef_tj":0.0}},{"type":"Feature","geometry":{"type":"LineString","coordinates":[[-97.68035,30.25423,290.0],[-97.67958,30.22351,110.0]]},"properties":{"ef_share":0.0,"ef_tj":0.0}}]}