{"type":"FeatureCollection","properties":{"icao24":"a835af","registration":"N628TS","owner_label":"Elon Musk","combined_co2e_central":-6686.7,"fuel_co2_kg":12496.1,"contrail_co2e_central":-19182.8,"tier":"low"},"features":[{"type":"Feature","geometry":{"type":"LineString","coordinates":[[-121.92487,37.3581,-110.0],[-121.96642,37.39586,520.0]]},"properties":{"ef_share":0.0,"ef_tj":0.0}},{"type":"Feature","geometry":{"type":"LineString","coordinates":[[-121.96642,37.39586,520.0],[-121.96519,37.44203,960.0]]},"properties":{"ef_share":0.0,"ef_tj":0.0}},{"type":"Feature","geometry":{"type":"LineString","coordinates":[[-121.96519,37.44203,960.0],[-121.89932,37.43902,1580.0]]},"properties":{"ef_share":0.0,"ef_tj":0.0}},{"type":"Feature","geometry":{"type":"LineString","coordinates":[[-121.89932,37.43902,1580.0],[-121.87871,37.37741,2540.0]]},"properties":{"ef_share":0.0,"ef_tj":0.0}},{"type":"Feature","geometry":{"type":"LineString","coordinates":[[-121.87871,37.37741,2540.0],[-121.82131,37.32876,3430.0]]},"properties":{"ef_share":0.0,"ef_tj":0.0}},{"type":"Feature","geometry":{"type":"LineString","coordinates":[[-121.82131,37.32876,3430.0],[-121.73753,37.28966,4080.0]]},"properties":{"ef_share":0.0,"ef_tj":0.0}},{"type":"Feature","geometry":{"type":"LineString","coordinates":[[-121.73753,37.28966,4080.0],[-121.62604,37.26675,4710.0]]},"properties":{"ef_share":0.0,"ef_tj":0.0}},{"type":"Feature","geometry":{"type":"LineString","coordinates":[[-121.62604,37.26675,4710.0],[-121.49877,37.24084,5320.0]]},"properties":{"ef_share":0.0,"ef_tj":0.0}},{"type":"Feature","geometry":{"type":"LineString","coordinates":[[-121.49877,37.24084,5320.0],[-121.35682,37.21177,5930.0]]},"properties":{"ef_share":0.0,"ef_tj":0.0}},{"type":"Feature","geometry":{"type":"LineString","coordinates":[[-121.35682,37.21177,5930.0],[-121.203,37.18001,6550.0]]},"properties":{"ef_share":0.0,"ef_tj":0.0}},{"type":"Feature","geometry":{"type":"LineString","coordinates":[[-121.203,37.18001,6550.0],[-121.04143,37.14641,7160.0]]},"properties":{"ef_share":0.0,"ef_tj":0.0}},{"type":"Feature","geometry":{"type":"LineString","coordinates":[[-121.04143,37.14641,7160.0],[-120.8771,37.11197,7790.0]]},"properties":{"ef_share":0.0,"ef_tj":0.0}},{"type":"Feature","geometry":{"type":"LineString","coordinates":[[-120.8771,37.11197,7790.0],[-120.70807,37.07631,8400.0]]},"properties":{"ef_share":0.0,"ef_tj":0.0}},{"type":"Feature","geometry":{"type":"LineString","coordinates":[[-120.70807,37.07631,8400.0],[-120.535,37.0395,9020.0]]},"properties":{"ef_share":0.0,"ef_tj":0.0}},{"type":"Feature","geometry":{"type":"LineString","coordinates":[[-120.535,37.0395,9020.0],[-120.36054,37.00212,9620.0]]},"properties":{"ef_share":0.0,"ef_tj":0.0}},{"type":"Feature","geometry":{"type":"LineString","coordinates":[[-120.36054,37.00212,9620.0],[-120.1847,36.96413,10120.0]]},"properties":{"ef_share":0.0,"ef_tj":0.0}},{"type":"Feature","geometry":{"type":"LineString","coordinates":[[-120.1847,36.96413,10120.0],[-120.00656,36.92534,10580.0]]},"properties":{"ef_share":0.0,"ef_tj":0.0}},{"type":"Feature","geometry":{"type":"LineString","coordinates":[[-120.00656,36.92534,10580.0],[-119.82368,36.89883,11030.0]]},"properties":{"ef_share":0.0,"ef_tj":0.0}},{"type":"Feature","geometry":{"type":"LineString","coordinates":[[-119.82368,36.89883,11030.0],[-119.63646,36.89477,11470.0]]},"properties":{"ef_share":0.0,"ef_tj":0.0}},{"type":"Feature","geometry":{"type":"LineString","coordinates":[[-119.63646,36.89477,11470.0],[-119.45043,36.8909,11910.0]]},"properties":{"ef_share":0.0,"ef_tj":0.0}},{"type":"Feature","geometry":{"type":"LineString","coordinates":[[-119.45043,36.8909,11910.0],[-119.26517,36.88663,12300.0]]},"properties":{"ef_share":0.0,"ef_tj":0.0}},{"type":"Feature","geometry":{"type":"LineString","coordinates":[[-119.26517,36.88663,12300.0],[-119.07935,36.88211,12460.0]]},"properties":{"ef_share":0.0,"ef_tj":0.0}},{"type":"Feature","geometry":{"type":"LineString","coordinates":[[-119.07935,36.88211,12460.0],[-118.89004,36.87723,12500.0]]},"properties":{"ef_share":0.0,"ef_tj":0.0}},{"type":"Feature","geometry":{"type":"LineString","coordinates":[[-118.89004,36.87723,12500.0],[-118.69911,36.87197,12500.0]]},"properties":{"ef_share":0.0,"ef_tj":0.0}},{"type":"Feature","geometry":{"type":"LineString","coordinates":[[-118.69911,36.87197,12500.0],[-118.50814,36.86638,12500.0]]},"properties":{"ef_share":0.0,"ef_tj":0.0}},{"type":"Feature","geometry":{"type":"LineString","coordinates":[[-118.50814,36.86638,12500.0],[-118.31723,36.8605,12500.0]]},"properties":{"ef_share":0.0,"ef_tj":0.0}},{"type":"Feature","geometry":{"type":"LineString","coordinates":[[-118.31723,36.8605,12500.0],[-118.12566,36.8543,12500.0]]},"properties":{"ef_share":0.0,"ef_tj":0.0}},{"type":"Feature","geometry":{"type":"LineString","coordinates":[[-118.12566,36.8543,12500.0],[-117.9351,36.84781,12500.0]]},"properties":{"ef_share":0.0,"ef_tj":0.0}},{"type":"Feature","geometry":{"type":"LineString","coordinates":[[-117.9351,36.84781,12500.0],[-117.74446,36.84103,12500.0]]},"properties":{"ef_share":0.0,"ef_tj":0.0}},{"type":"Feature","geometry":{"type":"LineString","coordinates":[[-117.74446,36.84103,12500.0],[-117.55332,36.8339,12500.0]]},"properties":{"ef_share":0.0,"ef_tj":0.0}},{"type":"Feature","geometry":{"type":"LineString","coordinates":[[-117.55332,36.8339,12500.0],[-117.36154,36.82594,12500.0]]},"properties":{"ef_share":0.0,"ef_tj":0.0}},{"type":"Feature","geometry":{"type":"LineString","coordinates":[[-117.36154,36.82594,12500.0],[-117.17106,36.81348,12500.0]]},"properties":{"ef_share":0.0,"ef_tj":0.0}},{"type":"Feature","geometry":{"type":"LineString","coordinates":[[-117.17106,36.81348,12500.0],[-116.98058,36.80102,12500.0]]},"properties":{"ef_share":0.0,"ef_tj":0.0}},{"type":"Feature","geometry":{"type":"LineString","coordinates":[[-116.98058,36.80102,12500.0],[-116.79523,36.77349,12500.0]]},"properties":{"ef_share":0.0,"ef_tj":0.0}},{"type":"Feature","geometry":{"type":"LineString","coordinates":[[-116.79523,36.77349,12500.0],[-116.62951,36.70011,12500.0]]},"properties":{"ef_share":0.0,"ef_tj":0.0}},{"type":"Feature","geometry":{"type":"LineString","coordinates":[[-116.62951,36.70011,12500.0],[-116.46416,36.62601,12500.0]]},"properties":{"ef_share":0.0,"ef_tj":0.0}},{"type":"Feature","geometry":{"type":"LineString","coordinates":[[-116.46416,36.62601,12500.0],[-116.29799,36.55142,12500.0]]},"properties":{"ef_share":0.0,"ef_tj":0.0}},{"type":"Feature","geometry":{"type":"LineString","coordinates":[[-116.29799,36.55142,12500.0],[-116.13197,36.47646,12500.0]]},"properties":{"ef_share":0.0,"ef_tj":0.0}},{"type":"Feature","geometry":{"type":"LineString","coordinates":[[-116.13197,36.47646,12500.0],[-115.96706,36.40166,12500.0]]},"properties":{"ef_share":0.0,"ef_tj":0.0}},{"type":"Feature","geometry":{"type":"LineString","coordinates":[[-115.96706,36.40166,12500.0],[-115.80365,36.32717,12500.0]]},"properties":{"ef_share":0.0,"ef_tj":0.0}},{"type":"Feature","geometry":{"type":"LineString","coordinates":[[-115.80365,36.32717,12500.0],[-115.64165,36.25289,12500.0]]},"properties":{"ef_share":0.527,"ef_tj":9.72228}},{"type":"Feature","geometry":{"type":"LineString","coordinates":[[-115.64165,36.25289,12500.0],[-115.48012,36.17751,12500.0]]},"properties":{"ef_share":0.438,"ef_tj":8.078526}},{"type":"Feature","geometry":{"type":"LineString","coordinates":[[-115.48012,36.17751,12500.0],[-115.3368,36.08407,12500.0]]},"properties":{"ef_share":0.259,"ef_tj":4.784511}},{"type":"Feature","geometry":{"type":"LineString","coordinates":[[-115.3368,36.08407,12500.0],[-115.21524,35.97412,12500.0]]},"properties":{"ef_share":0.048,"ef_tj":0.888567}},{"type":"Feature","geometry":{"type":"LineString","coordinates":[[-115.21524,35.97412,12500.0],[-115.06327,35.89174,12500.0]]},"properties":{"ef_share":-0.076,"ef_tj":-1.393493}},{"type":"Feature","geometry":{"type":"LineString","coordinates":[[-115.06327,35.89174,12500.0],[-114.89017,35.83808,12500.0]]},"properties":{"ef_share":-0.608,"ef_tj":-11.22048}},{"type":"Feature","geometry":{"type":"LineString","coordinates":[[-114.89017,35.83808,12500.0],[-114.71608,35.78627,12500.0]]},"properties":{"ef_share":-0.752,"ef_tj":-13.879779}},{"type":"Feature","geometry":{"type":"LineString","coordinates":[[-114.71608,35.78627,12500.0],[-114.54297,35.73422,12500.0]]},"properties":{"ef_share":-1.0,"ef_tj":-18.44912}},{"type":"Feature","geometry":{"type":"LineString","coordinates":[[-114.54297,35.73422,12500.0],[-114.3699,35.68188,12500.0]]},"properties":{"ef_share":-0.997,"ef_tj":-18.395234}},{"type":"Feature","geometry":{"type":"LineString","coordinates":[[-114.3699,35.68188,12500.0],[-114.19703,35.62925,12500.0]]},"properties":{"ef_share":-0.782,"ef_tj":-14.422311}},{"type":"Feature","geometry":{"type":"LineString","coordinates":[[-114.19703,35.62925,12500.0],[-114.02626,35.57696,12500.0]]},"properties":{"ef_share":-0.437,"ef_tj":-8.056198}},{"type":"Feature","geometry":{"type":"LineString","coordinates":[[-114.02626,35.57696,12500.0],[-113.85511,35.52424,12500.0]]},"properties":{"ef_share":-0.275,"ef_tj":-5.076534}},{"type":"Feature","geometry":{"type":"LineString","coordinates":[[-113.85511,35.52424,12500.0],[-113.68446,35.4714,12500.0]]},"properties":{"ef_share":0.0,"ef_tj":0.0}},{"type":"Feature","geometry":{"type":"LineString","coordinates":[[-113.68446,35.4714,12500.0],[-113.51429,35.41835,12500.0]]},"properties":{"ef_share":0.0,"ef_tj":0.0}},{"type":"Feature","geometry":{"type":"LineString","coordinates":[[-113.51429,35.41835,12500.0],[-113.34454,35.36511,12500.0]]},"properties":{"ef_share":0.0,"ef_tj":0.0}},{"type":"Feature","geometry":{"type":"LineString","coordinates":[[-113.34454,35.36511,12500.0],[-113.17523,35.31177,12500.0]]},"properties":{"ef_share":0.0,"ef_tj":0.0}},{"type":"Feature","geometry":{"type":"LineString","coordinates":[[-113.17523,35.31177,12500.0],[-113.00605,35.25815,12500.0]]},"properties":{"ef_share":0.0,"ef_tj":0.0}},{"type":"Feature","geometry":{"type":"LineString","coordinates":[[-113.00605,35.25815,12500.0],[-112.83703,35.20422,12500.0]]},"properties":{"ef_share":0.0,"ef_tj":0.0}},{"type":"Feature","geometry":{"type":"LineString","coordinates":[[-112.83703,35.20422,12500.0],[-112.668,35.15,12500.0]]},"properties":{"ef_share":0.0,"ef_tj":0.0}},{"type":"Feature","geometry":{"type":"LineString","coordinates":[[-112.668,35.15,12500.0],[-112.49818,35.09519,12500.0]]},"properties":{"ef_share":0.0,"ef_tj":0.0}},{"type":"Feature","geometry":{"type":"LineString","coordinates":[[-112.49818,35.09519,12500.0],[-112.32929,35.0404,12500.0]]},"properties":{"ef_share":0.0,"ef_tj":0.0}},{"type":"Feature","geometry":{"type":"LineString","coordinates":[[-112.32929,35.0404,12500.0],[-112.16043,34.98532,12500.0]]},"properties":{"ef_share":0.0,"ef_tj":0.0}},{"type":"Feature","geometry":{"type":"LineString","coordinates":[[-112.16043,34.98532,12500.0],[-111.99235,34.93019,12500.0]]},"properties":{"ef_share":0.0,"ef_tj":0.0}},{"type":"Feature","geometry":{"type":"LineString","coordinates":[[-111.99235,34.93019,12500.0],[-111.82499,34.87498,12500.0]]},"properties":{"ef_share":0.0,"ef_tj":0.0}},{"type":"Feature","geometry":{"type":"LineString","coordinates":[[-111.82499,34.87498,12500.0],[-111.65868,34.81981,12500.0]]},"properties":{"ef_share":0.0,"ef_tj":0.0}},{"type":"Feature","geometry":{"type":"LineString","coordinates":[[-111.65868,34.81981,12500.0],[-111.49397,34.76168,12500.0]]},"properties":{"ef_share":0.0,"ef_tj":0.0}},{"type":"Feature","geometry":{"type":"LineString","coordinates":[[-111.49397,34.76168,12500.0],[-111.34177,34.68524,12500.0]]},"properties":{"ef_share":0.0,"ef_tj":0.0}},{"type":"Feature","geometry":{"type":"LineString","coordinates":[[-111.34177,34.68524,12500.0],[-111.1921,34.60589,12500.0]]},"properties":{"ef_share":0.0,"ef_tj":0.0}},{"type":"Feature","geometry":{"type":"LineString","coordinates":[[-111.1921,34.60589,12500.0],[-111.04118,34.52563,12500.0]]},"properties":{"ef_share":0.0,"ef_tj":0.0}},{"type":"Feature","geometry":{"type":"LineString","coordinates":[[-111.04118,34.52563,12500.0],[-110.8924,34.44621,12500.0]]},"properties":{"ef_share":0.0,"ef_tj":0.0}},{"type":"Feature","geometry":{"type":"LineString","coordinates":[[-110.8924,34.44621,12500.0],[-110.74409,34.36667,12500.0]]},"properties":{"ef_share":0.0,"ef_tj":0.0}},{"type":"Feature","geometry":{"type":"LineString","coordinates":[[-110.74409,34.36667,12500.0],[-110.59599,34.28693,12500.0]]},"properties":{"ef_share":0.0,"ef_tj":0.0}},{"type":"Feature","geometry":{"type":"LineString","coordinates":[[-110.59599,34.28693,12500.0],[-110.44811,34.20697,12500.0]]},"properties":{"ef_share":0.0,"ef_tj":0.0}},{"type":"Feature","geometry":{"type":"LineString","coordinates":[[-110.44811,34.20697,12500.0],[-110.30015,34.12666,12500.0]]},"properties":{"ef_share":0.0,"ef_tj":0.0}},{"type":"Feature","geometry":{"type":"LineString","coordinates":[[-110.30015,34.12666,12500.0],[-110.15291,34.04633,12500.0]]},"properties":{"ef_share":0.0,"ef_tj":0.0}},{"type":"Feature","geometry":{"type":"LineString","coordinates":[[-110.15291,34.04633,12500.0],[-110.00667,33.96626,12500.0]]},"properties":{"ef_share":0.0,"ef_tj":0.0}},{"type":"Feature","geometry":{"type":"LineString","coordinates":[[-110.00667,33.96626,12500.0],[-109.86127,33.88634,12500.0]]},"properties":{"ef_share":0.0,"ef_tj":0.0}},{"type":"Feature","geometry":{"type":"LineString","coordinates":[[-109.86127,33.88634,12500.0],[-109.71615,33.80626,12500.0]]},"properties":{"ef_share":0.0,"ef_tj":0.0}},{"type":"Feature","geometry":{"type":"LineString","coordinates":[[-109.71615,33.80626,12500.0],[-109.57078,33.72569,12500.0]]},"properties":{"ef_share":0.0,"ef_tj":0.0}},{"type":"Feature","geometry":{"type":"LineString","coordinates":[[-109.57078,33.72569,12500.0],[-109.4253,33.64479,12500.0]]},"properties":{"ef_share":0.0,"ef_tj":0.0}},{"type":"Feature","geometry":{"type":"LineString","coordinates":[[-109.4253,33.64479,12500.0],[-109.2807,33.56401,12500.0]]},"properties":{"ef_share":0.0,"ef_tj":0.0}},{"type":"Feature","geometry":{"type":"LineString","coordinates":[[-109.2807,33.56401,12500.0],[-109.13633,33.48302,12500.0]]},"properties":{"ef_share":0.0,"ef_tj":0.0}},{"type":"Feature","geometry":{"type":"LineString","coordinates":[[-109.13633,33.48302,12500.0],[-108.99277,33.40225,12500.0]]},"properties":{"ef_share":0.0,"ef_tj":0.0}},{"type":"Feature","geometry":{"type":"LineString","coordinates":[[-108.99277,33.40225,12500.0],[-108.84941,33.32121,12500.0]]},"properties":{"ef_share":0.0,"ef_tj":0.0}},{"type":"Feature","geometry":{"type":"LineString","coordinates":[[-108.84941,33.32121,12500.0],[-108.707,33.24041,12500.0]]},"properties":{"ef_share":0.0,"ef_tj":0.0}},{"type":"Feature","geometry":{"type":"LineString","coordinates":[[-108.707,33.24041,12500.0],[-108.56455,33.15926,12500.0]]},"properties":{"ef_share":0.0,"ef_tj":0.0}},{"type":"Feature","geometry":{"type":"LineString","coordinates":[[-108.56455,33.15926,12500.0],[-108.42225,33.07787,12500.0]]},"properties":{"ef_share":0.0,"ef_tj":0.0}},{"type":"Feature","geometry":{"type":"LineString","coordinates":[[-108.42225,33.07787,12500.0],[-108.27981,32.99609,12500.0]]},"properties":{"ef_share":0.0,"ef_tj":0.0}},{"type":"Feature","geometry":{"type":"LineString","coordinates":[[-108.27981,32.99609,12500.0],[-108.13853,32.9147,12500.0]]},"properties":{"ef_share":0.0,"ef_tj":0.0}},{"type":"Feature","geometry":{"type":"LineString","coordinates":[[-108.13853,32.9147,12500.0],[-107.99688,32.83282,12500.0]]},"properties":{"ef_share":0.0,"ef_tj":0.0}},{"type":"Feature","geometry":{"type":"LineString","coordinates":[[-107.99688,32.83282,12500.0],[-107.85558,32.75073,12500.0]]},"properties":{"ef_share":0.0,"ef_tj":0.0}},{"type":"Feature","geometry":{"type":"LineString","coordinates":[[-107.85558,32.75073,12500.0],[-107.71433,32.66839,12500.0]]},"properties":{"ef_share":0.0,"ef_tj":0.0}},{"type":"Feature","geometry":{"type":"LineString","coordinates":[[-107.71433,32.66839,12500.0],[-107.57349,32.586,12500.0]]},"properties":{"ef_share":0.0,"ef_tj":0.0}},{"type":"Feature","geometry":{"type":"LineString","coordinates":[[-107.57349,32.586,12500.0],[-107.43261,32.50326,12500.0]]},"properties":{"ef_share":0.0,"ef_tj":0.0}},{"type":"Feature","geometry":{"type":"LineString","coordinates":[[-107.43261,32.50326,12500.0],[-107.29225,32.42052,12500.0]]},"properties":{"ef_share":0.0,"ef_tj":0.0}},{"type":"Feature","geometry":{"type":"LineString","coordinates":[[-107.29225,32.42052,12500.0],[-107.15249,32.33784,12500.0]]},"properties":{"ef_share":0.0,"ef_tj":0.0}},{"type":"Feature","geometry":{"type":"LineString","coordinates":[[-107.15249,32.33784,12500.0],[-107.01332,32.25521,12500.0]]},"properties":{"ef_share":0.0,"ef_tj":0.0}},{"type":"Feature","geometry":{"type":"LineString","coordinates":[[-107.01332,32.25521,12500.0],[-106.87415,32.17228,12500.0]]},"properties":{"ef_share":0.0,"ef_tj":0.0}},{"type":"Feature","geometry":{"type":"LineString","coordinates":[[-106.87415,32.17228,12500.0],[-106.73633,32.08974,12500.0]]},"properties":{"ef_share":0.0,"ef_tj":0.0}},{"type":"Feature","geometry":{"type":"LineString","coordinates":[[-106.73633,32.08974,12500.0],[-106.60245,32.00942,12500.0]]},"properties":{"ef_share":0.0,"ef_tj":0.0}},{"type":"Feature","geometry":{"type":"LineString","coordinates":[[-106.60245,32.00942,12500.0],[-106.46942,31.9293,12500.0]]},"properties":{"ef_share":0.0,"ef_tj":0.0}},{"type":"Feature","geometry":{"type":"LineString","coordinates":[[-106.46942,31.9293,12500.0],[-106.33644,31.84902,12500.0]]},"properties":{"ef_share":0.0,"ef_tj":0.0}},{"type":"Feature","geometry":{"type":"LineString","coordinates":[[-106.33644,31.84902,12500.0],[-106.18858,31.79394,12500.0]]},"properties":{"ef_share":0.0,"ef_tj":0.0}},{"type":"Feature","geometry":{"type":"LineString","coordinates":[[-106.18858,31.79394,12500.0],[-106.03204,31.75742,12500.0]]},"properties":{"ef_share":0.0,"ef_tj":0.0}},{"type":"Feature","geometry":{"type":"LineString","coordinates":[[-106.03204,31.75742,12500.0],[-105.87498,31.72048,12590.0]]},"properties":{"ef_share":0.0,"ef_tj":0.0}},{"type":"Feature","geometry":{"type":"LineString","coordinates":[[-105.87498,31.72048,12590.0],[-105.71454,31.68245,12760.0]]},"properties":{"ef_share":0.0,"ef_tj":0.0}},{"type":"Feature","geometry":{"type":"LineString","coordinates":[[-105.71454,31.68245,12760.0],[-105.55267,31.64385,12920.0]]},"properties":{"ef_share":0.0,"ef_tj":0.0}},{"type":"Feature","geometry":{"type":"LineString","coordinates":[[-105.55267,31.64385,12920.0],[-105.3898,31.60473,13080.0]]},"properties":{"ef_share":0.0,"ef_tj":0.0}},{"type":"Feature","geometry":{"type":"LineString","coordinates":[[-105.3898,31.60473,13080.0],[-105.22733,31.56548,13250.0]]},"properties":{"ef_share":0.0,"ef_tj":0.0}},{"type":"Feature","geometry":{"type":"LineString","coordinates":[[-105.22733,31.56548,13250.0],[-105.06612,31.5263,13410.0]]},"properties":{"ef_share":0.0,"ef_tj":0.0}},{"type":"Feature","geometry":{"type":"LineString","coordinates":[[-105.06612,31.5263,13410.0],[-104.90647,31.48727,13570.0]]},"properties":{"ef_share":0.0,"ef_tj":0.0}},{"type":"Feature","geometry":{"type":"LineString","coordinates":[[-104.90647,31.48727,13570.0],[-104.74619,31.44788,13720.0]]},"properties":{"ef_share":0.0,"ef_tj":0.0}},{"type":"Feature","geometry":{"type":"LineString","coordinates":[[-104.74619,31.44788,13720.0],[-104.58514,31.40804,13720.0]]},"properties":{"ef_share":0.0,"ef_tj":0.0}},{"type":"Feature","geometry":{"type":"LineString","coordinates":[[-104.58514,31.40804,13720.0],[-104.42303,31.3677,13720.0]]},"properties":{"ef_share":0.0,"ef_tj":0.0}},{"type":"Feature","geometry":{"type":"LineString","coordinates":[[-104.42303,31.3677,13720.0],[-104.26038,31.32698,13720.0]]},"properties":{"ef_share":0.0,"ef_tj":0.0}},{"type":"Feature","geometry":{"type":"LineString","coordinates":[[-104.26038,31.32698,13720.0],[-104.09647,31.2857,13720.0]]},"properties":{"ef_share":0.0,"ef_tj":0.0}},{"type":"Feature","geometry":{"type":"LineString","coordinates":[[-104.09647,31.2857,13720.0],[-103.93338,31.24438,13720.0]]},"properties":{"ef_share":0.0,"ef_tj":0.0}},{"type":"Feature","geometry":{"type":"LineString","coordinates":[[-103.93338,31.24438,13720.0],[-103.76944,31.20263,13720.0]]},"properties":{"ef_share":0.0,"ef_tj":0.0}},{"type":"Feature","geometry":{"type":"LineString","coordinates":[[-103.76944,31.20263,13720.0],[-103.6042,31.16003,13720.0]]},"properties":{"ef_share":0.0,"ef_tj":0.0}},{"type":"Feature","geometry":{"type":"LineString","coordinates":[[-103.6042,31.16003,13720.0],[-103.43847,31.11681,13720.0]]},"properties":{"ef_share":0.0,"ef_tj":0.0}},{"type":"Feature","geometry":{"type":"LineString","coordinates":[[-103.43847,31.11681,13720.0],[-103.27274,31.07358,13720.0]]},"properties":{"ef_share":0.0,"ef_tj":0.0}},{"type":"Feature","geometry":{"type":"LineString","coordinates":[[-103.27274,31.07358,13720.0],[-103.10701,31.03036,13720.0]]},"properties":{"ef_share":0.0,"ef_tj":0.0}},{"type":"Feature","geometry":{"type":"LineString","coordinates":[[-103.10701,31.03036,13720.0],[-102.94127,30.98713,13720.0]]},"properties":{"ef_share":0.0,"ef_tj":0.0}},{"type":"Feature","geometry":{"type":"LineString","coordinates":[[-102.94127,30.98713,13720.0],[-102.77554,30.94391,13720.0]]},"properties":{"ef_share":0.0,"ef_tj":0.0}},{"type":"Feature","geometry":{"type":"LineString","coordinates":[[-102.77554,30.94391,13720.0],[-102.61041,30.89985,13720.0]]},"properties":{"ef_share":0.0,"ef_tj":0.0}},{"type":"Feature","geometry":{"type":"LineString","coordinates":[[-102.61041,30.89985,13720.0],[-102.44552,30.85543,13720.0]]},"properties":{"ef_share":0.0,"ef_tj":0.0}},{"type":"Feature","geometry":{"type":"LineString","coordinates":[[-102.44552,30.85543,13720.0],[-102.28064,30.81102,13720.0]]},"properties":{"ef_share":0.0,"ef_tj":0.0}},{"type":"Feature","geometry":{"type":"LineString","coordinates":[[-102.28064,30.81102,13720.0],[-102.11576,30.76661,13720.0]]},"properties":{"ef_share":0.0,"ef_tj":0.0}},{"type":"Feature","geometry":{"type":"LineString","coordinates":[[-102.11576,30.76661,13720.0],[-101.95087,30.72219,13720.0]]},"properties":{"ef_share":0.0,"ef_tj":0.0}},{"type":"Feature","geometry":{"type":"LineString","coordinates":[[-101.95087,30.72219,13720.0],[-101.78578,30.67766,13720.0]]},"properties":{"ef_share":0.0,"ef_tj":0.0}},{"type":"Feature","geometry":{"type":"LineString","coordinates":[[-101.78578,30.67766,13720.0],[-101.61793,30.63157,13580.0]]},"properties":{"ef_share":0.0,"ef_tj":0.0}},{"type":"Feature","geometry":{"type":"LineString","coordinates":[[-101.61793,30.63157,13580.0],[-101.45368,30.58621,13020.0]]},"properties":{"ef_share":0.0,"ef_tj":0.0}},{"type":"Feature","geometry":{"type":"LineString","coordinates":[[-101.45368,30.58621,13020.0],[-101.29542,30.54228,12420.0]]},"properties":{"ef_share":0.0,"ef_tj":0.0}},{"type":"Feature","geometry":{"type":"LineString","coordinates":[[-101.29542,30.54228,12420.0],[-101.13931,30.49868,11810.0]]},"properties":{"ef_share":0.0,"ef_tj":0.0}},{"type":"Feature","geometry":{"type":"LineString","coordinates":[[-101.13931,30.49868,11810.0],[-100.98406,30.45521,11220.0]]},"properties":{"ef_share":0.0,"ef_tj":0.0}},{"type":"Feature","geometry":{"type":"LineString","coordinates":[[-100.98406,30.45521,11220.0],[-100.8253,30.41041,10610.0]]},"properties":{"ef_share":0.0,"ef_tj":0.0}},{"type":"Feature","geometry":{"type":"LineString","coordinates":[[-100.8253,30.41041,10610.0],[-100.66494,30.36498,10000.0]]},"properties":{"ef_share":0.0,"ef_tj":0.0}},{"type":"Feature","geometry":{"type":"LineString","coordinates":[[-100.66494,30.36498,10000.0],[-100.50366,30.31901,9410.0]]},"properties":{"ef_share":0.0,"ef_tj":0.0}},{"type":"Feature","geometry":{"type":"LineString","coordinates":[[-100.50366,30.31901,9410.0],[-100.34466,30.27346,8810.0]]},"properties":{"ef_share":0.0,"ef_tj":0.0}},{"type":"Feature","geometry":{"type":"LineString","coordinates":[[-100.34466,30.27346,8810.0],[-100.18882,30.22858,8210.0]]},"properties":{"ef_share":0.0,"ef_tj":0.0}},{"type":"Feature","geometry":{"type":"LineString","coordinates":[[-100.18882,30.22858,8210.0],[-100.03634,30.18449,7610.0]]},"properties":{"ef_share":0.0,"ef_tj":0.0}},{"type":"Feature","geometry":{"type":"LineString","coordinates":[[-100.03634,30.18449,7610.0],[-99.89261,30.13985,6910.0]]},"properties":{"ef_share":0.0,"ef_tj":0.0}},{"type":"Feature","geometry":{"type":"LineString","coordinates":[[-99.89261,30.13985,6910.0],[-99.75635,30.09636,6240.0]]},"properties":{"ef_share":0.0,"ef_tj":0.0}},{"type":"Feature","geometry":{"type":"LineString","coordinates":[[-99.75635,30.09636,6240.0],[-99.6249,30.05439,5550.0]]},"properties":{"ef_share":0.0,"ef_tj":0.0}},{"type":"Feature","geometry":{"type":"LineString","coordinates":[[-99.6249,30.05439,5550.0],[-99.49795,30.01375,4860.0]]},"properties":{"ef_share":0.0,"ef_tj":0.0}},{"type":"Feature","geometry":{"type":"LineString","coordinates":[[-99.49795,30.01375,4860.0],[-99.37248,29.97335,4240.0]]},"properties":{"ef_share":0.0,"ef_tj":0.0}},{"type":"Feature","geometry":{"type":"LineString","coordinates":[[-99.37248,29.97335,4240.0],[-99.25144,29.93425,3630.0]]},"properties":{"ef_share":0.0,"ef_tj":0.0}},{"type":"Feature","geometry":{"type":"LineString","coordinates":[[-99.25144,29.93425,3630.0],[-99.13988,29.89522,3120.0]]},"properties":{"ef_share":0.0,"ef_tj":0.0}},{"type":"Feature","geometry":{"type":"LineString","coordinates":[[-99.13988,29.89522,3120.0],[-99.04091,29.85864,2790.0]]},"properties":{"ef_share":0.0,"ef_tj":0.0}},{"type":"Feature","geometry":{"type":"LineString","coordinates":[[-99.04091,29.85864,2790.0],[-98.9549,29.81949,2660.0]]},"properties":{"ef_share":0.0,"ef_tj":0.0}},{"type":"Feature","geometry":{"type":"LineString","coordinates":[[-98.9549,29.81949,2660.0],[-98.91127,29.74798,2430.0]]},"properties":{"ef_share":0.0,"ef_tj":0.0}},{"type":"Feature","geometry":{"type":"LineString","coordinates":[[-98.91127,29.74798,2430.0],[-98.87046,29.6757,2120.0]]},"properties":{"ef_share":0.0,"ef_tj":0.0}},{"type":"Feature","geometry":{"type":"LineString","coordinates":[[-98.87046,29.6757,2120.0],[-98.83043,29.60493,1820.0]]},"properties":{"ef_share":0.0,"ef_tj":0.0}},{"type":"Feature","geometry":{"type":"LineString","coordinates":[[-98.83043,29.60493,1820.0],[-98.79141,29.53488,1520.0]]},"properties":{"ef_share":0.0,"ef_tj":0.0}},{"type":"Feature","geometry":{"type":"LineString","coordinates":[[-98.79141,29.53488,1520.0],[-98.75317,29.46457,1240.0]]},"properties":{"ef_share":0.0,"ef_tj":0.0}},{"type":"Feature","geometry":{"type":"LineString","coordinates":[[-98.75317,29.46457,1240.0],[-98.70898,29.40371,1050.0]]},"properties":{"ef_share":0.0,"ef_tj":0.0}},{"type":"Feature","geometry":{"type":"LineString","coordinates":[[-98.70898,29.40371,1050.0],[-98.67202,29.34795,850.0]]},"properties":{"ef_share":0.0,"ef_tj":0.0}},{"type":"Feature","geometry":{"type":"LineString","coordinates":[[-98.67202,29.34795,850.0],[-98.64076,29.29784,730.0]]},"properties":{"ef_share":0.0,"ef_tj":0.0}},{"type":"Feature","geometry":{"type":"LineString","coordinates":[[-98.64076,29.29784,730.0],[-98.59019,29.28699,590.0]]},"properties":{"ef_share":0.0,"ef_tj":0.0}}]}