{"type":"FeatureCollection","properties":{"icao24":"a89621","registration":"N652WE","owner_label":"Eric Schmidt","combined_co2e_central":55574.3,"fuel_co2_kg":9877.9,"contrail_co2e_central":45696.4,"tier":"high"},"features":[{"type":"Feature","geometry":{"type":"LineString","coordinates":[[-78.78483,37.94128,10970.0],[-78.90428,37.8691,11150.0]]},"properties":{"ef_share":0.0,"ef_tj":0.0}},{"type":"Feature","geometry":{"type":"LineString","coordinates":[[-78.90428,37.8691,11150.0],[-79.02482,37.79598,11720.0]]},"properties":{"ef_share":0.0,"ef_tj":0.0}},{"type":"Feature","geometry":{"type":"LineString","coordinates":[[-79.02482,37.79598,11720.0],[-79.14461,37.72302,12290.0]]},"properties":{"ef_share":0.0,"ef_tj":0.0}},{"type":"Feature","geometry":{"type":"LineString","coordinates":[[-79.14461,37.72302,12290.0],[-79.2626,37.65204,12500.0]]},"properties":{"ef_share":0.0,"ef_tj":0.0}},{"type":"Feature","geometry":{"type":"LineString","coordinates":[[-79.2626,37.65204,12500.0],[-79.38209,37.58127,12500.0]]},"properties":{"ef_share":0.0,"ef_tj":0.0}},{"type":"Feature","geometry":{"type":"LineString","coordinates":[[-79.38209,37.58127,12500.0],[-79.50266,37.50943,12500.0]]},"properties":{"ef_share":0.0,"ef_tj":0.0}},{"type":"Feature","geometry":{"type":"LineString","coordinates":[[-79.50266,37.50943,12500.0],[-79.62224,37.43794,12500.0]]},"properties":{"ef_share":0.0,"ef_tj":0.0}},{"type":"Feature","geometry":{"type":"LineString","coordinates":[[-79.62224,37.43794,12500.0],[-79.74135,37.36645,12500.0]]},"properties":{"ef_share":0.0,"ef_tj":0.0}},{"type":"Feature","geometry":{"type":"LineString","coordinates":[[-79.74135,37.36645,12500.0],[-79.86154,37.29406,12500.0]]},"properties":{"ef_share":0.0,"ef_tj":0.0}},{"type":"Feature","geometry":{"type":"LineString","coordinates":[[-79.86154,37.29406,12500.0],[-79.98056,37.22212,12500.0]]},"properties":{"ef_share":0.0,"ef_tj":0.0}},{"type":"Feature","geometry":{"type":"LineString","coordinates":[[-79.98056,37.22212,12500.0],[-80.10006,37.14961,12500.0]]},"properties":{"ef_share":0.0,"ef_tj":0.0}},{"type":"Feature","geometry":{"type":"LineString","coordinates":[[-80.10006,37.14961,12500.0],[-80.21772,37.07805,12500.0]]},"properties":{"ef_share":0.0,"ef_tj":0.0}},{"type":"Feature","geometry":{"type":"LineString","coordinates":[[-80.21772,37.07805,12500.0],[-80.33463,37.00639,12500.0]]},"properties":{"ef_share":0.0,"ef_tj":0.0}},{"type":"Feature","geometry":{"type":"LineString","coordinates":[[-80.33463,37.00639,12500.0],[-80.4494,36.93039,12500.0]]},"properties":{"ef_share":0.0,"ef_tj":0.0}},{"type":"Feature","geometry":{"type":"LineString","coordinates":[[-80.4494,36.93039,12500.0],[-80.56516,36.8539,12500.0]]},"properties":{"ef_share":0.0,"ef_tj":0.0}},{"type":"Feature","geometry":{"type":"LineString","coordinates":[[-80.56516,36.8539,12500.0],[-80.67991,36.77807,12500.0]]},"properties":{"ef_share":0.0,"ef_tj":0.0}},{"type":"Feature","geometry":{"type":"LineString","coordinates":[[-80.67991,36.77807,12500.0],[-80.7948,36.70193,12500.0]]},"properties":{"ef_share":0.0,"ef_tj":0.0}},{"type":"Feature","geometry":{"type":"LineString","coordinates":[[-80.7948,36.70193,12500.0],[-80.90966,36.62547,12270.0]]},"properties":{"ef_share":0.0,"ef_tj":0.0}},{"type":"Feature","geometry":{"type":"LineString","coordinates":[[-80.90966,36.62547,12270.0],[-81.0256,36.54813,11920.0]]},"properties":{"ef_share":0.0,"ef_tj":0.0}},{"type":"Feature","geometry":{"type":"LineString","coordinates":[[-81.0256,36.54813,11920.0],[-81.14433,36.46855,11560.0]]},"properties":{"ef_share":0.0,"ef_tj":0.0}},{"type":"Feature","geometry":{"type":"LineString","coordinates":[[-81.14433,36.46855,11560.0],[-81.26298,36.38882,11200.0]]},"properties":{"ef_share":0.0,"ef_tj":0.0}},{"type":"Feature","geometry":{"type":"LineString","coordinates":[[-81.26298,36.38882,11200.0],[-81.38086,36.30925,10930.0]]},"properties":{"ef_share":0.0,"ef_tj":0.0}},{"type":"Feature","geometry":{"type":"LineString","coordinates":[[-81.38086,36.30925,10930.0],[-81.49872,36.22946,10740.0]]},"properties":{"ef_share":0.0,"ef_tj":0.0}},{"type":"Feature","geometry":{"type":"LineString","coordinates":[[-81.49872,36.22946,10740.0],[-81.61647,36.14944,10670.0]]},"properties":{"ef_share":0.0,"ef_tj":0.0}},{"type":"Feature","geometry":{"type":"LineString","coordinates":[[-81.61647,36.14944,10670.0],[-81.7345,36.06894,10670.0]]},"properties":{"ef_share":0.0,"ef_tj":0.0}},{"type":"Feature","geometry":{"type":"LineString","coordinates":[[-81.7345,36.06894,10670.0],[-81.85245,35.98826,10670.0]]},"properties":{"ef_share":0.0,"ef_tj":0.0}},{"type":"Feature","geometry":{"type":"LineString","coordinates":[[-81.85245,35.98826,10670.0],[-81.97084,35.90694,9990.0]]},"properties":{"ef_share":0.0,"ef_tj":0.0}},{"type":"Feature","geometry":{"type":"LineString","coordinates":[[-81.97084,35.90694,9990.0],[-82.09192,35.82357,9750.0]]},"properties":{"ef_share":1.0,"ef_tj":42.965884}},{"type":"Feature","geometry":{"type":"LineString","coordinates":[[-82.09192,35.82357,9750.0],[-82.2136,35.73936,9750.0]]},"properties":{"ef_share":0.96,"ef_tj":41.251164}},{"type":"Feature","geometry":{"type":"LineString","coordinates":[[-82.2136,35.73936,9750.0],[-82.33461,35.65541,9750.0]]},"properties":{"ef_share":0.894,"ef_tj":38.415622}},{"type":"Feature","geometry":{"type":"LineString","coordinates":[[-82.33461,35.65541,9750.0],[-82.45493,35.57159,9750.0]]},"properties":{"ef_share":0.884,"ef_tj":37.970077}},{"type":"Feature","geometry":{"type":"LineString","coordinates":[[-82.45493,35.57159,9750.0],[-82.57443,35.48804,9430.0]]},"properties":{"ef_share":0.0,"ef_tj":0.0}},{"type":"Feature","geometry":{"type":"LineString","coordinates":[[-82.57443,35.48804,9430.0],[-82.69202,35.40559,9000.0]]},"properties":{"ef_share":0.0,"ef_tj":0.0}},{"type":"Feature","geometry":{"type":"LineString","coordinates":[[-82.69202,35.40559,9000.0],[-82.8084,35.32365,8450.0]]},"properties":{"ef_share":0.0,"ef_tj":0.0}},{"type":"Feature","geometry":{"type":"LineString","coordinates":[[-82.8084,35.32365,8450.0],[-82.92267,35.24294,7900.0]]},"properties":{"ef_share":0.0,"ef_tj":0.0}},{"type":"Feature","geometry":{"type":"LineString","coordinates":[[-82.92267,35.24294,7900.0],[-83.0339,35.1642,7340.0]]},"properties":{"ef_share":0.0,"ef_tj":0.0}},{"type":"Feature","geometry":{"type":"LineString","coordinates":[[-83.0339,35.1642,7340.0],[-83.14204,35.08733,6760.0]]},"properties":{"ef_share":0.0,"ef_tj":0.0}},{"type":"Feature","geometry":{"type":"LineString","coordinates":[[-83.14204,35.08733,6760.0],[-83.24722,35.01232,6400.0]]},"properties":{"ef_share":0.0,"ef_tj":0.0}},{"type":"Feature","geometry":{"type":"LineString","coordinates":[[-83.24722,35.01232,6400.0],[-83.35157,34.93772,6400.0]]},"properties":{"ef_share":0.0,"ef_tj":0.0}},{"type":"Feature","geometry":{"type":"LineString","coordinates":[[-83.35157,34.93772,6400.0],[-83.455,34.86352,6050.0]]},"properties":{"ef_share":0.0,"ef_tj":0.0}},{"type":"Feature","geometry":{"type":"LineString","coordinates":[[-83.455,34.86352,6050.0],[-83.55614,34.7908,5520.0]]},"properties":{"ef_share":0.0,"ef_tj":0.0}},{"type":"Feature","geometry":{"type":"LineString","coordinates":[[-83.55614,34.7908,5520.0],[-83.65661,34.71826,4940.0]]},"properties":{"ef_share":0.0,"ef_tj":0.0}},{"type":"Feature","geometry":{"type":"LineString","coordinates":[[-83.65661,34.71826,4940.0],[-83.75404,34.64779,4360.0]]},"properties":{"ef_share":0.0,"ef_tj":0.0}},{"type":"Feature","geometry":{"type":"LineString","coordinates":[[-83.75404,34.64779,4360.0],[-83.84806,34.57956,4160.0]]},"properties":{"ef_share":0.0,"ef_tj":0.0}},{"type":"Feature","geometry":{"type":"LineString","coordinates":[[-83.84806,34.57956,4160.0],[-83.94095,34.51199,3620.0]]},"properties":{"ef_share":0.0,"ef_tj":0.0}},{"type":"Feature","geometry":{"type":"LineString","coordinates":[[-83.94095,34.51199,3620.0],[-84.01066,34.43161,3250.0]]},"properties":{"ef_share":0.0,"ef_tj":0.0}},{"type":"Feature","geometry":{"type":"LineString","coordinates":[[-84.01066,34.43161,3250.0],[-84.05246,34.35281,2800.0]]},"properties":{"ef_share":0.0,"ef_tj":0.0}},{"type":"Feature","geometry":{"type":"LineString","coordinates":[[-84.05246,34.35281,2800.0],[-84.08916,34.28248,2330.0]]},"properties":{"ef_share":0.0,"ef_tj":0.0}},{"type":"Feature","geometry":{"type":"LineString","coordinates":[[-84.08916,34.28248,2330.0],[-84.12371,34.21763,2050.0]]},"properties":{"ef_share":0.0,"ef_tj":0.0}},{"type":"Feature","geometry":{"type":"LineString","coordinates":[[-84.12371,34.21763,2050.0],[-84.15924,34.15945,1620.0]]},"properties":{"ef_share":0.0,"ef_tj":0.0}},{"type":"Feature","geometry":{"type":"LineString","coordinates":[[-84.15924,34.15945,1620.0],[-84.19306,34.1036,1200.0]]},"properties":{"ef_share":0.0,"ef_tj":0.0}},{"type":"Feature","geometry":{"type":"LineString","coordinates":[[-84.19306,34.1036,1200.0],[-84.2227,34.04808,820.0]]},"properties":{"ef_share":0.0,"ef_tj":0.0}},{"type":"Feature","geometry":{"type":"LineString","coordinates":[[-84.2227,34.04808,820.0],[-84.24466,34.00011,820.0]]},"properties":{"ef_share":0.0,"ef_tj":0.0}},{"type":"Feature","geometry":{"type":"LineString","coordinates":[[-84.24466,34.00011,820.0],[-84.26547,33.95448,660.0]]},"properties":{"ef_share":0.0,"ef_tj":0.0}},{"type":"Feature","geometry":{"type":"LineString","coordinates":[[-84.26547,33.95448,660.0],[-84.28318,33.91514,420.0]]},"properties":{"ef_share":0.0,"ef_tj":0.0}},{"type":"Feature","geometry":{"type":"LineString","coordinates":[[-84.28318,33.91514,420.0],[-84.2952,33.88831,260.0]]},"properties":{"ef_share":0.0,"ef_tj":0.0}},{"type":"Feature","geometry":{"type":"LineString","coordinates":[[-84.2952,33.88831,260.0],[-84.29553,33.88758,260.0]]},"properties":{"ef_share":0.0,"ef_tj":0.0}},{"type":"Feature","geometry":{"type":"LineString","coordinates":[[-84.29553,33.88758,260.0],[-84.29586,33.88685,260.0]]},"properties":{"ef_share":0.0,"ef_tj":0.0}},{"type":"Feature","geometry":{"type":"LineString","coordinates":[[-84.29586,33.88685,260.0],[-84.29618,33.88611,260.0]]},"properties":{"ef_share":0.0,"ef_tj":0.0}},{"type":"Feature","geometry":{"type":"LineString","coordinates":[[-84.29618,33.88611,260.0],[-84.29651,33.88538,260.0]]},"properties":{"ef_share":0.0,"ef_tj":0.0}},{"type":"Feature","geometry":{"type":"LineString","coordinates":[[-84.29651,33.88538,260.0],[-84.29684,33.88465,260.0]]},"properties":{"ef_share":0.0,"ef_tj":0.0}},{"type":"Feature","geometry":{"type":"LineString","coordinates":[[-84.29684,33.88465,260.0],[-84.29716,33.88391,260.0]]},"properties":{"ef_share":0.0,"ef_tj":0.0}},{"type":"Feature","geometry":{"type":"LineString","coordinates":[[-84.29716,33.88391,260.0],[-84.29749,33.88318,260.0]]},"properties":{"ef_share":0.0,"ef_tj":0.0}},{"type":"Feature","geometry":{"type":"LineString","coordinates":[[-84.29749,33.88318,260.0],[-84.29782,33.88245,260.0]]},"properties":{"ef_share":0.0,"ef_tj":0.0}},{"type":"Feature","geometry":{"type":"LineString","coordinates":[[-84.29782,33.88245,260.0],[-84.29815,33.88172,260.0]]},"properties":{"ef_share":0.0,"ef_tj":0.0}},{"type":"Feature","geometry":{"type":"LineString","coordinates":[[-84.29815,33.88172,260.0],[-84.29847,33.88098,260.0]]},"properties":{"ef_share":0.0,"ef_tj":0.0}},{"type":"Feature","geometry":{"type":"LineString","coordinates":[[-84.29847,33.88098,260.0],[-84.2988,33.88025,260.0]]},"properties":{"ef_share":0.0,"ef_tj":0.0}},{"type":"Feature","geometry":{"type":"LineString","coordinates":[[-84.2988,33.88025,260.0],[-84.29913,33.87952,260.0]]},"properties":{"ef_share":0.0,"ef_tj":0.0}},{"type":"Feature","geometry":{"type":"LineString","coordinates":[[-84.29913,33.87952,260.0],[-84.29945,33.87878,260.0]]},"properties":{"ef_share":0.0,"ef_tj":0.0}},{"type":"Feature","geometry":{"type":"LineString","coordinates":[[-84.29945,33.87878,260.0],[-84.29978,33.87805,260.0]]},"properties":{"ef_share":0.0,"ef_tj":0.0}},{"type":"Feature","geometry":{"type":"LineString","coordinates":[[-84.29978,33.87805,260.0],[-84.30011,33.87732,260.0]]},"properties":{"ef_share":0.0,"ef_tj":0.0}},{"type":"Feature","geometry":{"type":"LineString","coordinates":[[-84.30011,33.87732,260.0],[-84.30044,33.87659,260.0]]},"properties":{"ef_share":0.0,"ef_tj":0.0}},{"type":"Feature","geometry":{"type":"LineString","coordinates":[[-84.30044,33.87659,260.0],[-84.30076,33.87585,260.0]]},"properties":{"ef_share":0.0,"ef_tj":0.0}},{"type":"Feature","geometry":{"type":"LineString","coordinates":[[-84.30076,33.87585,260.0],[-84.30109,33.87512,260.0]]},"properties":{"ef_share":0.0,"ef_tj":0.0}},{"type":"Feature","geometry":{"type":"LineString","coordinates":[[-84.30109,33.87512,260.0],[-84.30142,33.87439,260.0]]},"properties":{"ef_share":0.0,"ef_tj":0.0}},{"type":"Feature","geometry":{"type":"LineString","coordinates":[[-84.30142,33.87439,260.0],[-84.30174,33.87365,260.0]]},"properties":{"ef_share":0.0,"ef_tj":0.0}},{"type":"Feature","geometry":{"type":"LineString","coordinates":[[-84.30174,33.87365,260.0],[-84.30207,33.87292,260.0]]},"properties":{"ef_share":0.0,"ef_tj":0.0}},{"type":"Feature","geometry":{"type":"LineString","coordinates":[[-84.30207,33.87292,260.0],[-84.3024,33.87219,260.0]]},"properties":{"ef_share":0.0,"ef_tj":0.0}},{"type":"Feature","geometry":{"type":"LineString","coordinates":[[-84.3024,33.87219,260.0],[-84.30273,33.87145,260.0]]},"properties":{"ef_share":0.0,"ef_tj":0.0}},{"type":"Feature","geometry":{"type":"LineString","coordinates":[[-84.30273,33.87145,260.0],[-84.30556,33.86531,330.0]]},"properties":{"ef_share":0.0,"ef_tj":0.0}},{"type":"Feature","geometry":{"type":"LineString","coordinates":[[-84.30556,33.86531,330.0],[-84.35875,33.83191,850.0]]},"properties":{"ef_share":0.0,"ef_tj":0.0}},{"type":"Feature","geometry":{"type":"LineString","coordinates":[[-84.35875,33.83191,850.0],[-84.41448,33.80045,1660.0]]},"properties":{"ef_share":0.0,"ef_tj":0.0}},{"type":"Feature","geometry":{"type":"LineString","coordinates":[[-84.41448,33.80045,1660.0],[-84.4147,33.7292,1730.0]]},"properties":{"ef_share":0.0,"ef_tj":0.0}},{"type":"Feature","geometry":{"type":"LineString","coordinates":[[-84.4147,33.7292,1730.0],[-84.41106,33.65283,1730.0]]},"properties":{"ef_share":0.0,"ef_tj":0.0}},{"type":"Feature","geometry":{"type":"LineString","coordinates":[[-84.41106,33.65283,1730.0],[-84.4077,33.5767,1870.0]]},"properties":{"ef_share":0.0,"ef_tj":0.0}},{"type":"Feature","geometry":{"type":"LineString","coordinates":[[-84.4077,33.5767,1870.0],[-84.40332,33.49936,2450.0]]},"properties":{"ef_share":0.0,"ef_tj":0.0}},{"type":"Feature","geometry":{"type":"LineString","coordinates":[[-84.40332,33.49936,2450.0],[-84.39345,33.42033,3130.0]]},"properties":{"ef_share":0.0,"ef_tj":0.0}},{"type":"Feature","geometry":{"type":"LineString","coordinates":[[-84.39345,33.42033,3130.0],[-84.31831,33.34157,3750.0]]},"properties":{"ef_share":0.0,"ef_tj":0.0}},{"type":"Feature","geometry":{"type":"LineString","coordinates":[[-84.31831,33.34157,3750.0],[-84.23061,33.25777,4560.0]]},"properties":{"ef_share":0.0,"ef_tj":0.0}},{"type":"Feature","geometry":{"type":"LineString","coordinates":[[-84.23061,33.25777,4560.0],[-84.14008,33.17058,5570.0]]},"properties":{"ef_share":0.0,"ef_tj":0.0}},{"type":"Feature","geometry":{"type":"LineString","coordinates":[[-84.14008,33.17058,5570.0],[-84.04502,33.07858,6470.0]]},"properties":{"ef_share":0.0,"ef_tj":0.0}},{"type":"Feature","geometry":{"type":"LineString","coordinates":[[-84.04502,33.07858,6470.0],[-83.94668,32.98327,7370.0]]},"properties":{"ef_share":0.0,"ef_tj":0.0}},{"type":"Feature","geometry":{"type":"LineString","coordinates":[[-83.94668,32.98327,7370.0],[-83.85229,32.89156,8200.0]]},"properties":{"ef_share":0.0,"ef_tj":0.0}},{"type":"Feature","geometry":{"type":"LineString","coordinates":[[-83.85229,32.89156,8200.0],[-83.75785,32.79866,9040.0]]},"properties":{"ef_share":0.0,"ef_tj":0.0}},{"type":"Feature","geometry":{"type":"LineString","coordinates":[[-83.75785,32.79866,9040.0],[-83.66717,32.69947,9720.0]]},"properties":{"ef_share":0.0,"ef_tj":0.0}},{"type":"Feature","geometry":{"type":"LineString","coordinates":[[-83.66717,32.69947,9720.0],[-83.57218,32.59365,10090.0]]},"properties":{"ef_share":0.0,"ef_tj":0.0}},{"type":"Feature","geometry":{"type":"LineString","coordinates":[[-83.57218,32.59365,10090.0],[-83.47286,32.48274,10530.0]]},"properties":{"ef_share":0.0,"ef_tj":0.0}},{"type":"Feature","geometry":{"type":"LineString","coordinates":[[-83.47286,32.48274,10530.0],[-83.37103,32.36862,10890.0]]},"properties":{"ef_share":0.0,"ef_tj":0.0}},{"type":"Feature","geometry":{"type":"LineString","coordinates":[[-83.37103,32.36862,10890.0],[-83.26556,32.25014,11170.0]]},"properties":{"ef_share":0.0,"ef_tj":0.0}},{"type":"Feature","geometry":{"type":"LineString","coordinates":[[-83.26556,32.25014,11170.0],[-83.16123,32.13248,11540.0]]},"properties":{"ef_share":0.0,"ef_tj":0.0}},{"type":"Feature","geometry":{"type":"LineString","coordinates":[[-83.16123,32.13248,11540.0],[-83.05688,32.01441,11940.0]]},"properties":{"ef_share":0.0,"ef_tj":0.0}},{"type":"Feature","geometry":{"type":"LineString","coordinates":[[-83.05688,32.01441,11940.0],[-82.95359,31.89682,12190.0]]},"properties":{"ef_share":0.0,"ef_tj":0.0}},{"type":"Feature","geometry":{"type":"LineString","coordinates":[[-82.95359,31.89682,12190.0],[-82.88854,31.76693,12190.0]]},"properties":{"ef_share":0.0,"ef_tj":0.0}},{"type":"Feature","geometry":{"type":"LineString","coordinates":[[-82.88854,31.76693,12190.0],[-82.92775,31.64094,12190.0]]},"properties":{"ef_share":0.0,"ef_tj":0.0}},{"type":"Feature","geometry":{"type":"LineString","coordinates":[[-82.92775,31.64094,12190.0],[-83.01893,31.54067,12190.0]]},"properties":{"ef_share":0.0,"ef_tj":0.0}},{"type":"Feature","geometry":{"type":"LineString","coordinates":[[-83.01893,31.54067,12190.0],[-83.10896,31.43739,12190.0]]},"properties":{"ef_share":0.0,"ef_tj":0.0}},{"type":"Feature","geometry":{"type":"LineString","coordinates":[[-83.10896,31.43739,12190.0],[-83.12278,31.30221,12190.0]]},"properties":{"ef_share":0.0,"ef_tj":0.0}},{"type":"Feature","geometry":{"type":"LineString","coordinates":[[-83.12278,31.30221,12190.0],[-83.10421,31.1619,12160.0]]},"properties":{"ef_share":0.0,"ef_tj":0.0}},{"type":"Feature","geometry":{"type":"LineString","coordinates":[[-83.10421,31.1619,12160.0],[-83.10498,31.02414,11890.0]]},"properties":{"ef_share":0.0,"ef_tj":0.0}},{"type":"Feature","geometry":{"type":"LineString","coordinates":[[-83.10498,31.02414,11890.0],[-83.12334,30.89058,11890.0]]},"properties":{"ef_share":0.0,"ef_tj":0.0}},{"type":"Feature","geometry":{"type":"LineString","coordinates":[[-83.12334,30.89058,11890.0],[-83.1415,30.75722,11890.0]]},"properties":{"ef_share":0.0,"ef_tj":0.0}},{"type":"Feature","geometry":{"type":"LineString","coordinates":[[-83.1415,30.75722,11890.0],[-83.15952,30.62436,11890.0]]},"properties":{"ef_share":0.0,"ef_tj":0.0}},{"type":"Feature","geometry":{"type":"LineString","coordinates":[[-83.15952,30.62436,11890.0],[-83.17744,30.49164,11890.0]]},"properties":{"ef_share":0.0,"ef_tj":0.0}},{"type":"Feature","geometry":{"type":"LineString","coordinates":[[-83.17744,30.49164,11890.0],[-83.19537,30.35859,11890.0]]},"properties":{"ef_share":0.0,"ef_tj":0.0}},{"type":"Feature","geometry":{"type":"LineString","coordinates":[[-83.19537,30.35859,11890.0],[-83.21331,30.22527,11890.0]]},"properties":{"ef_share":0.0,"ef_tj":0.0}},{"type":"Feature","geometry":{"type":"LineString","coordinates":[[-83.21331,30.22527,11890.0],[-83.23113,30.09221,11890.0]]},"properties":{"ef_share":0.0,"ef_tj":0.0}},{"type":"Feature","geometry":{"type":"LineString","coordinates":[[-83.23113,30.09221,11890.0],[-83.24882,29.95977,11860.0]]},"properties":{"ef_share":0.0,"ef_tj":0.0}},{"type":"Feature","geometry":{"type":"LineString","coordinates":[[-83.24882,29.95977,11860.0],[-83.26057,29.82511,11660.0]]},"properties":{"ef_share":0.0,"ef_tj":0.0}},{"type":"Feature","geometry":{"type":"LineString","coordinates":[[-83.26057,29.82511,11660.0],[-83.22643,29.68744,11450.0]]},"properties":{"ef_share":0.0,"ef_tj":0.0}},{"type":"Feature","geometry":{"type":"LineString","coordinates":[[-83.22643,29.68744,11450.0],[-83.18364,29.54938,11280.0]]},"properties":{"ef_share":0.0,"ef_tj":0.0}},{"type":"Feature","geometry":{"type":"LineString","coordinates":[[-83.18364,29.54938,11280.0],[-83.14063,29.40965,11280.0]]},"properties":{"ef_share":0.0,"ef_tj":0.0}},{"type":"Feature","geometry":{"type":"LineString","coordinates":[[-83.14063,29.40965,11280.0],[-83.09818,29.27101,11280.0]]},"properties":{"ef_share":0.0,"ef_tj":0.0}},{"type":"Feature","geometry":{"type":"LineString","coordinates":[[-83.09818,29.27101,11280.0],[-83.05579,29.13216,11280.0]]},"properties":{"ef_share":0.0,"ef_tj":0.0}},{"type":"Feature","geometry":{"type":"LineString","coordinates":[[-83.05579,29.13216,11280.0],[-83.01562,28.99355,11280.0]]},"properties":{"ef_share":0.0,"ef_tj":0.0}},{"type":"Feature","geometry":{"type":"LineString","coordinates":[[-83.01562,28.99355,11280.0],[-82.9783,28.85525,11280.0]]},"properties":{"ef_share":0.0,"ef_tj":0.0}},{"type":"Feature","geometry":{"type":"LineString","coordinates":[[-82.9783,28.85525,11280.0],[-82.94066,28.71648,11280.0]]},"properties":{"ef_share":0.0,"ef_tj":0.0}},{"type":"Feature","geometry":{"type":"LineString","coordinates":[[-82.94066,28.71648,11280.0],[-82.90329,28.57849,11280.0]]},"properties":{"ef_share":0.0,"ef_tj":0.0}},{"type":"Feature","geometry":{"type":"LineString","coordinates":[[-82.90329,28.57849,11280.0],[-82.86579,28.43961,11280.0]]},"properties":{"ef_share":0.0,"ef_tj":0.0}},{"type":"Feature","geometry":{"type":"LineString","coordinates":[[-82.86579,28.43961,11280.0],[-82.82831,28.30041,11280.0]]},"properties":{"ef_share":0.0,"ef_tj":0.0}},{"type":"Feature","geometry":{"type":"LineString","coordinates":[[-82.82831,28.30041,11280.0],[-82.79105,28.16162,11280.0]]},"properties":{"ef_share":0.0,"ef_tj":0.0}},{"type":"Feature","geometry":{"type":"LineString","coordinates":[[-82.79105,28.16162,11280.0],[-82.75374,28.02245,11280.0]]},"properties":{"ef_share":0.0,"ef_tj":0.0}},{"type":"Feature","geometry":{"type":"LineString","coordinates":[[-82.75374,28.02245,11280.0],[-82.71651,27.88293,11270.0]]},"properties":{"ef_share":0.0,"ef_tj":0.0}},{"type":"Feature","geometry":{"type":"LineString","coordinates":[[-82.71651,27.88293,11270.0],[-82.68105,27.75029,11110.0]]},"properties":{"ef_share":0.0,"ef_tj":0.0}},{"type":"Feature","geometry":{"type":"LineString","coordinates":[[-82.68105,27.75029,11110.0],[-82.64838,27.627,10740.0]]},"properties":{"ef_share":0.0,"ef_tj":0.0}},{"type":"Feature","geometry":{"type":"LineString","coordinates":[[-82.64838,27.627,10740.0],[-82.61517,27.50294,10670.0]]},"properties":{"ef_share":0.0,"ef_tj":0.0}},{"type":"Feature","geometry":{"type":"LineString","coordinates":[[-82.61517,27.50294,10670.0],[-82.57785,27.37762,10670.0]]},"properties":{"ef_share":0.0,"ef_tj":0.0}},{"type":"Feature","geometry":{"type":"LineString","coordinates":[[-82.57785,27.37762,10670.0],[-82.54133,27.25324,10660.0]]},"properties":{"ef_share":0.0,"ef_tj":0.0}},{"type":"Feature","geometry":{"type":"LineString","coordinates":[[-82.54133,27.25324,10660.0],[-82.50482,27.12838,10440.0]]},"properties":{"ef_share":0.0,"ef_tj":0.0}},{"type":"Feature","geometry":{"type":"LineString","coordinates":[[-82.50482,27.12838,10440.0],[-82.468,27.00246,10230.0]]},"properties":{"ef_share":0.0,"ef_tj":0.0}},{"type":"Feature","geometry":{"type":"LineString","coordinates":[[-82.468,27.00246,10230.0],[-82.4089,26.88167,10020.0]]},"properties":{"ef_share":0.0,"ef_tj":0.0}},{"type":"Feature","geometry":{"type":"LineString","coordinates":[[-82.4089,26.88167,10020.0],[-82.31023,26.77698,9570.0]]},"properties":{"ef_share":0.0,"ef_tj":0.0}},{"type":"Feature","geometry":{"type":"LineString","coordinates":[[-82.31023,26.77698,9570.0],[-82.21064,26.67312,8970.0]]},"properties":{"ef_share":0.0,"ef_tj":0.0}},{"type":"Feature","geometry":{"type":"LineString","coordinates":[[-82.21064,26.67312,8970.0],[-82.10943,26.56707,8350.0]]},"properties":{"ef_share":0.0,"ef_tj":0.0}},{"type":"Feature","geometry":{"type":"LineString","coordinates":[[-82.10943,26.56707,8350.0],[-82.00603,26.46216,7740.0]]},"properties":{"ef_share":0.0,"ef_tj":0.0}},{"type":"Feature","geometry":{"type":"LineString","coordinates":[[-82.00603,26.46216,7740.0],[-81.90792,26.36497,7160.0]]},"properties":{"ef_share":0.0,"ef_tj":0.0}},{"type":"Feature","geometry":{"type":"LineString","coordinates":[[-81.90792,26.36497,7160.0],[-81.8192,26.27658,6640.0]]},"properties":{"ef_share":0.0,"ef_tj":0.0}},{"type":"Feature","geometry":{"type":"LineString","coordinates":[[-81.8192,26.27658,6640.0],[-81.71861,26.21038,6120.0]]},"properties":{"ef_share":0.0,"ef_tj":0.0}},{"type":"Feature","geometry":{"type":"LineString","coordinates":[[-81.71861,26.21038,6120.0],[-81.60945,26.16314,5590.0]]},"properties":{"ef_share":0.0,"ef_tj":0.0}},{"type":"Feature","geometry":{"type":"LineString","coordinates":[[-81.60945,26.16314,5590.0],[-81.5044,26.1174,5090.0]]},"properties":{"ef_share":0.0,"ef_tj":0.0}},{"type":"Feature","geometry":{"type":"LineString","coordinates":[[-81.5044,26.1174,5090.0],[-81.40271,26.07297,4540.0]]},"properties":{"ef_share":0.0,"ef_tj":0.0}},{"type":"Feature","geometry":{"type":"LineString","coordinates":[[-81.40271,26.07297,4540.0],[-81.30473,26.03025,4110.0]]},"properties":{"ef_share":0.0,"ef_tj":0.0}},{"type":"Feature","geometry":{"type":"LineString","coordinates":[[-81.30473,26.03025,4110.0],[-81.20958,25.98876,3690.0]]},"properties":{"ef_share":0.0,"ef_tj":0.0}},{"type":"Feature","geometry":{"type":"LineString","coordinates":[[-81.20958,25.98876,3690.0],[-81.1172,25.94832,3280.0]]},"properties":{"ef_share":0.0,"ef_tj":0.0}},{"type":"Feature","geometry":{"type":"LineString","coordinates":[[-81.1172,25.94832,3280.0],[-81.03416,25.91193,2990.0]]},"properties":{"ef_share":0.0,"ef_tj":0.0}},{"type":"Feature","geometry":{"type":"LineString","coordinates":[[-81.03416,25.91193,2990.0],[-80.95197,25.88528,2680.0]]},"properties":{"ef_share":0.0,"ef_tj":0.0}},{"type":"Feature","geometry":{"type":"LineString","coordinates":[[-80.95197,25.88528,2680.0],[-80.87035,25.86797,2350.0]]},"properties":{"ef_share":0.0,"ef_tj":0.0}},{"type":"Feature","geometry":{"type":"LineString","coordinates":[[-80.87035,25.86797,2350.0],[-80.79351,25.853,2020.0]]},"properties":{"ef_share":0.0,"ef_tj":0.0}},{"type":"Feature","geometry":{"type":"LineString","coordinates":[[-80.79351,25.853,2020.0],[-80.71666,25.83803,1700.0]]},"properties":{"ef_share":0.0,"ef_tj":0.0}},{"type":"Feature","geometry":{"type":"LineString","coordinates":[[-80.71666,25.83803,1700.0],[-80.63981,25.82306,1370.0]]},"properties":{"ef_share":0.0,"ef_tj":0.0}},{"type":"Feature","geometry":{"type":"LineString","coordinates":[[-80.63981,25.82306,1370.0],[-80.56385,25.80825,1060.0]]},"properties":{"ef_share":0.0,"ef_tj":0.0}}]}