{"type":"FeatureCollection","properties":{"icao24":"a89621","registration":"N652WE","owner_label":"Eric Schmidt","combined_co2e_central":3658.7,"fuel_co2_kg":3658.7,"contrail_co2e_central":0.0,"tier":"low"},"features":[{"type":"Feature","geometry":{"type":"LineString","coordinates":[[-126.38891,38.24233,13720.0],[-126.22395,38.18103,13720.0]]},"properties":{"ef_share":0.0,"ef_tj":0.0}},{"type":"Feature","geometry":{"type":"LineString","coordinates":[[-126.22395,38.18103,13720.0],[-126.0581,38.11912,13720.0]]},"properties":{"ef_share":0.0,"ef_tj":0.0}},{"type":"Feature","geometry":{"type":"LineString","coordinates":[[-126.0581,38.11912,13720.0],[-125.89222,38.05683,13720.0]]},"properties":{"ef_share":0.0,"ef_tj":0.0}},{"type":"Feature","geometry":{"type":"LineString","coordinates":[[-125.89222,38.05683,13720.0],[-125.72654,37.99429,13720.0]]},"properties":{"ef_share":0.0,"ef_tj":0.0}},{"type":"Feature","geometry":{"type":"LineString","coordinates":[[-125.72654,37.99429,13720.0],[-125.56067,37.93131,13720.0]]},"properties":{"ef_share":0.0,"ef_tj":0.0}},{"type":"Feature","geometry":{"type":"LineString","coordinates":[[-125.56067,37.93131,13720.0],[-125.39436,37.86783,13720.0]]},"properties":{"ef_share":0.0,"ef_tj":0.0}},{"type":"Feature","geometry":{"type":"LineString","coordinates":[[-125.39436,37.86783,13720.0],[-125.22819,37.80408,13720.0]]},"properties":{"ef_share":0.0,"ef_tj":0.0}},{"type":"Feature","geometry":{"type":"LineString","coordinates":[[-125.22819,37.80408,13720.0],[-125.06297,37.74033,13720.0]]},"properties":{"ef_share":0.0,"ef_tj":0.0}},{"type":"Feature","geometry":{"type":"LineString","coordinates":[[-125.06297,37.74033,13720.0],[-124.89945,37.67693,13720.0]]},"properties":{"ef_share":0.0,"ef_tj":0.0}},{"type":"Feature","geometry":{"type":"LineString","coordinates":[[-124.89945,37.67693,13720.0],[-124.73687,37.61353,13720.0]]},"properties":{"ef_share":0.0,"ef_tj":0.0}},{"type":"Feature","geometry":{"type":"LineString","coordinates":[[-124.73687,37.61353,13720.0],[-124.57497,37.55008,13720.0]]},"properties":{"ef_share":0.0,"ef_tj":0.0}},{"type":"Feature","geometry":{"type":"LineString","coordinates":[[-124.57497,37.55008,13720.0],[-124.41373,37.48657,13720.0]]},"properties":{"ef_share":0.0,"ef_tj":0.0}},{"type":"Feature","geometry":{"type":"LineString","coordinates":[[-124.41373,37.48657,13720.0],[-124.25354,37.4231,13720.0]]},"properties":{"ef_share":0.0,"ef_tj":0.0}},{"type":"Feature","geometry":{"type":"LineString","coordinates":[[-124.25354,37.4231,13720.0],[-124.09332,37.35933,13720.0]]},"properties":{"ef_share":0.0,"ef_tj":0.0}},{"type":"Feature","geometry":{"type":"LineString","coordinates":[[-124.09332,37.35933,13720.0],[-123.93156,37.29465,13720.0]]},"properties":{"ef_share":0.0,"ef_tj":0.0}},{"type":"Feature","geometry":{"type":"LineString","coordinates":[[-123.93156,37.29465,13720.0],[-123.77079,37.22996,13720.0]]},"properties":{"ef_share":0.0,"ef_tj":0.0}},{"type":"Feature","geometry":{"type":"LineString","coordinates":[[-123.77079,37.22996,13720.0],[-123.60979,37.16488,13720.0]]},"properties":{"ef_share":0.0,"ef_tj":0.0}},{"type":"Feature","geometry":{"type":"LineString","coordinates":[[-123.60979,37.16488,13720.0],[-123.44629,37.09847,13720.0]]},"properties":{"ef_share":0.0,"ef_tj":0.0}},{"type":"Feature","geometry":{"type":"LineString","coordinates":[[-123.44629,37.09847,13720.0],[-123.28361,37.03204,13720.0]]},"properties":{"ef_share":0.0,"ef_tj":0.0}},{"type":"Feature","geometry":{"type":"LineString","coordinates":[[-123.28361,37.03204,13720.0],[-123.12248,36.96592,13720.0]]},"properties":{"ef_share":0.0,"ef_tj":0.0}},{"type":"Feature","geometry":{"type":"LineString","coordinates":[[-123.12248,36.96592,13720.0],[-122.96328,36.90022,13720.0]]},"properties":{"ef_share":0.0,"ef_tj":0.0}},{"type":"Feature","geometry":{"type":"LineString","coordinates":[[-122.96328,36.90022,13720.0],[-122.80341,36.83398,13720.0]]},"properties":{"ef_share":0.0,"ef_tj":0.0}},{"type":"Feature","geometry":{"type":"LineString","coordinates":[[-122.80341,36.83398,13720.0],[-122.64388,36.7675,13720.0]]},"properties":{"ef_share":0.0,"ef_tj":0.0}},{"type":"Feature","geometry":{"type":"LineString","coordinates":[[-122.64388,36.7675,13720.0],[-122.48421,36.70064,13720.0]]},"properties":{"ef_share":0.0,"ef_tj":0.0}},{"type":"Feature","geometry":{"type":"LineString","coordinates":[[-122.48421,36.70064,13720.0],[-122.32374,36.63312,13720.0]]},"properties":{"ef_share":0.0,"ef_tj":0.0}},{"type":"Feature","geometry":{"type":"LineString","coordinates":[[-122.32374,36.63312,13720.0],[-122.16262,36.56498,13720.0]]},"properties":{"ef_share":0.0,"ef_tj":0.0}},{"type":"Feature","geometry":{"type":"LineString","coordinates":[[-122.16262,36.56498,13720.0],[-122.00261,36.49695,13720.0]]},"properties":{"ef_share":0.0,"ef_tj":0.0}},{"type":"Feature","geometry":{"type":"LineString","coordinates":[[-122.00261,36.49695,13720.0],[-121.84279,36.42873,13720.0]]},"properties":{"ef_share":0.0,"ef_tj":0.0}},{"type":"Feature","geometry":{"type":"LineString","coordinates":[[-121.84279,36.42873,13720.0],[-121.68335,36.36031,13720.0]]},"properties":{"ef_share":0.0,"ef_tj":0.0}},{"type":"Feature","geometry":{"type":"LineString","coordinates":[[-121.68335,36.36031,13720.0],[-121.51214,36.3152,13720.0]]},"properties":{"ef_share":0.0,"ef_tj":0.0}},{"type":"Feature","geometry":{"type":"LineString","coordinates":[[-121.51214,36.3152,13720.0],[-121.32628,36.31018,13720.0]]},"properties":{"ef_share":0.0,"ef_tj":0.0}},{"type":"Feature","geometry":{"type":"LineString","coordinates":[[-121.32628,36.31018,13720.0],[-121.1393,36.30605,13720.0]]},"properties":{"ef_share":0.0,"ef_tj":0.0}},{"type":"Feature","geometry":{"type":"LineString","coordinates":[[-121.1393,36.30605,13720.0],[-120.95344,36.30235,13720.0]]},"properties":{"ef_share":0.0,"ef_tj":0.0}},{"type":"Feature","geometry":{"type":"LineString","coordinates":[[-120.95344,36.30235,13720.0],[-120.76632,36.29911,13720.0]]},"properties":{"ef_share":0.0,"ef_tj":0.0}},{"type":"Feature","geometry":{"type":"LineString","coordinates":[[-120.76632,36.29911,13720.0],[-120.57907,36.29611,13720.0]]},"properties":{"ef_share":0.0,"ef_tj":0.0}},{"type":"Feature","geometry":{"type":"LineString","coordinates":[[-120.57907,36.29611,13720.0],[-120.39176,36.29369,13720.0]]},"properties":{"ef_share":0.0,"ef_tj":0.0}},{"type":"Feature","geometry":{"type":"LineString","coordinates":[[-120.39176,36.29369,13720.0],[-120.21552,36.26024,13720.0]]},"properties":{"ef_share":0.0,"ef_tj":0.0}},{"type":"Feature","geometry":{"type":"LineString","coordinates":[[-120.21552,36.26024,13720.0],[-120.13198,36.14121,13720.0]]},"properties":{"ef_share":0.0,"ef_tj":0.0}},{"type":"Feature","geometry":{"type":"LineString","coordinates":[[-120.13198,36.14121,13720.0],[-120.08516,36.01048,13450.0]]},"properties":{"ef_share":0.0,"ef_tj":0.0}},{"type":"Feature","geometry":{"type":"LineString","coordinates":[[-120.08516,36.01048,13450.0],[-120.03771,35.8799,12810.0]]},"properties":{"ef_share":0.0,"ef_tj":0.0}},{"type":"Feature","geometry":{"type":"LineString","coordinates":[[-120.03771,35.8799,12810.0],[-119.99002,35.74864,12180.0]]},"properties":{"ef_share":0.0,"ef_tj":0.0}},{"type":"Feature","geometry":{"type":"LineString","coordinates":[[-119.99002,35.74864,12180.0],[-119.94207,35.61635,11530.0]]},"properties":{"ef_share":0.0,"ef_tj":0.0}},{"type":"Feature","geometry":{"type":"LineString","coordinates":[[-119.94207,35.61635,11530.0],[-119.92357,35.48267,10900.0]]},"properties":{"ef_share":0.0,"ef_tj":0.0}},{"type":"Feature","geometry":{"type":"LineString","coordinates":[[-119.92357,35.48267,10900.0],[-119.9621,35.35423,10260.0]]},"properties":{"ef_share":0.0,"ef_tj":0.0}},{"type":"Feature","geometry":{"type":"LineString","coordinates":[[-119.9621,35.35423,10260.0],[-119.96368,35.22816,10060.0]]},"properties":{"ef_share":0.0,"ef_tj":0.0}},{"type":"Feature","geometry":{"type":"LineString","coordinates":[[-119.96368,35.22816,10060.0],[-119.84546,35.13492,9670.0]]},"properties":{"ef_share":0.0,"ef_tj":0.0}},{"type":"Feature","geometry":{"type":"LineString","coordinates":[[-119.84546,35.13492,9670.0],[-119.71239,35.05667,9170.0]]},"properties":{"ef_share":0.0,"ef_tj":0.0}},{"type":"Feature","geometry":{"type":"LineString","coordinates":[[-119.71239,35.05667,9170.0],[-119.58301,34.97927,8620.0]]},"properties":{"ef_share":0.0,"ef_tj":0.0}},{"type":"Feature","geometry":{"type":"LineString","coordinates":[[-119.58301,34.97927,8620.0],[-119.46358,34.89834,7920.0]]},"properties":{"ef_share":0.0,"ef_tj":0.0}},{"type":"Feature","geometry":{"type":"LineString","coordinates":[[-119.46358,34.89834,7920.0],[-119.37428,34.80131,7300.0]]},"properties":{"ef_share":0.0,"ef_tj":0.0}},{"type":"Feature","geometry":{"type":"LineString","coordinates":[[-119.37428,34.80131,7300.0],[-119.29381,34.71037,6800.0]]},"properties":{"ef_share":0.0,"ef_tj":0.0}},{"type":"Feature","geometry":{"type":"LineString","coordinates":[[-119.29381,34.71037,6800.0],[-119.21672,34.62172,6310.0]]},"properties":{"ef_share":0.0,"ef_tj":0.0}},{"type":"Feature","geometry":{"type":"LineString","coordinates":[[-119.21672,34.62172,6310.0],[-119.14174,34.53523,5840.0]]},"properties":{"ef_share":0.0,"ef_tj":0.0}},{"type":"Feature","geometry":{"type":"LineString","coordinates":[[-119.14174,34.53523,5840.0],[-119.06849,34.45267,5320.0]]},"properties":{"ef_share":0.0,"ef_tj":0.0}},{"type":"Feature","geometry":{"type":"LineString","coordinates":[[-119.06849,34.45267,5320.0],[-118.99796,34.37155,4880.0]]},"properties":{"ef_share":0.0,"ef_tj":0.0}},{"type":"Feature","geometry":{"type":"LineString","coordinates":[[-118.99796,34.37155,4880.0],[-118.92878,34.29193,4690.0]]},"properties":{"ef_share":0.0,"ef_tj":0.0}},{"type":"Feature","geometry":{"type":"LineString","coordinates":[[-118.92878,34.29193,4690.0],[-118.85939,34.21653,4330.0]]},"properties":{"ef_share":0.0,"ef_tj":0.0}},{"type":"Feature","geometry":{"type":"LineString","coordinates":[[-118.85939,34.21653,4330.0],[-118.79305,34.14869,3800.0]]},"properties":{"ef_share":0.0,"ef_tj":0.0}},{"type":"Feature","geometry":{"type":"LineString","coordinates":[[-118.79305,34.14869,3800.0],[-118.72602,34.08707,3390.0]]},"properties":{"ef_share":0.0,"ef_tj":0.0}},{"type":"Feature","geometry":{"type":"LineString","coordinates":[[-118.72602,34.08707,3390.0],[-118.66171,34.03349,3030.0]]},"properties":{"ef_share":0.0,"ef_tj":0.0}},{"type":"Feature","geometry":{"type":"LineString","coordinates":[[-118.66171,34.03349,3030.0],[-118.58222,34.02199,2690.0]]},"properties":{"ef_share":0.0,"ef_tj":0.0}},{"type":"Feature","geometry":{"type":"LineString","coordinates":[[-118.58222,34.02199,2690.0],[-118.50425,34.01471,2370.0]]},"properties":{"ef_share":0.0,"ef_tj":0.0}},{"type":"Feature","geometry":{"type":"LineString","coordinates":[[-118.50425,34.01471,2370.0],[-118.42768,34.01525,2060.0]]},"properties":{"ef_share":0.0,"ef_tj":0.0}},{"type":"Feature","geometry":{"type":"LineString","coordinates":[[-118.42768,34.01525,2060.0],[-118.35065,34.02793,1600.0]]},"properties":{"ef_share":0.0,"ef_tj":0.0}},{"type":"Feature","geometry":{"type":"LineString","coordinates":[[-118.35065,34.02793,1600.0],[-118.27636,34.03582,1300.0]]},"properties":{"ef_share":0.0,"ef_tj":0.0}},{"type":"Feature","geometry":{"type":"LineString","coordinates":[[-118.27636,34.03582,1300.0],[-118.21188,34.04398,1160.0]]},"properties":{"ef_share":0.0,"ef_tj":0.0}},{"type":"Feature","geometry":{"type":"LineString","coordinates":[[-118.21188,34.04398,1160.0],[-118.16915,34.02416,1160.0]]},"properties":{"ef_share":0.0,"ef_tj":0.0}},{"type":"Feature","geometry":{"type":"LineString","coordinates":[[-118.16915,34.02416,1160.0],[-118.1957,33.97598,1090.0]]},"properties":{"ef_share":0.0,"ef_tj":0.0}},{"type":"Feature","geometry":{"type":"LineString","coordinates":[[-118.1957,33.97598,1090.0],[-118.24888,33.95148,650.0]]},"properties":{"ef_share":0.0,"ef_tj":0.0}},{"type":"Feature","geometry":{"type":"LineString","coordinates":[[-118.24888,33.95148,650.0],[-118.30867,33.94495,350.0]]},"properties":{"ef_share":0.0,"ef_tj":0.0}},{"type":"Feature","geometry":{"type":"LineString","coordinates":[[-118.30867,33.94495,350.0],[-118.35397,33.94027,130.0]]},"properties":{"ef_share":0.0,"ef_tj":0.0}},{"type":"Feature","geometry":{"type":"LineString","coordinates":[[-118.35397,33.94027,130.0],[-118.39498,33.9361,-30.0]]},"properties":{"ef_share":0.0,"ef_tj":0.0}}]}