{"type":"FeatureCollection","properties":{"icao24":"a89621","registration":"N652WE","owner_label":"Eric Schmidt","combined_co2e_central":20534.3,"fuel_co2_kg":20534.3,"contrail_co2e_central":0.0,"tier":"medium"},"features":[{"type":"Feature","geometry":{"type":"LineString","coordinates":[[-74.11353,40.82342,540.0],[-74.18431,40.81388,850.0]]},"properties":{"ef_share":0.0,"ef_tj":0.0}},{"type":"Feature","geometry":{"type":"LineString","coordinates":[[-74.18431,40.81388,850.0],[-74.26547,40.81547,1690.0]]},"properties":{"ef_share":0.0,"ef_tj":0.0}},{"type":"Feature","geometry":{"type":"LineString","coordinates":[[-74.26547,40.81547,1690.0],[-74.34363,40.81,2710.0]]},"properties":{"ef_share":0.0,"ef_tj":0.0}},{"type":"Feature","geometry":{"type":"LineString","coordinates":[[-74.34363,40.81,2710.0],[-74.42658,40.81399,3550.0]]},"properties":{"ef_share":0.0,"ef_tj":0.0}},{"type":"Feature","geometry":{"type":"LineString","coordinates":[[-74.42658,40.81399,3550.0],[-74.53001,40.82941,4000.0]]},"properties":{"ef_share":0.0,"ef_tj":0.0}},{"type":"Feature","geometry":{"type":"LineString","coordinates":[[-74.53001,40.82941,4000.0],[-74.64193,40.84585,4050.0]]},"properties":{"ef_share":0.0,"ef_tj":0.0}},{"type":"Feature","geometry":{"type":"LineString","coordinates":[[-74.64193,40.84585,4050.0],[-74.75603,40.85371,4510.0]]},"properties":{"ef_share":0.0,"ef_tj":0.0}},{"type":"Feature","geometry":{"type":"LineString","coordinates":[[-74.75603,40.85371,4510.0],[-74.87306,40.83581,5120.0]]},"properties":{"ef_share":0.0,"ef_tj":0.0}},{"type":"Feature","geometry":{"type":"LineString","coordinates":[[-74.87306,40.83581,5120.0],[-74.99369,40.81688,5730.0]]},"properties":{"ef_share":0.0,"ef_tj":0.0}},{"type":"Feature","geometry":{"type":"LineString","coordinates":[[-74.99369,40.81688,5730.0],[-75.11726,40.79743,6460.0]]},"properties":{"ef_share":0.0,"ef_tj":0.0}},{"type":"Feature","geometry":{"type":"LineString","coordinates":[[-75.11726,40.79743,6460.0],[-75.24484,40.77727,7220.0]]},"properties":{"ef_share":0.0,"ef_tj":0.0}},{"type":"Feature","geometry":{"type":"LineString","coordinates":[[-75.24484,40.77727,7220.0],[-75.37738,40.75616,7850.0]]},"properties":{"ef_share":0.0,"ef_tj":0.0}},{"type":"Feature","geometry":{"type":"LineString","coordinates":[[-75.37738,40.75616,7850.0],[-75.51566,40.73392,8460.0]]},"properties":{"ef_share":0.0,"ef_tj":0.0}},{"type":"Feature","geometry":{"type":"LineString","coordinates":[[-75.51566,40.73392,8460.0],[-75.65796,40.71085,9040.0]]},"properties":{"ef_share":0.0,"ef_tj":0.0}},{"type":"Feature","geometry":{"type":"LineString","coordinates":[[-75.65796,40.71085,9040.0],[-75.80555,40.68674,9490.0]]},"properties":{"ef_share":0.0,"ef_tj":0.0}},{"type":"Feature","geometry":{"type":"LineString","coordinates":[[-75.80555,40.68674,9490.0],[-75.95618,40.66191,9940.0]]},"properties":{"ef_share":0.0,"ef_tj":0.0}},{"type":"Feature","geometry":{"type":"LineString","coordinates":[[-75.95618,40.66191,9940.0],[-76.10274,40.63754,10390.0]]},"properties":{"ef_share":0.0,"ef_tj":0.0}},{"type":"Feature","geometry":{"type":"LineString","coordinates":[[-76.10274,40.63754,10390.0],[-76.25145,40.61266,10760.0]]},"properties":{"ef_share":0.0,"ef_tj":0.0}},{"type":"Feature","geometry":{"type":"LineString","coordinates":[[-76.25145,40.61266,10760.0],[-76.40629,40.58945,11060.0]]},"properties":{"ef_share":0.0,"ef_tj":0.0}},{"type":"Feature","geometry":{"type":"LineString","coordinates":[[-76.40629,40.58945,11060.0],[-76.56205,40.59671,11370.0]]},"properties":{"ef_share":0.0,"ef_tj":0.0}},{"type":"Feature","geometry":{"type":"LineString","coordinates":[[-76.56205,40.59671,11370.0],[-76.72081,40.60916,11580.0]]},"properties":{"ef_share":0.0,"ef_tj":0.0}},{"type":"Feature","geometry":{"type":"LineString","coordinates":[[-76.72081,40.60916,11580.0],[-76.87919,40.62128,11580.0]]},"properties":{"ef_share":0.0,"ef_tj":0.0}},{"type":"Feature","geometry":{"type":"LineString","coordinates":[[-76.87919,40.62128,11580.0],[-77.03712,40.63312,11680.0]]},"properties":{"ef_share":0.0,"ef_tj":0.0}},{"type":"Feature","geometry":{"type":"LineString","coordinates":[[-77.03712,40.63312,11680.0],[-77.19534,40.64477,11990.0]]},"properties":{"ef_share":0.0,"ef_tj":0.0}},{"type":"Feature","geometry":{"type":"LineString","coordinates":[[-77.19534,40.64477,11990.0],[-77.3546,40.65629,12290.0]]},"properties":{"ef_share":0.0,"ef_tj":0.0}},{"type":"Feature","geometry":{"type":"LineString","coordinates":[[-77.3546,40.65629,12290.0],[-77.51213,40.66746,12600.0]]},"properties":{"ef_share":0.0,"ef_tj":0.0}},{"type":"Feature","geometry":{"type":"LineString","coordinates":[[-77.51213,40.66746,12600.0],[-77.67067,40.67846,12900.0]]},"properties":{"ef_share":0.0,"ef_tj":0.0}},{"type":"Feature","geometry":{"type":"LineString","coordinates":[[-77.67067,40.67846,12900.0],[-77.82781,40.68918,13110.0]]},"properties":{"ef_share":0.0,"ef_tj":0.0}},{"type":"Feature","geometry":{"type":"LineString","coordinates":[[-77.82781,40.68918,13110.0],[-77.9874,40.69981,13110.0]]},"properties":{"ef_share":0.0,"ef_tj":0.0}},{"type":"Feature","geometry":{"type":"LineString","coordinates":[[-77.9874,40.69981,13110.0],[-78.14854,40.71036,13110.0]]},"properties":{"ef_share":0.0,"ef_tj":0.0}},{"type":"Feature","geometry":{"type":"LineString","coordinates":[[-78.14854,40.71036,13110.0],[-78.30988,40.72062,13110.0]]},"properties":{"ef_share":0.0,"ef_tj":0.0}},{"type":"Feature","geometry":{"type":"LineString","coordinates":[[-78.30988,40.72062,13110.0],[-78.47315,40.73085,13110.0]]},"properties":{"ef_share":0.0,"ef_tj":0.0}},{"type":"Feature","geometry":{"type":"LineString","coordinates":[[-78.47315,40.73085,13110.0],[-78.63411,40.74068,13110.0]]},"properties":{"ef_share":0.0,"ef_tj":0.0}},{"type":"Feature","geometry":{"type":"LineString","coordinates":[[-78.63411,40.74068,13110.0],[-78.79471,40.75024,13110.0]]},"properties":{"ef_share":0.0,"ef_tj":0.0}},{"type":"Feature","geometry":{"type":"LineString","coordinates":[[-78.79471,40.75024,13110.0],[-78.9554,40.75961,13110.0]]},"properties":{"ef_share":0.0,"ef_tj":0.0}},{"type":"Feature","geometry":{"type":"LineString","coordinates":[[-78.9554,40.75961,13110.0],[-79.11754,40.76884,13110.0]]},"properties":{"ef_share":0.0,"ef_tj":0.0}},{"type":"Feature","geometry":{"type":"LineString","coordinates":[[-79.11754,40.76884,13110.0],[-79.27986,40.77782,13110.0]]},"properties":{"ef_share":0.0,"ef_tj":0.0}},{"type":"Feature","geometry":{"type":"LineString","coordinates":[[-79.27986,40.77782,13110.0],[-79.44245,40.78659,13110.0]]},"properties":{"ef_share":0.0,"ef_tj":0.0}},{"type":"Feature","geometry":{"type":"LineString","coordinates":[[-79.44245,40.78659,13110.0],[-79.60478,40.79513,13110.0]]},"properties":{"ef_share":0.0,"ef_tj":0.0}},{"type":"Feature","geometry":{"type":"LineString","coordinates":[[-79.60478,40.79513,13110.0],[-79.76628,40.80339,13110.0]]},"properties":{"ef_share":0.0,"ef_tj":0.0}},{"type":"Feature","geometry":{"type":"LineString","coordinates":[[-79.76628,40.80339,13110.0],[-79.92813,40.81143,13110.0]]},"properties":{"ef_share":0.0,"ef_tj":0.0}},{"type":"Feature","geometry":{"type":"LineString","coordinates":[[-79.92813,40.81143,13110.0],[-80.09078,40.81931,13110.0]]},"properties":{"ef_share":0.0,"ef_tj":0.0}},{"type":"Feature","geometry":{"type":"LineString","coordinates":[[-80.09078,40.81931,13110.0],[-80.25341,40.82709,13110.0]]},"properties":{"ef_share":0.0,"ef_tj":0.0}},{"type":"Feature","geometry":{"type":"LineString","coordinates":[[-80.25341,40.82709,13110.0],[-80.41678,40.83559,13110.0]]},"properties":{"ef_share":0.0,"ef_tj":0.0}},{"type":"Feature","geometry":{"type":"LineString","coordinates":[[-80.41678,40.83559,13110.0],[-80.58046,40.84381,13110.0]]},"properties":{"ef_share":0.0,"ef_tj":0.0}},{"type":"Feature","geometry":{"type":"LineString","coordinates":[[-80.58046,40.84381,13110.0],[-80.74458,40.85182,13110.0]]},"properties":{"ef_share":0.0,"ef_tj":0.0}},{"type":"Feature","geometry":{"type":"LineString","coordinates":[[-80.74458,40.85182,13110.0],[-80.9076,40.85951,13110.0]]},"properties":{"ef_share":0.0,"ef_tj":0.0}},{"type":"Feature","geometry":{"type":"LineString","coordinates":[[-80.9076,40.85951,13110.0],[-81.0704,40.86698,13110.0]]},"properties":{"ef_share":0.0,"ef_tj":0.0}},{"type":"Feature","geometry":{"type":"LineString","coordinates":[[-81.0704,40.86698,13110.0],[-81.23486,40.87432,13110.0]]},"properties":{"ef_share":0.0,"ef_tj":0.0}},{"type":"Feature","geometry":{"type":"LineString","coordinates":[[-81.23486,40.87432,13110.0],[-81.39961,40.88146,13110.0]]},"properties":{"ef_share":0.0,"ef_tj":0.0}},{"type":"Feature","geometry":{"type":"LineString","coordinates":[[-81.39961,40.88146,13110.0],[-81.56252,40.88831,13110.0]]},"properties":{"ef_share":0.0,"ef_tj":0.0}},{"type":"Feature","geometry":{"type":"LineString","coordinates":[[-81.56252,40.88831,13110.0],[-81.72551,40.89487,13110.0]]},"properties":{"ef_share":0.0,"ef_tj":0.0}},{"type":"Feature","geometry":{"type":"LineString","coordinates":[[-81.72551,40.89487,13110.0],[-81.88854,40.90115,13110.0]]},"properties":{"ef_share":0.0,"ef_tj":0.0}},{"type":"Feature","geometry":{"type":"LineString","coordinates":[[-81.88854,40.90115,13110.0],[-82.05219,40.90724,13110.0]]},"properties":{"ef_share":0.0,"ef_tj":0.0}},{"type":"Feature","geometry":{"type":"LineString","coordinates":[[-82.05219,40.90724,13110.0],[-82.21466,40.91302,13110.0]]},"properties":{"ef_share":0.0,"ef_tj":0.0}},{"type":"Feature","geometry":{"type":"LineString","coordinates":[[-82.21466,40.91302,13110.0],[-82.37758,40.91863,13110.0]]},"properties":{"ef_share":0.0,"ef_tj":0.0}},{"type":"Feature","geometry":{"type":"LineString","coordinates":[[-82.37758,40.91863,13110.0],[-82.53892,40.92392,13110.0]]},"properties":{"ef_share":0.0,"ef_tj":0.0}},{"type":"Feature","geometry":{"type":"LineString","coordinates":[[-82.53892,40.92392,13110.0],[-82.7004,40.92907,13110.0]]},"properties":{"ef_share":0.0,"ef_tj":0.0}},{"type":"Feature","geometry":{"type":"LineString","coordinates":[[-82.7004,40.92907,13110.0],[-82.86243,40.93394,13110.0]]},"properties":{"ef_share":0.0,"ef_tj":0.0}},{"type":"Feature","geometry":{"type":"LineString","coordinates":[[-82.86243,40.93394,13110.0],[-83.02332,40.93858,13110.0]]},"properties":{"ef_share":0.0,"ef_tj":0.0}},{"type":"Feature","geometry":{"type":"LineString","coordinates":[[-83.02332,40.93858,13110.0],[-83.18379,40.94301,13110.0]]},"properties":{"ef_share":0.0,"ef_tj":0.0}},{"type":"Feature","geometry":{"type":"LineString","coordinates":[[-83.18379,40.94301,13110.0],[-83.34479,40.9472,13110.0]]},"properties":{"ef_share":0.0,"ef_tj":0.0}},{"type":"Feature","geometry":{"type":"LineString","coordinates":[[-83.34479,40.9472,13110.0],[-83.5066,40.95117,13110.0]]},"properties":{"ef_share":0.0,"ef_tj":0.0}},{"type":"Feature","geometry":{"type":"LineString","coordinates":[[-83.5066,40.95117,13110.0],[-83.66811,40.95495,13110.0]]},"properties":{"ef_share":0.0,"ef_tj":0.0}},{"type":"Feature","geometry":{"type":"LineString","coordinates":[[-83.66811,40.95495,13110.0],[-83.82939,40.95846,13110.0]]},"properties":{"ef_share":0.0,"ef_tj":0.0}},{"type":"Feature","geometry":{"type":"LineString","coordinates":[[-83.82939,40.95846,13110.0],[-83.99114,40.96177,13110.0]]},"properties":{"ef_share":0.0,"ef_tj":0.0}},{"type":"Feature","geometry":{"type":"LineString","coordinates":[[-83.99114,40.96177,13110.0],[-84.15271,40.96486,13110.0]]},"properties":{"ef_share":0.0,"ef_tj":0.0}},{"type":"Feature","geometry":{"type":"LineString","coordinates":[[-84.15271,40.96486,13110.0],[-84.31285,40.96765,13110.0]]},"properties":{"ef_share":0.0,"ef_tj":0.0}},{"type":"Feature","geometry":{"type":"LineString","coordinates":[[-84.31285,40.96765,13110.0],[-84.47257,40.97026,13110.0]]},"properties":{"ef_share":0.0,"ef_tj":0.0}},{"type":"Feature","geometry":{"type":"LineString","coordinates":[[-84.47257,40.97026,13110.0],[-84.63408,40.97264,13110.0]]},"properties":{"ef_share":0.0,"ef_tj":0.0}},{"type":"Feature","geometry":{"type":"LineString","coordinates":[[-84.63408,40.97264,13110.0],[-84.79583,40.97484,13110.0]]},"properties":{"ef_share":0.0,"ef_tj":0.0}},{"type":"Feature","geometry":{"type":"LineString","coordinates":[[-84.79583,40.97484,13110.0],[-84.95883,40.97677,13110.0]]},"properties":{"ef_share":0.0,"ef_tj":0.0}},{"type":"Feature","geometry":{"type":"LineString","coordinates":[[-84.95883,40.97677,13110.0],[-85.12128,40.97853,13110.0]]},"properties":{"ef_share":0.0,"ef_tj":0.0}},{"type":"Feature","geometry":{"type":"LineString","coordinates":[[-85.12128,40.97853,13110.0],[-85.28131,40.99172,13110.0]]},"properties":{"ef_share":0.0,"ef_tj":0.0}},{"type":"Feature","geometry":{"type":"LineString","coordinates":[[-85.28131,40.99172,13110.0],[-85.43909,41.01304,13110.0]]},"properties":{"ef_share":0.0,"ef_tj":0.0}},{"type":"Feature","geometry":{"type":"LineString","coordinates":[[-85.43909,41.01304,13110.0],[-85.59669,41.034,13110.0]]},"properties":{"ef_share":0.0,"ef_tj":0.0}},{"type":"Feature","geometry":{"type":"LineString","coordinates":[[-85.59669,41.034,13110.0],[-85.75405,41.0547,13110.0]]},"properties":{"ef_share":0.0,"ef_tj":0.0}},{"type":"Feature","geometry":{"type":"LineString","coordinates":[[-85.75405,41.0547,13110.0],[-85.91214,41.07526,13110.0]]},"properties":{"ef_share":0.0,"ef_tj":0.0}},{"type":"Feature","geometry":{"type":"LineString","coordinates":[[-85.91214,41.07526,13110.0],[-86.07087,41.09573,13110.0]]},"properties":{"ef_share":0.0,"ef_tj":0.0}},{"type":"Feature","geometry":{"type":"LineString","coordinates":[[-86.07087,41.09573,13110.0],[-86.22852,41.11578,13110.0]]},"properties":{"ef_share":0.0,"ef_tj":0.0}},{"type":"Feature","geometry":{"type":"LineString","coordinates":[[-86.22852,41.11578,13110.0],[-86.38627,41.13565,13110.0]]},"properties":{"ef_share":0.0,"ef_tj":0.0}},{"type":"Feature","geometry":{"type":"LineString","coordinates":[[-86.38627,41.13565,13110.0],[-86.54493,41.15506,13110.0]]},"properties":{"ef_share":0.0,"ef_tj":0.0}},{"type":"Feature","geometry":{"type":"LineString","coordinates":[[-86.54493,41.15506,13110.0],[-86.70545,41.16177,13110.0]]},"properties":{"ef_share":0.0,"ef_tj":0.0}},{"type":"Feature","geometry":{"type":"LineString","coordinates":[[-86.70545,41.16177,13110.0],[-86.86664,41.16353,13110.0]]},"properties":{"ef_share":0.0,"ef_tj":0.0}},{"type":"Feature","geometry":{"type":"LineString","coordinates":[[-86.86664,41.16353,13110.0],[-87.02902,41.16512,13110.0]]},"properties":{"ef_share":0.0,"ef_tj":0.0}},{"type":"Feature","geometry":{"type":"LineString","coordinates":[[-87.02902,41.16512,13110.0],[-87.19292,41.16651,13110.0]]},"properties":{"ef_share":0.0,"ef_tj":0.0}},{"type":"Feature","geometry":{"type":"LineString","coordinates":[[-87.19292,41.16651,13110.0],[-87.35706,41.16764,13110.0]]},"properties":{"ef_share":0.0,"ef_tj":0.0}},{"type":"Feature","geometry":{"type":"LineString","coordinates":[[-87.35706,41.16764,13110.0],[-87.52122,41.16854,13110.0]]},"properties":{"ef_share":0.0,"ef_tj":0.0}},{"type":"Feature","geometry":{"type":"LineString","coordinates":[[-87.52122,41.16854,13110.0],[-87.68484,41.16918,13110.0]]},"properties":{"ef_share":0.0,"ef_tj":0.0}},{"type":"Feature","geometry":{"type":"LineString","coordinates":[[-87.68484,41.16918,13110.0],[-87.84814,41.16962,13110.0]]},"properties":{"ef_share":0.0,"ef_tj":0.0}},{"type":"Feature","geometry":{"type":"LineString","coordinates":[[-87.84814,41.16962,13110.0],[-88.01292,41.16981,13110.0]]},"properties":{"ef_share":0.0,"ef_tj":0.0}},{"type":"Feature","geometry":{"type":"LineString","coordinates":[[-88.01292,41.16981,13110.0],[-88.17748,41.16977,13110.0]]},"properties":{"ef_share":0.0,"ef_tj":0.0}},{"type":"Feature","geometry":{"type":"LineString","coordinates":[[-88.17748,41.16977,13110.0],[-88.34146,41.16949,13110.0]]},"properties":{"ef_share":0.0,"ef_tj":0.0}},{"type":"Feature","geometry":{"type":"LineString","coordinates":[[-88.34146,41.16949,13110.0],[-88.5058,41.16899,13110.0]]},"properties":{"ef_share":0.0,"ef_tj":0.0}},{"type":"Feature","geometry":{"type":"LineString","coordinates":[[-88.5058,41.16899,13110.0],[-88.67078,41.16822,13110.0]]},"properties":{"ef_share":0.0,"ef_tj":0.0}},{"type":"Feature","geometry":{"type":"LineString","coordinates":[[-88.67078,41.16822,13110.0],[-88.83625,41.16725,13110.0]]},"properties":{"ef_share":0.0,"ef_tj":0.0}},{"type":"Feature","geometry":{"type":"LineString","coordinates":[[-88.83625,41.16725,13110.0],[-89.00163,41.16603,13110.0]]},"properties":{"ef_share":0.0,"ef_tj":0.0}},{"type":"Feature","geometry":{"type":"LineString","coordinates":[[-89.00163,41.16603,13110.0],[-89.1668,41.16454,13110.0]]},"properties":{"ef_share":0.0,"ef_tj":0.0}},{"type":"Feature","geometry":{"type":"LineString","coordinates":[[-89.1668,41.16454,13110.0],[-89.3328,41.1629,13110.0]]},"properties":{"ef_share":0.0,"ef_tj":0.0}},{"type":"Feature","geometry":{"type":"LineString","coordinates":[[-89.3328,41.1629,13110.0],[-89.4983,41.16093,13110.0]]},"properties":{"ef_share":0.0,"ef_tj":0.0}},{"type":"Feature","geometry":{"type":"LineString","coordinates":[[-89.4983,41.16093,13110.0],[-89.66368,41.1515,13110.0]]},"properties":{"ef_share":0.0,"ef_tj":0.0}},{"type":"Feature","geometry":{"type":"LineString","coordinates":[[-89.66368,41.1515,13110.0],[-89.82809,41.13344,13110.0]]},"properties":{"ef_share":0.0,"ef_tj":0.0}},{"type":"Feature","geometry":{"type":"LineString","coordinates":[[-89.82809,41.13344,13110.0],[-89.99294,41.11505,13110.0]]},"properties":{"ef_share":0.0,"ef_tj":0.0}},{"type":"Feature","geometry":{"type":"LineString","coordinates":[[-89.99294,41.11505,13110.0],[-90.15813,41.09641,13110.0]]},"properties":{"ef_share":0.0,"ef_tj":0.0}},{"type":"Feature","geometry":{"type":"LineString","coordinates":[[-90.15813,41.09641,13110.0],[-90.32302,41.07751,13110.0]]},"properties":{"ef_share":0.0,"ef_tj":0.0}},{"type":"Feature","geometry":{"type":"LineString","coordinates":[[-90.32302,41.07751,13110.0],[-90.48862,41.05833,13110.0]]},"properties":{"ef_share":0.0,"ef_tj":0.0}},{"type":"Feature","geometry":{"type":"LineString","coordinates":[[-90.48862,41.05833,13110.0],[-90.65312,41.03898,13110.0]]},"properties":{"ef_share":0.0,"ef_tj":0.0}},{"type":"Feature","geometry":{"type":"LineString","coordinates":[[-90.65312,41.03898,13110.0],[-90.81635,41.01958,13110.0]]},"properties":{"ef_share":0.0,"ef_tj":0.0}},{"type":"Feature","geometry":{"type":"LineString","coordinates":[[-90.81635,41.01958,13110.0],[-90.97858,41.00004,13110.0]]},"properties":{"ef_share":0.0,"ef_tj":0.0}},{"type":"Feature","geometry":{"type":"LineString","coordinates":[[-90.97858,41.00004,13110.0],[-91.14079,40.98024,13110.0]]},"properties":{"ef_share":0.0,"ef_tj":0.0}},{"type":"Feature","geometry":{"type":"LineString","coordinates":[[-91.14079,40.98024,13110.0],[-91.30303,40.96023,13110.0]]},"properties":{"ef_share":0.0,"ef_tj":0.0}},{"type":"Feature","geometry":{"type":"LineString","coordinates":[[-91.30303,40.96023,13110.0],[-91.46471,40.94003,13110.0]]},"properties":{"ef_share":0.0,"ef_tj":0.0}},{"type":"Feature","geometry":{"type":"LineString","coordinates":[[-91.46471,40.94003,13110.0],[-91.6279,40.91944,13110.0]]},"properties":{"ef_share":0.0,"ef_tj":0.0}},{"type":"Feature","geometry":{"type":"LineString","coordinates":[[-91.6279,40.91944,13110.0],[-91.79063,40.89863,13110.0]]},"properties":{"ef_share":0.0,"ef_tj":0.0}},{"type":"Feature","geometry":{"type":"LineString","coordinates":[[-91.79063,40.89863,13110.0],[-91.95391,40.87752,13110.0]]},"properties":{"ef_share":0.0,"ef_tj":0.0}},{"type":"Feature","geometry":{"type":"LineString","coordinates":[[-91.95391,40.87752,13110.0],[-92.11703,40.85615,13110.0]]},"properties":{"ef_share":0.0,"ef_tj":0.0}},{"type":"Feature","geometry":{"type":"LineString","coordinates":[[-92.11703,40.85615,13110.0],[-92.28089,40.83449,13110.0]]},"properties":{"ef_share":0.0,"ef_tj":0.0}},{"type":"Feature","geometry":{"type":"LineString","coordinates":[[-92.28089,40.83449,13110.0],[-92.44378,40.8127,13110.0]]},"properties":{"ef_share":0.0,"ef_tj":0.0}},{"type":"Feature","geometry":{"type":"LineString","coordinates":[[-92.44378,40.8127,13110.0],[-92.60747,40.79051,13110.0]]},"properties":{"ef_share":0.0,"ef_tj":0.0}},{"type":"Feature","geometry":{"type":"LineString","coordinates":[[-92.60747,40.79051,13110.0],[-92.76997,40.76829,13110.0]]},"properties":{"ef_share":0.0,"ef_tj":0.0}},{"type":"Feature","geometry":{"type":"LineString","coordinates":[[-92.76997,40.76829,13110.0],[-92.93167,40.74591,13110.0]]},"properties":{"ef_share":0.0,"ef_tj":0.0}},{"type":"Feature","geometry":{"type":"LineString","coordinates":[[-92.93167,40.74591,13110.0],[-93.09283,40.72336,13110.0]]},"properties":{"ef_share":0.0,"ef_tj":0.0}},{"type":"Feature","geometry":{"type":"LineString","coordinates":[[-93.09283,40.72336,13110.0],[-93.25216,40.70083,13110.0]]},"properties":{"ef_share":0.0,"ef_tj":0.0}},{"type":"Feature","geometry":{"type":"LineString","coordinates":[[-93.25216,40.70083,13110.0],[-93.41122,40.67812,13110.0]]},"properties":{"ef_share":0.0,"ef_tj":0.0}},{"type":"Feature","geometry":{"type":"LineString","coordinates":[[-93.41122,40.67812,13110.0],[-93.57031,40.65517,13110.0]]},"properties":{"ef_share":0.0,"ef_tj":0.0}},{"type":"Feature","geometry":{"type":"LineString","coordinates":[[-93.57031,40.65517,13110.0],[-93.72994,40.63189,13110.0]]},"properties":{"ef_share":0.0,"ef_tj":0.0}},{"type":"Feature","geometry":{"type":"LineString","coordinates":[[-93.72994,40.63189,13110.0],[-93.89165,40.60807,13110.0]]},"properties":{"ef_share":0.0,"ef_tj":0.0}},{"type":"Feature","geometry":{"type":"LineString","coordinates":[[-93.89165,40.60807,13110.0],[-94.05433,40.58255,13110.0]]},"properties":{"ef_share":0.0,"ef_tj":0.0}},{"type":"Feature","geometry":{"type":"LineString","coordinates":[[-94.05433,40.58255,13110.0],[-94.21658,40.55509,13110.0]]},"properties":{"ef_share":0.0,"ef_tj":0.0}},{"type":"Feature","geometry":{"type":"LineString","coordinates":[[-94.21658,40.55509,13110.0],[-94.37899,40.52752,13110.0]]},"properties":{"ef_share":0.0,"ef_tj":0.0}},{"type":"Feature","geometry":{"type":"LineString","coordinates":[[-94.37899,40.52752,13110.0],[-94.54129,40.49976,13110.0]]},"properties":{"ef_share":0.0,"ef_tj":0.0}},{"type":"Feature","geometry":{"type":"LineString","coordinates":[[-94.54129,40.49976,13110.0],[-94.70389,40.47167,13110.0]]},"properties":{"ef_share":0.0,"ef_tj":0.0}},{"type":"Feature","geometry":{"type":"LineString","coordinates":[[-94.70389,40.47167,13110.0],[-94.86632,40.44337,13110.0]]},"properties":{"ef_share":0.0,"ef_tj":0.0}},{"type":"Feature","geometry":{"type":"LineString","coordinates":[[-94.86632,40.44337,13110.0],[-95.02831,40.41494,13110.0]]},"properties":{"ef_share":0.0,"ef_tj":0.0}},{"type":"Feature","geometry":{"type":"LineString","coordinates":[[-95.02831,40.41494,13110.0],[-95.19056,40.38617,13110.0]]},"properties":{"ef_share":0.0,"ef_tj":0.0}},{"type":"Feature","geometry":{"type":"LineString","coordinates":[[-95.19056,40.38617,13110.0],[-95.35243,40.35719,13110.0]]},"properties":{"ef_share":0.0,"ef_tj":0.0}},{"type":"Feature","geometry":{"type":"LineString","coordinates":[[-95.35243,40.35719,13110.0],[-95.51384,40.32806,13110.0]]},"properties":{"ef_share":0.0,"ef_tj":0.0}},{"type":"Feature","geometry":{"type":"LineString","coordinates":[[-95.51384,40.32806,13110.0],[-95.67544,40.29867,13110.0]]},"properties":{"ef_share":0.0,"ef_tj":0.0}},{"type":"Feature","geometry":{"type":"LineString","coordinates":[[-95.67544,40.29867,13110.0],[-95.83685,40.26904,13110.0]]},"properties":{"ef_share":0.0,"ef_tj":0.0}},{"type":"Feature","geometry":{"type":"LineString","coordinates":[[-95.83685,40.26904,13110.0],[-95.99774,40.23925,13110.0]]},"properties":{"ef_share":0.0,"ef_tj":0.0}},{"type":"Feature","geometry":{"type":"LineString","coordinates":[[-95.99774,40.23925,13110.0],[-96.15959,40.20909,13110.0]]},"properties":{"ef_share":0.0,"ef_tj":0.0}},{"type":"Feature","geometry":{"type":"LineString","coordinates":[[-96.15959,40.20909,13110.0],[-96.31969,40.1762,13110.0]]},"properties":{"ef_share":0.0,"ef_tj":0.0}},{"type":"Feature","geometry":{"type":"LineString","coordinates":[[-96.31969,40.1762,13110.0],[-96.4786,40.1417,13110.0]]},"properties":{"ef_share":0.0,"ef_tj":0.0}},{"type":"Feature","geometry":{"type":"LineString","coordinates":[[-96.4786,40.1417,13110.0],[-96.63777,40.10711,13110.0]]},"properties":{"ef_share":0.0,"ef_tj":0.0}},{"type":"Feature","geometry":{"type":"LineString","coordinates":[[-96.63777,40.10711,13110.0],[-96.7973,40.07217,13110.0]]},"properties":{"ef_share":0.0,"ef_tj":0.0}},{"type":"Feature","geometry":{"type":"LineString","coordinates":[[-96.7973,40.07217,13110.0],[-96.95464,40.03746,13110.0]]},"properties":{"ef_share":0.0,"ef_tj":0.0}},{"type":"Feature","geometry":{"type":"LineString","coordinates":[[-96.95464,40.03746,13110.0],[-97.11059,40.00281,13110.0]]},"properties":{"ef_share":0.0,"ef_tj":0.0}},{"type":"Feature","geometry":{"type":"LineString","coordinates":[[-97.11059,40.00281,13110.0],[-97.26565,39.96809,13110.0]]},"properties":{"ef_share":0.0,"ef_tj":0.0}},{"type":"Feature","geometry":{"type":"LineString","coordinates":[[-97.26565,39.96809,13110.0],[-97.4206,39.93322,13110.0]]},"properties":{"ef_share":0.0,"ef_tj":0.0}},{"type":"Feature","geometry":{"type":"LineString","coordinates":[[-97.4206,39.93322,13110.0],[-97.57501,39.89817,13110.0]]},"properties":{"ef_share":0.0,"ef_tj":0.0}},{"type":"Feature","geometry":{"type":"LineString","coordinates":[[-97.57501,39.89817,13110.0],[-97.72984,39.8628,13110.0]]},"properties":{"ef_share":0.0,"ef_tj":0.0}},{"type":"Feature","geometry":{"type":"LineString","coordinates":[[-97.72984,39.8628,13110.0],[-97.88486,39.82714,13110.0]]},"properties":{"ef_share":0.0,"ef_tj":0.0}},{"type":"Feature","geometry":{"type":"LineString","coordinates":[[-97.88486,39.82714,13110.0],[-98.04,39.79125,13110.0]]},"properties":{"ef_share":0.0,"ef_tj":0.0}},{"type":"Feature","geometry":{"type":"LineString","coordinates":[[-98.04,39.79125,13110.0],[-98.19469,39.75517,13110.0]]},"properties":{"ef_share":0.0,"ef_tj":0.0}},{"type":"Feature","geometry":{"type":"LineString","coordinates":[[-98.19469,39.75517,13110.0],[-98.34969,39.71879,13110.0]]},"properties":{"ef_share":0.0,"ef_tj":0.0}},{"type":"Feature","geometry":{"type":"LineString","coordinates":[[-98.34969,39.71879,13110.0],[-98.50459,39.68218,13110.0]]},"properties":{"ef_share":0.0,"ef_tj":0.0}},{"type":"Feature","geometry":{"type":"LineString","coordinates":[[-98.50459,39.68218,13110.0],[-98.66005,39.6452,13110.0]]},"properties":{"ef_share":0.0,"ef_tj":0.0}},{"type":"Feature","geometry":{"type":"LineString","coordinates":[[-98.66005,39.6452,13110.0],[-98.81561,39.60794,13110.0]]},"properties":{"ef_share":0.0,"ef_tj":0.0}},{"type":"Feature","geometry":{"type":"LineString","coordinates":[[-98.81561,39.60794,13110.0],[-98.97055,39.57059,13110.0]]},"properties":{"ef_share":0.0,"ef_tj":0.0}},{"type":"Feature","geometry":{"type":"LineString","coordinates":[[-98.97055,39.57059,13110.0],[-99.12365,39.53343,13110.0]]},"properties":{"ef_share":0.0,"ef_tj":0.0}},{"type":"Feature","geometry":{"type":"LineString","coordinates":[[-99.12365,39.53343,13110.0],[-99.27533,39.49638,13110.0]]},"properties":{"ef_share":0.0,"ef_tj":0.0}},{"type":"Feature","geometry":{"type":"LineString","coordinates":[[-99.27533,39.49638,13110.0],[-99.42666,39.45919,13110.0]]},"properties":{"ef_share":0.0,"ef_tj":0.0}},{"type":"Feature","geometry":{"type":"LineString","coordinates":[[-99.42666,39.45919,13110.0],[-99.57814,39.42172,13110.0]]},"properties":{"ef_share":0.0,"ef_tj":0.0}},{"type":"Feature","geometry":{"type":"LineString","coordinates":[[-99.57814,39.42172,13110.0],[-99.72922,39.3841,13110.0]]},"properties":{"ef_share":0.0,"ef_tj":0.0}},{"type":"Feature","geometry":{"type":"LineString","coordinates":[[-99.72922,39.3841,13110.0],[-99.88081,39.34616,13110.0]]},"properties":{"ef_share":0.0,"ef_tj":0.0}},{"type":"Feature","geometry":{"type":"LineString","coordinates":[[-99.88081,39.34616,13110.0],[-100.03261,39.30788,13110.0]]},"properties":{"ef_share":0.0,"ef_tj":0.0}},{"type":"Feature","geometry":{"type":"LineString","coordinates":[[-100.03261,39.30788,13110.0],[-100.18496,39.26938,13110.0]]},"properties":{"ef_share":0.0,"ef_tj":0.0}},{"type":"Feature","geometry":{"type":"LineString","coordinates":[[-100.18496,39.26938,13110.0],[-100.3388,39.23517,13110.0]]},"properties":{"ef_share":0.0,"ef_tj":0.0}},{"type":"Feature","geometry":{"type":"LineString","coordinates":[[-100.3388,39.23517,13110.0],[-100.49334,39.20268,13110.0]]},"properties":{"ef_share":0.0,"ef_tj":0.0}},{"type":"Feature","geometry":{"type":"LineString","coordinates":[[-100.49334,39.20268,13110.0],[-100.64863,39.1698,13110.0]]},"properties":{"ef_share":0.0,"ef_tj":0.0}},{"type":"Feature","geometry":{"type":"LineString","coordinates":[[-100.64863,39.1698,13110.0],[-100.80378,39.13666,13110.0]]},"properties":{"ef_share":0.0,"ef_tj":0.0}},{"type":"Feature","geometry":{"type":"LineString","coordinates":[[-100.80378,39.13666,13110.0],[-100.95789,39.10352,13110.0]]},"properties":{"ef_share":0.0,"ef_tj":0.0}},{"type":"Feature","geometry":{"type":"LineString","coordinates":[[-100.95789,39.10352,13110.0],[-101.11132,39.07033,13110.0]]},"properties":{"ef_share":0.0,"ef_tj":0.0}},{"type":"Feature","geometry":{"type":"LineString","coordinates":[[-101.11132,39.07033,13110.0],[-101.2647,39.03692,13110.0]]},"properties":{"ef_share":0.0,"ef_tj":0.0}},{"type":"Feature","geometry":{"type":"LineString","coordinates":[[-101.2647,39.03692,13110.0],[-101.41856,39.00313,13110.0]]},"properties":{"ef_share":0.0,"ef_tj":0.0}},{"type":"Feature","geometry":{"type":"LineString","coordinates":[[-101.41856,39.00313,13110.0],[-101.57257,38.96907,13110.0]]},"properties":{"ef_share":0.0,"ef_tj":0.0}},{"type":"Feature","geometry":{"type":"LineString","coordinates":[[-101.57257,38.96907,13110.0],[-101.72485,38.93517,13110.0]]},"properties":{"ef_share":0.0,"ef_tj":0.0}},{"type":"Feature","geometry":{"type":"LineString","coordinates":[[-101.72485,38.93517,13110.0],[-101.87578,38.90135,13110.0]]},"properties":{"ef_share":0.0,"ef_tj":0.0}},{"type":"Feature","geometry":{"type":"LineString","coordinates":[[-101.87578,38.90135,13110.0],[-102.02807,38.86699,13110.0]]},"properties":{"ef_share":0.0,"ef_tj":0.0}},{"type":"Feature","geometry":{"type":"LineString","coordinates":[[-102.02807,38.86699,13110.0],[-102.18118,38.83221,13110.0]]},"properties":{"ef_share":0.0,"ef_tj":0.0}},{"type":"Feature","geometry":{"type":"LineString","coordinates":[[-102.18118,38.83221,13110.0],[-102.33353,38.7974,13110.0]]},"properties":{"ef_share":0.0,"ef_tj":0.0}},{"type":"Feature","geometry":{"type":"LineString","coordinates":[[-102.33353,38.7974,13110.0],[-102.48591,38.7623,13110.0]]},"properties":{"ef_share":0.0,"ef_tj":0.0}},{"type":"Feature","geometry":{"type":"LineString","coordinates":[[-102.48591,38.7623,13110.0],[-102.63839,38.72699,13110.0]]},"properties":{"ef_share":0.0,"ef_tj":0.0}},{"type":"Feature","geometry":{"type":"LineString","coordinates":[[-102.63839,38.72699,13110.0],[-102.79033,38.69156,13110.0]]},"properties":{"ef_share":0.0,"ef_tj":0.0}},{"type":"Feature","geometry":{"type":"LineString","coordinates":[[-102.79033,38.69156,13110.0],[-102.94226,38.65587,13110.0]]},"properties":{"ef_share":0.0,"ef_tj":0.0}},{"type":"Feature","geometry":{"type":"LineString","coordinates":[[-102.94226,38.65587,13110.0],[-103.09487,38.61981,13110.0]]},"properties":{"ef_share":0.0,"ef_tj":0.0}},{"type":"Feature","geometry":{"type":"LineString","coordinates":[[-103.09487,38.61981,13110.0],[-103.24778,38.58345,13110.0]]},"properties":{"ef_share":0.0,"ef_tj":0.0}},{"type":"Feature","geometry":{"type":"LineString","coordinates":[[-103.24778,38.58345,13110.0],[-103.40097,38.54678,13110.0]]},"properties":{"ef_share":0.0,"ef_tj":0.0}},{"type":"Feature","geometry":{"type":"LineString","coordinates":[[-103.40097,38.54678,13110.0],[-103.55542,38.50953,13110.0]]},"properties":{"ef_share":0.0,"ef_tj":0.0}},{"type":"Feature","geometry":{"type":"LineString","coordinates":[[-103.55542,38.50953,13110.0],[-103.70981,38.47211,13110.0]]},"properties":{"ef_share":0.0,"ef_tj":0.0}},{"type":"Feature","geometry":{"type":"LineString","coordinates":[[-103.70981,38.47211,13110.0],[-103.86403,38.43441,13110.0]]},"properties":{"ef_share":0.0,"ef_tj":0.0}},{"type":"Feature","geometry":{"type":"LineString","coordinates":[[-103.86403,38.43441,13110.0],[-104.01562,38.39718,13110.0]]},"properties":{"ef_share":0.0,"ef_tj":0.0}},{"type":"Feature","geometry":{"type":"LineString","coordinates":[[-104.01562,38.39718,13110.0],[-104.16755,38.35969,13110.0]]},"properties":{"ef_share":0.0,"ef_tj":0.0}},{"type":"Feature","geometry":{"type":"LineString","coordinates":[[-104.16755,38.35969,13110.0],[-104.31991,38.32174,13110.0]]},"properties":{"ef_share":0.0,"ef_tj":0.0}},{"type":"Feature","geometry":{"type":"LineString","coordinates":[[-104.31991,38.32174,13110.0],[-104.46958,38.27817,13110.0]]},"properties":{"ef_share":0.0,"ef_tj":0.0}},{"type":"Feature","geometry":{"type":"LineString","coordinates":[[-104.46958,38.27817,13110.0],[-104.61193,38.22166,13110.0]]},"properties":{"ef_share":0.0,"ef_tj":0.0}},{"type":"Feature","geometry":{"type":"LineString","coordinates":[[-104.61193,38.22166,13110.0],[-104.75365,38.16484,13110.0]]},"properties":{"ef_share":0.0,"ef_tj":0.0}},{"type":"Feature","geometry":{"type":"LineString","coordinates":[[-104.75365,38.16484,13110.0],[-104.89533,38.10787,13110.0]]},"properties":{"ef_share":0.0,"ef_tj":0.0}},{"type":"Feature","geometry":{"type":"LineString","coordinates":[[-104.89533,38.10787,13110.0],[-105.03595,38.05106,13110.0]]},"properties":{"ef_share":0.0,"ef_tj":0.0}},{"type":"Feature","geometry":{"type":"LineString","coordinates":[[-105.03595,38.05106,13110.0],[-105.17611,37.99414,13110.0]]},"properties":{"ef_share":0.0,"ef_tj":0.0}},{"type":"Feature","geometry":{"type":"LineString","coordinates":[[-105.17611,37.99414,13110.0],[-105.31674,37.93679,13110.0]]},"properties":{"ef_share":0.0,"ef_tj":0.0}},{"type":"Feature","geometry":{"type":"LineString","coordinates":[[-105.31674,37.93679,13110.0],[-105.45688,37.87938,13110.0]]},"properties":{"ef_share":0.0,"ef_tj":0.0}},{"type":"Feature","geometry":{"type":"LineString","coordinates":[[-105.45688,37.87938,13110.0],[-105.59803,37.82136,13110.0]]},"properties":{"ef_share":0.0,"ef_tj":0.0}},{"type":"Feature","geometry":{"type":"LineString","coordinates":[[-105.59803,37.82136,13110.0],[-105.73869,37.76318,13110.0]]},"properties":{"ef_share":0.0,"ef_tj":0.0}},{"type":"Feature","geometry":{"type":"LineString","coordinates":[[-105.73869,37.76318,13110.0],[-105.87838,37.70518,13110.0]]},"properties":{"ef_share":0.0,"ef_tj":0.0}},{"type":"Feature","geometry":{"type":"LineString","coordinates":[[-105.87838,37.70518,13110.0],[-106.01908,37.64648,13110.0]]},"properties":{"ef_share":0.0,"ef_tj":0.0}},{"type":"Feature","geometry":{"type":"LineString","coordinates":[[-106.01908,37.64648,13110.0],[-106.16023,37.58737,13110.0]]},"properties":{"ef_share":0.0,"ef_tj":0.0}},{"type":"Feature","geometry":{"type":"LineString","coordinates":[[-106.16023,37.58737,13110.0],[-106.30188,37.52774,13110.0]]},"properties":{"ef_share":0.0,"ef_tj":0.0}},{"type":"Feature","geometry":{"type":"LineString","coordinates":[[-106.30188,37.52774,13110.0],[-106.44334,37.46799,13110.0]]},"properties":{"ef_share":0.0,"ef_tj":0.0}},{"type":"Feature","geometry":{"type":"LineString","coordinates":[[-106.44334,37.46799,13110.0],[-106.585,37.40786,13110.0]]},"properties":{"ef_share":0.0,"ef_tj":0.0}},{"type":"Feature","geometry":{"type":"LineString","coordinates":[[-106.585,37.40786,13110.0],[-106.72565,37.34788,13110.0]]},"properties":{"ef_share":0.0,"ef_tj":0.0}},{"type":"Feature","geometry":{"type":"LineString","coordinates":[[-106.72565,37.34788,13110.0],[-106.86683,37.28741,13110.0]]},"properties":{"ef_share":0.0,"ef_tj":0.0}},{"type":"Feature","geometry":{"type":"LineString","coordinates":[[-106.86683,37.28741,13110.0],[-107.00798,37.22673,13110.0]]},"properties":{"ef_share":0.0,"ef_tj":0.0}},{"type":"Feature","geometry":{"type":"LineString","coordinates":[[-107.00798,37.22673,13110.0],[-107.14769,37.16635,13110.0]]},"properties":{"ef_share":0.0,"ef_tj":0.0}},{"type":"Feature","geometry":{"type":"LineString","coordinates":[[-107.14769,37.16635,13110.0],[-107.28672,37.10603,13110.0]]},"properties":{"ef_share":0.0,"ef_tj":0.0}},{"type":"Feature","geometry":{"type":"LineString","coordinates":[[-107.28672,37.10603,13110.0],[-107.42676,37.04499,13110.0]]},"properties":{"ef_share":0.0,"ef_tj":0.0}},{"type":"Feature","geometry":{"type":"LineString","coordinates":[[-107.42676,37.04499,13110.0],[-107.56736,36.98347,13110.0]]},"properties":{"ef_share":0.0,"ef_tj":0.0}},{"type":"Feature","geometry":{"type":"LineString","coordinates":[[-107.56736,36.98347,13110.0],[-107.70742,36.92188,13110.0]]},"properties":{"ef_share":0.0,"ef_tj":0.0}},{"type":"Feature","geometry":{"type":"LineString","coordinates":[[-107.70742,36.92188,13110.0],[-107.84745,36.86012,13110.0]]},"properties":{"ef_share":0.0,"ef_tj":0.0}},{"type":"Feature","geometry":{"type":"LineString","coordinates":[[-107.84745,36.86012,13110.0],[-107.98692,36.79827,13110.0]]},"properties":{"ef_share":0.0,"ef_tj":0.0}},{"type":"Feature","geometry":{"type":"LineString","coordinates":[[-107.98692,36.79827,13110.0],[-108.13234,36.74762,13110.0]]},"properties":{"ef_share":0.0,"ef_tj":0.0}},{"type":"Feature","geometry":{"type":"LineString","coordinates":[[-108.13234,36.74762,13110.0],[-108.29339,36.73439,13110.0]]},"properties":{"ef_share":0.0,"ef_tj":0.0}},{"type":"Feature","geometry":{"type":"LineString","coordinates":[[-108.29339,36.73439,13110.0],[-108.45526,36.72273,13110.0]]},"properties":{"ef_share":0.0,"ef_tj":0.0}},{"type":"Feature","geometry":{"type":"LineString","coordinates":[[-108.45526,36.72273,13110.0],[-108.6171,36.71072,13110.0]]},"properties":{"ef_share":0.0,"ef_tj":0.0}},{"type":"Feature","geometry":{"type":"LineString","coordinates":[[-108.6171,36.71072,13110.0],[-108.7794,36.69843,13110.0]]},"properties":{"ef_share":0.0,"ef_tj":0.0}},{"type":"Feature","geometry":{"type":"LineString","coordinates":[[-108.7794,36.69843,13110.0],[-108.94177,36.68587,13110.0]]},"properties":{"ef_share":0.0,"ef_tj":0.0}},{"type":"Feature","geometry":{"type":"LineString","coordinates":[[-108.94177,36.68587,13110.0],[-109.10356,36.67318,13110.0]]},"properties":{"ef_share":0.0,"ef_tj":0.0}},{"type":"Feature","geometry":{"type":"LineString","coordinates":[[-109.10356,36.67318,13110.0],[-109.26584,36.66019,13110.0]]},"properties":{"ef_share":0.0,"ef_tj":0.0}},{"type":"Feature","geometry":{"type":"LineString","coordinates":[[-109.26584,36.66019,13110.0],[-109.42723,36.64709,13110.0]]},"properties":{"ef_share":0.0,"ef_tj":0.0}},{"type":"Feature","geometry":{"type":"LineString","coordinates":[[-109.42723,36.64709,13110.0],[-109.58926,36.63371,13110.0]]},"properties":{"ef_share":0.0,"ef_tj":0.0}},{"type":"Feature","geometry":{"type":"LineString","coordinates":[[-109.58926,36.63371,13110.0],[-109.75246,36.61997,13110.0]]},"properties":{"ef_share":0.0,"ef_tj":0.0}},{"type":"Feature","geometry":{"type":"LineString","coordinates":[[-109.75246,36.61997,13110.0],[-109.91458,36.60614,13110.0]]},"properties":{"ef_share":0.0,"ef_tj":0.0}},{"type":"Feature","geometry":{"type":"LineString","coordinates":[[-109.91458,36.60614,13110.0],[-110.07707,36.592,13110.0]]},"properties":{"ef_share":0.0,"ef_tj":0.0}},{"type":"Feature","geometry":{"type":"LineString","coordinates":[[-110.07707,36.592,13110.0],[-110.24093,36.57758,13110.0]]},"properties":{"ef_share":0.0,"ef_tj":0.0}},{"type":"Feature","geometry":{"type":"LineString","coordinates":[[-110.24093,36.57758,13110.0],[-110.40496,36.56286,13110.0]]},"properties":{"ef_share":0.0,"ef_tj":0.0}},{"type":"Feature","geometry":{"type":"LineString","coordinates":[[-110.40496,36.56286,13110.0],[-110.56938,36.54787,13110.0]]},"properties":{"ef_share":0.0,"ef_tj":0.0}},{"type":"Feature","geometry":{"type":"LineString","coordinates":[[-110.56938,36.54787,13110.0],[-110.73471,36.5326,13110.0]]},"properties":{"ef_share":0.0,"ef_tj":0.0}},{"type":"Feature","geometry":{"type":"LineString","coordinates":[[-110.73471,36.5326,13110.0],[-110.8994,36.51716,13110.0]]},"properties":{"ef_share":0.0,"ef_tj":0.0}},{"type":"Feature","geometry":{"type":"LineString","coordinates":[[-110.8994,36.51716,13110.0],[-111.06378,36.5015,13110.0]]},"properties":{"ef_share":0.0,"ef_tj":0.0}},{"type":"Feature","geometry":{"type":"LineString","coordinates":[[-111.06378,36.5015,13110.0],[-111.22846,36.48557,13110.0]]},"properties":{"ef_share":0.0,"ef_tj":0.0}},{"type":"Feature","geometry":{"type":"LineString","coordinates":[[-111.22846,36.48557,13110.0],[-111.3933,36.46935,13110.0]]},"properties":{"ef_share":0.0,"ef_tj":0.0}},{"type":"Feature","geometry":{"type":"LineString","coordinates":[[-111.3933,36.46935,13110.0],[-111.55448,36.43926,13110.0]]},"properties":{"ef_share":0.0,"ef_tj":0.0}},{"type":"Feature","geometry":{"type":"LineString","coordinates":[[-111.55448,36.43926,13110.0],[-111.71041,36.3931,13110.0]]},"properties":{"ef_share":0.0,"ef_tj":0.0}},{"type":"Feature","geometry":{"type":"LineString","coordinates":[[-111.71041,36.3931,13110.0],[-111.86693,36.34657,13110.0]]},"properties":{"ef_share":0.0,"ef_tj":0.0}},{"type":"Feature","geometry":{"type":"LineString","coordinates":[[-111.86693,36.34657,13110.0],[-112.02295,36.29996,13110.0]]},"properties":{"ef_share":0.0,"ef_tj":0.0}},{"type":"Feature","geometry":{"type":"LineString","coordinates":[[-112.02295,36.29996,13110.0],[-112.17894,36.25304,13110.0]]},"properties":{"ef_share":0.0,"ef_tj":0.0}},{"type":"Feature","geometry":{"type":"LineString","coordinates":[[-112.17894,36.25304,13110.0],[-112.33563,36.20565,13110.0]]},"properties":{"ef_share":0.0,"ef_tj":0.0}},{"type":"Feature","geometry":{"type":"LineString","coordinates":[[-112.33563,36.20565,13110.0],[-112.49196,36.15816,13110.0]]},"properties":{"ef_share":0.0,"ef_tj":0.0}},{"type":"Feature","geometry":{"type":"LineString","coordinates":[[-112.49196,36.15816,13110.0],[-112.64838,36.11032,13110.0]]},"properties":{"ef_share":0.0,"ef_tj":0.0}},{"type":"Feature","geometry":{"type":"LineString","coordinates":[[-112.64838,36.11032,13110.0],[-112.80483,36.0623,13110.0]]},"properties":{"ef_share":0.0,"ef_tj":0.0}},{"type":"Feature","geometry":{"type":"LineString","coordinates":[[-112.80483,36.0623,13110.0],[-112.96243,36.01354,13110.0]]},"properties":{"ef_share":0.0,"ef_tj":0.0}},{"type":"Feature","geometry":{"type":"LineString","coordinates":[[-112.96243,36.01354,13110.0],[-113.12074,35.96434,13110.0]]},"properties":{"ef_share":0.0,"ef_tj":0.0}},{"type":"Feature","geometry":{"type":"LineString","coordinates":[[-113.12074,35.96434,13110.0],[-113.28103,35.91425,13110.0]]},"properties":{"ef_share":0.0,"ef_tj":0.0}},{"type":"Feature","geometry":{"type":"LineString","coordinates":[[-113.28103,35.91425,13110.0],[-113.4411,35.86399,13110.0]]},"properties":{"ef_share":0.0,"ef_tj":0.0}},{"type":"Feature","geometry":{"type":"LineString","coordinates":[[-113.4411,35.86399,13110.0],[-113.59981,35.81388,13100.0]]},"properties":{"ef_share":0.0,"ef_tj":0.0}},{"type":"Feature","geometry":{"type":"LineString","coordinates":[[-113.59981,35.81388,13100.0],[-113.75759,35.76379,13110.0]]},"properties":{"ef_share":0.0,"ef_tj":0.0}},{"type":"Feature","geometry":{"type":"LineString","coordinates":[[-113.75759,35.76379,13110.0],[-113.91496,35.7136,13110.0]]},"properties":{"ef_share":0.0,"ef_tj":0.0}},{"type":"Feature","geometry":{"type":"LineString","coordinates":[[-113.91496,35.7136,13110.0],[-114.07097,35.66359,13110.0]]},"properties":{"ef_share":0.0,"ef_tj":0.0}},{"type":"Feature","geometry":{"type":"LineString","coordinates":[[-114.07097,35.66359,13110.0],[-114.22651,35.61345,13110.0]]},"properties":{"ef_share":0.0,"ef_tj":0.0}},{"type":"Feature","geometry":{"type":"LineString","coordinates":[[-114.22651,35.61345,13110.0],[-114.38019,35.56364,12540.0]]},"properties":{"ef_share":0.0,"ef_tj":0.0}},{"type":"Feature","geometry":{"type":"LineString","coordinates":[[-114.38019,35.56364,12540.0],[-114.53453,35.51334,11930.0]]},"properties":{"ef_share":0.0,"ef_tj":0.0}},{"type":"Feature","geometry":{"type":"LineString","coordinates":[[-114.53453,35.51334,11930.0],[-114.69082,35.46215,11320.0]]},"properties":{"ef_share":0.0,"ef_tj":0.0}},{"type":"Feature","geometry":{"type":"LineString","coordinates":[[-114.69082,35.46215,11320.0],[-114.8472,35.41069,10700.0]]},"properties":{"ef_share":0.0,"ef_tj":0.0}},{"type":"Feature","geometry":{"type":"LineString","coordinates":[[-114.8472,35.41069,10700.0],[-115.00375,35.36131,10360.0]]},"properties":{"ef_share":0.0,"ef_tj":0.0}},{"type":"Feature","geometry":{"type":"LineString","coordinates":[[-115.00375,35.36131,10360.0],[-115.16495,35.31534,10360.0]]},"properties":{"ef_share":0.0,"ef_tj":0.0}},{"type":"Feature","geometry":{"type":"LineString","coordinates":[[-115.16495,35.31534,10360.0],[-115.32647,35.27533,10360.0]]},"properties":{"ef_share":0.0,"ef_tj":0.0}},{"type":"Feature","geometry":{"type":"LineString","coordinates":[[-115.32647,35.27533,10360.0],[-115.4956,35.27819,10360.0]]},"properties":{"ef_share":0.0,"ef_tj":0.0}},{"type":"Feature","geometry":{"type":"LineString","coordinates":[[-115.4956,35.27819,10360.0],[-115.66505,35.27208,10080.0]]},"properties":{"ef_share":0.0,"ef_tj":0.0}},{"type":"Feature","geometry":{"type":"LineString","coordinates":[[-115.66505,35.27208,10080.0],[-115.78114,35.16983,9490.0]]},"properties":{"ef_share":0.0,"ef_tj":0.0}},{"type":"Feature","geometry":{"type":"LineString","coordinates":[[-115.78114,35.16983,9490.0],[-115.90544,35.07835,8910.0]]},"properties":{"ef_share":0.0,"ef_tj":0.0}},{"type":"Feature","geometry":{"type":"LineString","coordinates":[[-115.90544,35.07835,8910.0],[-116.04571,35.00705,8240.0]]},"properties":{"ef_share":0.0,"ef_tj":0.0}},{"type":"Feature","geometry":{"type":"LineString","coordinates":[[-116.04571,35.00705,8240.0],[-116.18492,34.93827,7590.0]]},"properties":{"ef_share":0.0,"ef_tj":0.0}},{"type":"Feature","geometry":{"type":"LineString","coordinates":[[-116.18492,34.93827,7590.0],[-116.32667,34.87703,7320.0]]},"properties":{"ef_share":0.0,"ef_tj":0.0}},{"type":"Feature","geometry":{"type":"LineString","coordinates":[[-116.32667,34.87703,7320.0],[-116.47035,34.8212,7240.0]]},"properties":{"ef_share":0.0,"ef_tj":0.0}},{"type":"Feature","geometry":{"type":"LineString","coordinates":[[-116.47035,34.8212,7240.0],[-116.61722,34.7816,6420.0]]},"properties":{"ef_share":0.0,"ef_tj":0.0}},{"type":"Feature","geometry":{"type":"LineString","coordinates":[[-116.61722,34.7816,6420.0],[-116.76545,34.76726,6100.0]]},"properties":{"ef_share":0.0,"ef_tj":0.0}},{"type":"Feature","geometry":{"type":"LineString","coordinates":[[-116.76545,34.76726,6100.0],[-116.91339,34.75272,6100.0]]},"properties":{"ef_share":0.0,"ef_tj":0.0}},{"type":"Feature","geometry":{"type":"LineString","coordinates":[[-116.91339,34.75272,6100.0],[-117.05993,34.73781,5680.0]]},"properties":{"ef_share":0.0,"ef_tj":0.0}},{"type":"Feature","geometry":{"type":"LineString","coordinates":[[-117.05993,34.73781,5680.0],[-117.20182,34.72319,5090.0]]},"properties":{"ef_share":0.0,"ef_tj":0.0}},{"type":"Feature","geometry":{"type":"LineString","coordinates":[[-117.20182,34.72319,5090.0],[-117.33873,34.70901,4580.0]]},"properties":{"ef_share":0.0,"ef_tj":0.0}},{"type":"Feature","geometry":{"type":"LineString","coordinates":[[-117.33873,34.70901,4580.0],[-117.47173,34.69506,4240.0]]},"properties":{"ef_share":0.0,"ef_tj":0.0}},{"type":"Feature","geometry":{"type":"LineString","coordinates":[[-117.47173,34.69506,4240.0],[-117.60454,34.68095,4240.0]]},"properties":{"ef_share":0.0,"ef_tj":0.0}},{"type":"Feature","geometry":{"type":"LineString","coordinates":[[-117.60454,34.68095,4240.0],[-117.73748,34.66573,4160.0]]},"properties":{"ef_share":0.0,"ef_tj":0.0}},{"type":"Feature","geometry":{"type":"LineString","coordinates":[[-117.73748,34.66573,4160.0],[-117.86561,34.64558,3780.0]]},"properties":{"ef_share":0.0,"ef_tj":0.0}},{"type":"Feature","geometry":{"type":"LineString","coordinates":[[-117.86561,34.64558,3780.0],[-117.98411,34.62656,3450.0]]},"properties":{"ef_share":0.0,"ef_tj":0.0}},{"type":"Feature","geometry":{"type":"LineString","coordinates":[[-117.98411,34.62656,3450.0],[-118.08431,34.61048,3170.0]]},"properties":{"ef_share":0.0,"ef_tj":0.0}},{"type":"Feature","geometry":{"type":"LineString","coordinates":[[-118.08431,34.61048,3170.0],[-118.18018,34.595,2910.0]]},"properties":{"ef_share":0.0,"ef_tj":0.0}},{"type":"Feature","geometry":{"type":"LineString","coordinates":[[-118.18018,34.595,2910.0],[-118.2731,34.57985,2640.0]]},"properties":{"ef_share":0.0,"ef_tj":0.0}},{"type":"Feature","geometry":{"type":"LineString","coordinates":[[-118.2731,34.57985,2640.0],[-118.36515,34.56405,2420.0]]},"properties":{"ef_share":0.0,"ef_tj":0.0}},{"type":"Feature","geometry":{"type":"LineString","coordinates":[[-118.36515,34.56405,2420.0],[-118.45598,34.54384,2320.0]]},"properties":{"ef_share":0.0,"ef_tj":0.0}},{"type":"Feature","geometry":{"type":"LineString","coordinates":[[-118.45598,34.54384,2320.0],[-118.51122,34.49196,1960.0]]},"properties":{"ef_share":0.0,"ef_tj":0.0}},{"type":"Feature","geometry":{"type":"LineString","coordinates":[[-118.51122,34.49196,1960.0],[-118.51069,34.426,1640.0]]},"properties":{"ef_share":0.0,"ef_tj":0.0}},{"type":"Feature","geometry":{"type":"LineString","coordinates":[[-118.51069,34.426,1640.0],[-118.50544,34.36805,1320.0]]},"properties":{"ef_share":0.0,"ef_tj":0.0}},{"type":"Feature","geometry":{"type":"LineString","coordinates":[[-118.50544,34.36805,1320.0],[-118.50064,34.31778,960.0]]},"properties":{"ef_share":0.0,"ef_tj":0.0}},{"type":"Feature","geometry":{"type":"LineString","coordinates":[[-118.50064,34.31778,960.0],[-118.4969,34.27837,660.0]]},"properties":{"ef_share":0.0,"ef_tj":0.0}},{"type":"Feature","geometry":{"type":"LineString","coordinates":[[-118.4969,34.27837,660.0],[-118.49353,34.2435,430.0]]},"properties":{"ef_share":0.0,"ef_tj":0.0}}]}