{"type":"FeatureCollection","properties":{"icao24":"a89621","registration":"N652WE","owner_label":"Eric Schmidt","combined_co2e_central":6545.3,"fuel_co2_kg":6545.3,"contrail_co2e_central":0.0,"tier":"low"},"features":[{"type":"Feature","geometry":{"type":"LineString","coordinates":[[-74.04214,40.8974,500.0],[-74.09879,40.93696,980.0]]},"properties":{"ef_share":0.0,"ef_tj":0.0}},{"type":"Feature","geometry":{"type":"LineString","coordinates":[[-74.09879,40.93696,980.0],[-74.19158,40.9363,1520.0]]},"properties":{"ef_share":0.0,"ef_tj":0.0}},{"type":"Feature","geometry":{"type":"LineString","coordinates":[[-74.19158,40.9363,1520.0],[-74.2289,40.87754,1740.0]]},"properties":{"ef_share":0.0,"ef_tj":0.0}},{"type":"Feature","geometry":{"type":"LineString","coordinates":[[-74.2289,40.87754,1740.0],[-74.2384,40.80749,2060.0]]},"properties":{"ef_share":0.0,"ef_tj":0.0}},{"type":"Feature","geometry":{"type":"LineString","coordinates":[[-74.2384,40.80749,2060.0],[-74.24895,40.73551,2670.0]]},"properties":{"ef_share":0.0,"ef_tj":0.0}},{"type":"Feature","geometry":{"type":"LineString","coordinates":[[-74.24895,40.73551,2670.0],[-74.26106,40.6528,3410.0]]},"properties":{"ef_share":0.0,"ef_tj":0.0}},{"type":"Feature","geometry":{"type":"LineString","coordinates":[[-74.26106,40.6528,3410.0],[-74.26171,40.54769,4370.0]]},"properties":{"ef_share":0.0,"ef_tj":0.0}},{"type":"Feature","geometry":{"type":"LineString","coordinates":[[-74.26171,40.54769,4370.0],[-74.25953,40.43546,5090.0]]},"properties":{"ef_share":0.0,"ef_tj":0.0}},{"type":"Feature","geometry":{"type":"LineString","coordinates":[[-74.25953,40.43546,5090.0],[-74.25729,40.31917,5710.0]]},"properties":{"ef_share":0.0,"ef_tj":0.0}},{"type":"Feature","geometry":{"type":"LineString","coordinates":[[-74.25729,40.31917,5710.0],[-74.25506,40.19956,6680.0]]},"properties":{"ef_share":0.0,"ef_tj":0.0}},{"type":"Feature","geometry":{"type":"LineString","coordinates":[[-74.25506,40.19956,6680.0],[-74.25273,40.07557,7320.0]]},"properties":{"ef_share":0.0,"ef_tj":0.0}},{"type":"Feature","geometry":{"type":"LineString","coordinates":[[-74.25273,40.07557,7320.0],[-74.29573,39.96013,7720.0]]},"properties":{"ef_share":0.0,"ef_tj":0.0}},{"type":"Feature","geometry":{"type":"LineString","coordinates":[[-74.29573,39.96013,7720.0],[-74.39074,39.8605,8380.0]]},"properties":{"ef_share":0.0,"ef_tj":0.0}},{"type":"Feature","geometry":{"type":"LineString","coordinates":[[-74.39074,39.8605,8380.0],[-74.49951,39.76634,9110.0]]},"properties":{"ef_share":0.0,"ef_tj":0.0}},{"type":"Feature","geometry":{"type":"LineString","coordinates":[[-74.49951,39.76634,9110.0],[-74.61872,39.67639,9710.0]]},"properties":{"ef_share":0.0,"ef_tj":0.0}},{"type":"Feature","geometry":{"type":"LineString","coordinates":[[-74.61872,39.67639,9710.0],[-74.74028,39.58417,10350.0]]},"properties":{"ef_share":0.0,"ef_tj":0.0}},{"type":"Feature","geometry":{"type":"LineString","coordinates":[[-74.74028,39.58417,10350.0],[-74.85921,39.49362,11220.0]]},"properties":{"ef_share":0.0,"ef_tj":0.0}},{"type":"Feature","geometry":{"type":"LineString","coordinates":[[-74.85921,39.49362,11220.0],[-74.9756,39.4047,11880.0]]},"properties":{"ef_share":0.0,"ef_tj":0.0}},{"type":"Feature","geometry":{"type":"LineString","coordinates":[[-74.9756,39.4047,11880.0],[-75.09067,39.31265,12350.0]]},"properties":{"ef_share":0.0,"ef_tj":0.0}},{"type":"Feature","geometry":{"type":"LineString","coordinates":[[-75.09067,39.31265,12350.0],[-75.16622,39.19301,12700.0]]},"properties":{"ef_share":0.0,"ef_tj":0.0}},{"type":"Feature","geometry":{"type":"LineString","coordinates":[[-75.16622,39.19301,12700.0],[-75.23025,39.06661,13060.0]]},"properties":{"ef_share":0.0,"ef_tj":0.0}},{"type":"Feature","geometry":{"type":"LineString","coordinates":[[-75.23025,39.06661,13060.0],[-75.29498,38.93896,13110.0]]},"properties":{"ef_share":0.0,"ef_tj":0.0}},{"type":"Feature","geometry":{"type":"LineString","coordinates":[[-75.29498,38.93896,13110.0],[-75.36061,38.809,13110.0]]},"properties":{"ef_share":0.0,"ef_tj":0.0}},{"type":"Feature","geometry":{"type":"LineString","coordinates":[[-75.36061,38.809,13110.0],[-75.4261,38.67887,13110.0]]},"properties":{"ef_share":0.0,"ef_tj":0.0}},{"type":"Feature","geometry":{"type":"LineString","coordinates":[[-75.4261,38.67887,13110.0],[-75.49148,38.54847,13110.0]]},"properties":{"ef_share":0.0,"ef_tj":0.0}},{"type":"Feature","geometry":{"type":"LineString","coordinates":[[-75.49148,38.54847,13110.0],[-75.55633,38.41857,13110.0]]},"properties":{"ef_share":0.0,"ef_tj":0.0}},{"type":"Feature","geometry":{"type":"LineString","coordinates":[[-75.55633,38.41857,13110.0],[-75.62092,38.28873,13110.0]]},"properties":{"ef_share":0.0,"ef_tj":0.0}},{"type":"Feature","geometry":{"type":"LineString","coordinates":[[-75.62092,38.28873,13110.0],[-75.68534,38.15874,13110.0]]},"properties":{"ef_share":0.0,"ef_tj":0.0}},{"type":"Feature","geometry":{"type":"LineString","coordinates":[[-75.68534,38.15874,13110.0],[-75.74961,38.02857,13110.0]]},"properties":{"ef_share":0.0,"ef_tj":0.0}},{"type":"Feature","geometry":{"type":"LineString","coordinates":[[-75.74961,38.02857,13110.0],[-75.81368,37.89819,13110.0]]},"properties":{"ef_share":0.0,"ef_tj":0.0}},{"type":"Feature","geometry":{"type":"LineString","coordinates":[[-75.81368,37.89819,13110.0],[-75.87762,37.76765,13110.0]]},"properties":{"ef_share":0.0,"ef_tj":0.0}},{"type":"Feature","geometry":{"type":"LineString","coordinates":[[-75.87762,37.76765,13110.0],[-75.94133,37.63703,13110.0]]},"properties":{"ef_share":0.0,"ef_tj":0.0}},{"type":"Feature","geometry":{"type":"LineString","coordinates":[[-75.94133,37.63703,13110.0],[-76.00471,37.50676,13110.0]]},"properties":{"ef_share":0.0,"ef_tj":0.0}},{"type":"Feature","geometry":{"type":"LineString","coordinates":[[-76.00471,37.50676,13110.0],[-76.06777,37.3765,13110.0]]},"properties":{"ef_share":0.0,"ef_tj":0.0}},{"type":"Feature","geometry":{"type":"LineString","coordinates":[[-76.06777,37.3765,13110.0],[-76.13106,37.24549,13110.0]]},"properties":{"ef_share":0.0,"ef_tj":0.0}},{"type":"Feature","geometry":{"type":"LineString","coordinates":[[-76.13106,37.24549,13110.0],[-76.19344,37.11569,13110.0]]},"properties":{"ef_share":0.0,"ef_tj":0.0}},{"type":"Feature","geometry":{"type":"LineString","coordinates":[[-76.19344,37.11569,13110.0],[-76.25608,36.98478,13110.0]]},"properties":{"ef_share":0.0,"ef_tj":0.0}},{"type":"Feature","geometry":{"type":"LineString","coordinates":[[-76.25608,36.98478,13110.0],[-76.31865,36.85362,13110.0]]},"properties":{"ef_share":0.0,"ef_tj":0.0}},{"type":"Feature","geometry":{"type":"LineString","coordinates":[[-76.31865,36.85362,13110.0],[-76.38135,36.72167,13110.0]]},"properties":{"ef_share":0.0,"ef_tj":0.0}},{"type":"Feature","geometry":{"type":"LineString","coordinates":[[-76.38135,36.72167,13110.0],[-76.44352,36.59041,13110.0]]},"properties":{"ef_share":0.0,"ef_tj":0.0}},{"type":"Feature","geometry":{"type":"LineString","coordinates":[[-76.44352,36.59041,13110.0],[-76.50538,36.45933,13110.0]]},"properties":{"ef_share":0.0,"ef_tj":0.0}},{"type":"Feature","geometry":{"type":"LineString","coordinates":[[-76.50538,36.45933,13110.0],[-76.56707,36.32813,13110.0]]},"properties":{"ef_share":0.0,"ef_tj":0.0}},{"type":"Feature","geometry":{"type":"LineString","coordinates":[[-76.56707,36.32813,13110.0],[-76.62859,36.19678,13110.0]]},"properties":{"ef_share":0.0,"ef_tj":0.0}},{"type":"Feature","geometry":{"type":"LineString","coordinates":[[-76.62859,36.19678,13110.0],[-76.68979,36.06576,13110.0]]},"properties":{"ef_share":0.0,"ef_tj":0.0}},{"type":"Feature","geometry":{"type":"LineString","coordinates":[[-76.68979,36.06576,13110.0],[-76.75056,35.93507,13110.0]]},"properties":{"ef_share":0.0,"ef_tj":0.0}},{"type":"Feature","geometry":{"type":"LineString","coordinates":[[-76.75056,35.93507,13110.0],[-76.81072,35.80527,13110.0]]},"properties":{"ef_share":0.0,"ef_tj":0.0}},{"type":"Feature","geometry":{"type":"LineString","coordinates":[[-76.81072,35.80527,13110.0],[-76.87091,35.67491,13110.0]]},"properties":{"ef_share":0.0,"ef_tj":0.0}},{"type":"Feature","geometry":{"type":"LineString","coordinates":[[-76.87091,35.67491,13110.0],[-76.93117,35.54401,13110.0]]},"properties":{"ef_share":0.0,"ef_tj":0.0}},{"type":"Feature","geometry":{"type":"LineString","coordinates":[[-76.93117,35.54401,13110.0],[-76.99103,35.4134,13110.0]]},"properties":{"ef_share":0.0,"ef_tj":0.0}},{"type":"Feature","geometry":{"type":"LineString","coordinates":[[-76.99103,35.4134,13110.0],[-77.05061,35.28318,13110.0]]},"properties":{"ef_share":0.0,"ef_tj":0.0}},{"type":"Feature","geometry":{"type":"LineString","coordinates":[[-77.05061,35.28318,13110.0],[-77.10985,35.15311,13110.0]]},"properties":{"ef_share":0.0,"ef_tj":0.0}},{"type":"Feature","geometry":{"type":"LineString","coordinates":[[-77.10985,35.15311,13110.0],[-77.16846,35.02397,13110.0]]},"properties":{"ef_share":0.0,"ef_tj":0.0}},{"type":"Feature","geometry":{"type":"LineString","coordinates":[[-77.16846,35.02397,13110.0],[-77.22679,34.89502,13110.0]]},"properties":{"ef_share":0.0,"ef_tj":0.0}},{"type":"Feature","geometry":{"type":"LineString","coordinates":[[-77.22679,34.89502,13110.0],[-77.28494,34.76611,13110.0]]},"properties":{"ef_share":0.0,"ef_tj":0.0}},{"type":"Feature","geometry":{"type":"LineString","coordinates":[[-77.28494,34.76611,13110.0],[-77.34304,34.63679,13110.0]]},"properties":{"ef_share":0.0,"ef_tj":0.0}},{"type":"Feature","geometry":{"type":"LineString","coordinates":[[-77.34304,34.63679,13110.0],[-77.39943,34.5072,13110.0]]},"properties":{"ef_share":0.0,"ef_tj":0.0}},{"type":"Feature","geometry":{"type":"LineString","coordinates":[[-77.39943,34.5072,13110.0],[-77.43323,34.37048,13110.0]]},"properties":{"ef_share":0.0,"ef_tj":0.0}},{"type":"Feature","geometry":{"type":"LineString","coordinates":[[-77.43323,34.37048,13110.0],[-77.46013,34.23219,13110.0]]},"properties":{"ef_share":0.0,"ef_tj":0.0}},{"type":"Feature","geometry":{"type":"LineString","coordinates":[[-77.46013,34.23219,13110.0],[-77.48701,34.09422,13110.0]]},"properties":{"ef_share":0.0,"ef_tj":0.0}},{"type":"Feature","geometry":{"type":"LineString","coordinates":[[-77.48701,34.09422,13110.0],[-77.51392,33.95571,13110.0]]},"properties":{"ef_share":0.0,"ef_tj":0.0}},{"type":"Feature","geometry":{"type":"LineString","coordinates":[[-77.51392,33.95571,13110.0],[-77.5405,33.81824,13110.0]]},"properties":{"ef_share":0.0,"ef_tj":0.0}},{"type":"Feature","geometry":{"type":"LineString","coordinates":[[-77.5405,33.81824,13110.0],[-77.56698,33.68101,13110.0]]},"properties":{"ef_share":0.0,"ef_tj":0.0}},{"type":"Feature","geometry":{"type":"LineString","coordinates":[[-77.56698,33.68101,13110.0],[-77.59915,33.5451,13110.0]]},"properties":{"ef_share":0.0,"ef_tj":0.0}},{"type":"Feature","geometry":{"type":"LineString","coordinates":[[-77.59915,33.5451,13110.0],[-77.64508,33.41275,13110.0]]},"properties":{"ef_share":0.0,"ef_tj":0.0}},{"type":"Feature","geometry":{"type":"LineString","coordinates":[[-77.64508,33.41275,13110.0],[-77.69104,33.28117,13110.0]]},"properties":{"ef_share":0.0,"ef_tj":0.0}},{"type":"Feature","geometry":{"type":"LineString","coordinates":[[-77.69104,33.28117,13110.0],[-77.73713,33.14873,13110.0]]},"properties":{"ef_share":0.0,"ef_tj":0.0}},{"type":"Feature","geometry":{"type":"LineString","coordinates":[[-77.73713,33.14873,13110.0],[-77.78312,33.01605,13110.0]]},"properties":{"ef_share":0.0,"ef_tj":0.0}},{"type":"Feature","geometry":{"type":"LineString","coordinates":[[-77.78312,33.01605,13110.0],[-77.82889,32.88361,13110.0]]},"properties":{"ef_share":0.0,"ef_tj":0.0}},{"type":"Feature","geometry":{"type":"LineString","coordinates":[[-77.82889,32.88361,13110.0],[-77.8736,32.7519,13110.0]]},"properties":{"ef_share":0.0,"ef_tj":0.0}},{"type":"Feature","geometry":{"type":"LineString","coordinates":[[-77.8736,32.7519,13110.0],[-77.91708,32.61965,13110.0]]},"properties":{"ef_share":0.0,"ef_tj":0.0}},{"type":"Feature","geometry":{"type":"LineString","coordinates":[[-77.91708,32.61965,13110.0],[-77.96057,32.48739,13110.0]]},"properties":{"ef_share":0.0,"ef_tj":0.0}},{"type":"Feature","geometry":{"type":"LineString","coordinates":[[-77.96057,32.48739,13110.0],[-78.00405,32.35513,13110.0]]},"properties":{"ef_share":0.0,"ef_tj":0.0}}]}