{"type":"FeatureCollection","properties":{"icao24":"a9247d","registration":"N68885","owner_label":"Mark Zuckerberg","combined_co2e_central":23541.1,"fuel_co2_kg":23541.1,"contrail_co2e_central":0.0,"tier":"medium"},"features":[{"type":"Feature","geometry":{"type":"LineString","coordinates":[[-122.04592,37.40747,-50.0],[-122.05822,37.45511,650.0]]},"properties":{"ef_share":0.0,"ef_tj":0.0}},{"type":"Feature","geometry":{"type":"LineString","coordinates":[[-122.05822,37.45511,650.0],[-122.0047,37.47064,860.0]]},"properties":{"ef_share":0.0,"ef_tj":0.0}},{"type":"Feature","geometry":{"type":"LineString","coordinates":[[-122.0047,37.47064,860.0],[-121.95128,37.43082,1910.0]]},"properties":{"ef_share":0.0,"ef_tj":0.0}},{"type":"Feature","geometry":{"type":"LineString","coordinates":[[-121.95128,37.43082,1910.0],[-121.88494,37.38274,2750.0]]},"properties":{"ef_share":0.0,"ef_tj":0.0}},{"type":"Feature","geometry":{"type":"LineString","coordinates":[[-121.88494,37.38274,2750.0],[-121.77713,37.36955,3440.0]]},"properties":{"ef_share":0.0,"ef_tj":0.0}},{"type":"Feature","geometry":{"type":"LineString","coordinates":[[-121.77713,37.36955,3440.0],[-121.64714,37.36375,4330.0]]},"properties":{"ef_share":0.0,"ef_tj":0.0}},{"type":"Feature","geometry":{"type":"LineString","coordinates":[[-121.64714,37.36375,4330.0],[-121.51174,37.35604,5150.0]]},"properties":{"ef_share":0.0,"ef_tj":0.0}},{"type":"Feature","geometry":{"type":"LineString","coordinates":[[-121.51174,37.35604,5150.0],[-121.37366,37.32115,5920.0]]},"properties":{"ef_share":0.0,"ef_tj":0.0}},{"type":"Feature","geometry":{"type":"LineString","coordinates":[[-121.37366,37.32115,5920.0],[-121.23031,37.28135,6740.0]]},"properties":{"ef_share":0.0,"ef_tj":0.0}},{"type":"Feature","geometry":{"type":"LineString","coordinates":[[-121.23031,37.28135,6740.0],[-121.0823,37.24008,7470.0]]},"properties":{"ef_share":0.0,"ef_tj":0.0}},{"type":"Feature","geometry":{"type":"LineString","coordinates":[[-121.0823,37.24008,7470.0],[-120.9238,37.21421,8120.0]]},"properties":{"ef_share":0.0,"ef_tj":0.0}},{"type":"Feature","geometry":{"type":"LineString","coordinates":[[-120.9238,37.21421,8120.0],[-120.75435,37.2242,8770.0]]},"properties":{"ef_share":0.0,"ef_tj":0.0}},{"type":"Feature","geometry":{"type":"LineString","coordinates":[[-120.75435,37.2242,8770.0],[-120.58207,37.23451,9380.0]]},"properties":{"ef_share":0.0,"ef_tj":0.0}},{"type":"Feature","geometry":{"type":"LineString","coordinates":[[-120.58207,37.23451,9380.0],[-120.40489,37.24473,9900.0]]},"properties":{"ef_share":0.0,"ef_tj":0.0}},{"type":"Feature","geometry":{"type":"LineString","coordinates":[[-120.40489,37.24473,9900.0],[-120.22422,37.25485,10350.0]]},"properties":{"ef_share":0.0,"ef_tj":0.0}},{"type":"Feature","geometry":{"type":"LineString","coordinates":[[-120.22422,37.25485,10350.0],[-120.03929,37.26491,10670.0]]},"properties":{"ef_share":0.0,"ef_tj":0.0}},{"type":"Feature","geometry":{"type":"LineString","coordinates":[[-120.03929,37.26491,10670.0],[-119.84812,37.27503,10670.0]]},"properties":{"ef_share":0.0,"ef_tj":0.0}},{"type":"Feature","geometry":{"type":"LineString","coordinates":[[-119.84812,37.27503,10670.0],[-119.65596,37.2849,10670.0]]},"properties":{"ef_share":0.0,"ef_tj":0.0}},{"type":"Feature","geometry":{"type":"LineString","coordinates":[[-119.65596,37.2849,10670.0],[-119.46441,37.29438,10670.0]]},"properties":{"ef_share":0.0,"ef_tj":0.0}},{"type":"Feature","geometry":{"type":"LineString","coordinates":[[-119.46441,37.29438,10670.0],[-119.27367,37.30356,10670.0]]},"properties":{"ef_share":0.0,"ef_tj":0.0}},{"type":"Feature","geometry":{"type":"LineString","coordinates":[[-119.27367,37.30356,10670.0],[-119.08281,37.31242,10670.0]]},"properties":{"ef_share":0.0,"ef_tj":0.0}},{"type":"Feature","geometry":{"type":"LineString","coordinates":[[-119.08281,37.31242,10670.0],[-118.89071,37.32102,10670.0]]},"properties":{"ef_share":0.0,"ef_tj":0.0}},{"type":"Feature","geometry":{"type":"LineString","coordinates":[[-118.89071,37.32102,10670.0],[-118.69915,37.32926,10670.0]]},"properties":{"ef_share":0.0,"ef_tj":0.0}},{"type":"Feature","geometry":{"type":"LineString","coordinates":[[-118.69915,37.32926,10670.0],[-118.50641,37.33726,10670.0]]},"properties":{"ef_share":0.0,"ef_tj":0.0}},{"type":"Feature","geometry":{"type":"LineString","coordinates":[[-118.50641,37.33726,10670.0],[-118.31436,37.34491,10670.0]]},"properties":{"ef_share":0.0,"ef_tj":0.0}},{"type":"Feature","geometry":{"type":"LineString","coordinates":[[-118.31436,37.34491,10670.0],[-118.12009,37.35234,10670.0]]},"properties":{"ef_share":0.0,"ef_tj":0.0}},{"type":"Feature","geometry":{"type":"LineString","coordinates":[[-118.12009,37.35234,10670.0],[-117.92551,37.35948,10670.0]]},"properties":{"ef_share":0.0,"ef_tj":0.0}},{"type":"Feature","geometry":{"type":"LineString","coordinates":[[-117.92551,37.35948,10670.0],[-117.73098,37.36627,10680.0]]},"properties":{"ef_share":0.0,"ef_tj":0.0}},{"type":"Feature","geometry":{"type":"LineString","coordinates":[[-117.73098,37.36627,10680.0],[-117.57868,37.30991,10670.0]]},"properties":{"ef_share":0.0,"ef_tj":0.0}},{"type":"Feature","geometry":{"type":"LineString","coordinates":[[-117.57868,37.30991,10670.0],[-117.4484,37.22099,10670.0]]},"properties":{"ef_share":0.0,"ef_tj":0.0}},{"type":"Feature","geometry":{"type":"LineString","coordinates":[[-117.4484,37.22099,10670.0],[-117.31813,37.13208,10670.0]]},"properties":{"ef_share":0.0,"ef_tj":0.0}},{"type":"Feature","geometry":{"type":"LineString","coordinates":[[-117.31813,37.13208,10670.0],[-117.18786,37.04317,10670.0]]},"properties":{"ef_share":0.0,"ef_tj":0.0}},{"type":"Feature","geometry":{"type":"LineString","coordinates":[[-117.18786,37.04317,10670.0],[-117.05856,36.9538,10670.0]]},"properties":{"ef_share":0.0,"ef_tj":0.0}},{"type":"Feature","geometry":{"type":"LineString","coordinates":[[-117.05856,36.9538,10670.0],[-116.92944,36.86434,10670.0]]},"properties":{"ef_share":0.0,"ef_tj":0.0}},{"type":"Feature","geometry":{"type":"LineString","coordinates":[[-116.92944,36.86434,10670.0],[-116.80033,36.77488,10670.0]]},"properties":{"ef_share":0.0,"ef_tj":0.0}},{"type":"Feature","geometry":{"type":"LineString","coordinates":[[-116.80033,36.77488,10670.0],[-116.67147,36.68512,10670.0]]},"properties":{"ef_share":0.0,"ef_tj":0.0}},{"type":"Feature","geometry":{"type":"LineString","coordinates":[[-116.67147,36.68512,10670.0],[-116.56798,36.56495,10670.0]]},"properties":{"ef_share":0.0,"ef_tj":0.0}},{"type":"Feature","geometry":{"type":"LineString","coordinates":[[-116.56798,36.56495,10670.0],[-116.46505,36.44473,10670.0]]},"properties":{"ef_share":0.0,"ef_tj":0.0}},{"type":"Feature","geometry":{"type":"LineString","coordinates":[[-116.46505,36.44473,10670.0],[-116.36191,36.32453,10670.0]]},"properties":{"ef_share":0.0,"ef_tj":0.0}},{"type":"Feature","geometry":{"type":"LineString","coordinates":[[-116.36191,36.32453,10670.0],[-116.25985,36.20463,10670.0]]},"properties":{"ef_share":0.0,"ef_tj":0.0}},{"type":"Feature","geometry":{"type":"LineString","coordinates":[[-116.25985,36.20463,10670.0],[-116.14969,36.08921,10670.0]]},"properties":{"ef_share":0.0,"ef_tj":0.0}},{"type":"Feature","geometry":{"type":"LineString","coordinates":[[-116.14969,36.08921,10670.0],[-115.97043,36.05387,10670.0]]},"properties":{"ef_share":0.0,"ef_tj":0.0}},{"type":"Feature","geometry":{"type":"LineString","coordinates":[[-115.97043,36.05387,10670.0],[-115.78198,36.0455,10670.0]]},"properties":{"ef_share":0.0,"ef_tj":0.0}},{"type":"Feature","geometry":{"type":"LineString","coordinates":[[-115.78198,36.0455,10670.0],[-115.59327,36.03591,10670.0]]},"properties":{"ef_share":0.0,"ef_tj":0.0}},{"type":"Feature","geometry":{"type":"LineString","coordinates":[[-115.59327,36.03591,10670.0],[-115.40377,36.02588,10670.0]]},"properties":{"ef_share":0.0,"ef_tj":0.0}},{"type":"Feature","geometry":{"type":"LineString","coordinates":[[-115.40377,36.02588,10670.0],[-115.21423,36.01556,10670.0]]},"properties":{"ef_share":0.0,"ef_tj":0.0}},{"type":"Feature","geometry":{"type":"LineString","coordinates":[[-115.21423,36.01556,10670.0],[-115.02531,36.00498,10670.0]]},"properties":{"ef_share":0.0,"ef_tj":0.0}},{"type":"Feature","geometry":{"type":"LineString","coordinates":[[-115.02531,36.00498,10670.0],[-114.83574,36.00194,10670.0]]},"properties":{"ef_share":0.0,"ef_tj":0.0}},{"type":"Feature","geometry":{"type":"LineString","coordinates":[[-114.83574,36.00194,10670.0],[-114.64693,36.02597,10670.0]]},"properties":{"ef_share":0.0,"ef_tj":0.0}},{"type":"Feature","geometry":{"type":"LineString","coordinates":[[-114.64693,36.02597,10670.0],[-114.45708,36.05225,10670.0]]},"properties":{"ef_share":0.0,"ef_tj":0.0}},{"type":"Feature","geometry":{"type":"LineString","coordinates":[[-114.45708,36.05225,10670.0],[-114.26673,36.07822,10670.0]]},"properties":{"ef_share":0.0,"ef_tj":0.0}},{"type":"Feature","geometry":{"type":"LineString","coordinates":[[-114.26673,36.07822,10670.0],[-114.07524,36.10399,10670.0]]},"properties":{"ef_share":0.0,"ef_tj":0.0}},{"type":"Feature","geometry":{"type":"LineString","coordinates":[[-114.07524,36.10399,10670.0],[-113.88537,36.12927,10670.0]]},"properties":{"ef_share":0.0,"ef_tj":0.0}},{"type":"Feature","geometry":{"type":"LineString","coordinates":[[-113.88537,36.12927,10670.0],[-113.69477,36.15429,10670.0]]},"properties":{"ef_share":0.0,"ef_tj":0.0}},{"type":"Feature","geometry":{"type":"LineString","coordinates":[[-113.69477,36.15429,10670.0],[-113.50458,36.17894,10670.0]]},"properties":{"ef_share":0.0,"ef_tj":0.0}},{"type":"Feature","geometry":{"type":"LineString","coordinates":[[-113.50458,36.17894,10670.0],[-113.31323,36.20342,10670.0]]},"properties":{"ef_share":0.0,"ef_tj":0.0}},{"type":"Feature","geometry":{"type":"LineString","coordinates":[[-113.31323,36.20342,10670.0],[-113.12134,36.22768,10670.0]]},"properties":{"ef_share":0.0,"ef_tj":0.0}},{"type":"Feature","geometry":{"type":"LineString","coordinates":[[-113.12134,36.22768,10670.0],[-112.92903,36.25166,10670.0]]},"properties":{"ef_share":0.0,"ef_tj":0.0}},{"type":"Feature","geometry":{"type":"LineString","coordinates":[[-112.92903,36.25166,10670.0],[-112.73694,36.2753,10670.0]]},"properties":{"ef_share":0.0,"ef_tj":0.0}},{"type":"Feature","geometry":{"type":"LineString","coordinates":[[-112.73694,36.2753,10670.0],[-112.54399,36.29868,10670.0]]},"properties":{"ef_share":0.0,"ef_tj":0.0}},{"type":"Feature","geometry":{"type":"LineString","coordinates":[[-112.54399,36.29868,10670.0],[-112.35117,36.32176,10670.0]]},"properties":{"ef_share":0.0,"ef_tj":0.0}},{"type":"Feature","geometry":{"type":"LineString","coordinates":[[-112.35117,36.32176,10670.0],[-112.15783,36.34454,10670.0]]},"properties":{"ef_share":0.0,"ef_tj":0.0}},{"type":"Feature","geometry":{"type":"LineString","coordinates":[[-112.15783,36.34454,10670.0],[-111.96576,36.36689,10670.0]]},"properties":{"ef_share":0.0,"ef_tj":0.0}},{"type":"Feature","geometry":{"type":"LineString","coordinates":[[-111.96576,36.36689,10670.0],[-111.77101,36.38918,10670.0]]},"properties":{"ef_share":0.0,"ef_tj":0.0}},{"type":"Feature","geometry":{"type":"LineString","coordinates":[[-111.77101,36.38918,10670.0],[-111.57737,36.41106,10670.0]]},"properties":{"ef_share":0.0,"ef_tj":0.0}},{"type":"Feature","geometry":{"type":"LineString","coordinates":[[-111.57737,36.41106,10670.0],[-111.383,36.43264,10670.0]]},"properties":{"ef_share":0.0,"ef_tj":0.0}},{"type":"Feature","geometry":{"type":"LineString","coordinates":[[-111.383,36.43264,10670.0],[-111.18891,36.45391,10680.0]]},"properties":{"ef_share":0.0,"ef_tj":0.0}},{"type":"Feature","geometry":{"type":"LineString","coordinates":[[-111.18891,36.45391,10680.0],[-110.99573,36.47472,10670.0]]},"properties":{"ef_share":0.0,"ef_tj":0.0}},{"type":"Feature","geometry":{"type":"LineString","coordinates":[[-110.99573,36.47472,10670.0],[-110.80182,36.49529,10670.0]]},"properties":{"ef_share":0.0,"ef_tj":0.0}},{"type":"Feature","geometry":{"type":"LineString","coordinates":[[-110.80182,36.49529,10670.0],[-110.60761,36.51561,10670.0]]},"properties":{"ef_share":0.0,"ef_tj":0.0}},{"type":"Feature","geometry":{"type":"LineString","coordinates":[[-110.60761,36.51561,10670.0],[-110.41303,36.53557,10670.0]]},"properties":{"ef_share":0.0,"ef_tj":0.0}},{"type":"Feature","geometry":{"type":"LineString","coordinates":[[-110.41303,36.53557,10670.0],[-110.21722,36.55537,10670.0]]},"properties":{"ef_share":0.0,"ef_tj":0.0}},{"type":"Feature","geometry":{"type":"LineString","coordinates":[[-110.21722,36.55537,10670.0],[-110.02163,36.5745,10670.0]]},"properties":{"ef_share":0.0,"ef_tj":0.0}},{"type":"Feature","geometry":{"type":"LineString","coordinates":[[-110.02163,36.5745,10670.0],[-109.82619,36.59346,10670.0]]},"properties":{"ef_share":0.0,"ef_tj":0.0}},{"type":"Feature","geometry":{"type":"LineString","coordinates":[[-109.82619,36.59346,10670.0],[-109.63075,36.61242,10670.0]]},"properties":{"ef_share":0.0,"ef_tj":0.0}},{"type":"Feature","geometry":{"type":"LineString","coordinates":[[-109.63075,36.61242,10670.0],[-109.4353,36.63113,10670.0]]},"properties":{"ef_share":0.0,"ef_tj":0.0}},{"type":"Feature","geometry":{"type":"LineString","coordinates":[[-109.4353,36.63113,10670.0],[-109.23747,36.64944,10670.0]]},"properties":{"ef_share":0.0,"ef_tj":0.0}},{"type":"Feature","geometry":{"type":"LineString","coordinates":[[-109.23747,36.64944,10670.0],[-109.04043,36.66736,10670.0]]},"properties":{"ef_share":0.0,"ef_tj":0.0}},{"type":"Feature","geometry":{"type":"LineString","coordinates":[[-109.04043,36.66736,10670.0],[-108.84371,36.68489,10670.0]]},"properties":{"ef_share":0.0,"ef_tj":0.0}},{"type":"Feature","geometry":{"type":"LineString","coordinates":[[-108.84371,36.68489,10670.0],[-108.64637,36.70217,10670.0]]},"properties":{"ef_share":0.0,"ef_tj":0.0}},{"type":"Feature","geometry":{"type":"LineString","coordinates":[[-108.64637,36.70217,10670.0],[-108.44893,36.71912,10670.0]]},"properties":{"ef_share":0.0,"ef_tj":0.0}},{"type":"Feature","geometry":{"type":"LineString","coordinates":[[-108.44893,36.71912,10670.0],[-108.25231,36.73566,10670.0]]},"properties":{"ef_share":0.0,"ef_tj":0.0}},{"type":"Feature","geometry":{"type":"LineString","coordinates":[[-108.25231,36.73566,10670.0],[-108.0589,36.76086,10670.0]]},"properties":{"ef_share":0.0,"ef_tj":0.0}},{"type":"Feature","geometry":{"type":"LineString","coordinates":[[-108.0589,36.76086,10670.0],[-107.87349,36.81001,10670.0]]},"properties":{"ef_share":0.0,"ef_tj":0.0}},{"type":"Feature","geometry":{"type":"LineString","coordinates":[[-107.87349,36.81001,10670.0],[-107.68899,36.86019,10670.0]]},"properties":{"ef_share":0.0,"ef_tj":0.0}},{"type":"Feature","geometry":{"type":"LineString","coordinates":[[-107.68899,36.86019,10670.0],[-107.50327,36.91026,10670.0]]},"properties":{"ef_share":0.0,"ef_tj":0.0}},{"type":"Feature","geometry":{"type":"LineString","coordinates":[[-107.50327,36.91026,10670.0],[-107.31784,36.95988,10670.0]]},"properties":{"ef_share":0.0,"ef_tj":0.0}},{"type":"Feature","geometry":{"type":"LineString","coordinates":[[-107.31784,36.95988,10670.0],[-107.13177,37.00931,10670.0]]},"properties":{"ef_share":0.0,"ef_tj":0.0}},{"type":"Feature","geometry":{"type":"LineString","coordinates":[[-107.13177,37.00931,10670.0],[-106.94447,37.05876,10670.0]]},"properties":{"ef_share":0.0,"ef_tj":0.0}},{"type":"Feature","geometry":{"type":"LineString","coordinates":[[-106.94447,37.05876,10670.0],[-106.7585,37.10749,10670.0]]},"properties":{"ef_share":0.0,"ef_tj":0.0}},{"type":"Feature","geometry":{"type":"LineString","coordinates":[[-106.7585,37.10749,10670.0],[-106.57154,37.15614,10670.0]]},"properties":{"ef_share":0.0,"ef_tj":0.0}},{"type":"Feature","geometry":{"type":"LineString","coordinates":[[-106.57154,37.15614,10670.0],[-106.38505,37.20426,10670.0]]},"properties":{"ef_share":0.0,"ef_tj":0.0}},{"type":"Feature","geometry":{"type":"LineString","coordinates":[[-106.38505,37.20426,10670.0],[-106.19743,37.25233,10670.0]]},"properties":{"ef_share":0.0,"ef_tj":0.0}},{"type":"Feature","geometry":{"type":"LineString","coordinates":[[-106.19743,37.25233,10670.0],[-106.00947,37.30015,10670.0]]},"properties":{"ef_share":0.0,"ef_tj":0.0}},{"type":"Feature","geometry":{"type":"LineString","coordinates":[[-106.00947,37.30015,10670.0],[-105.81887,37.34554,10670.0]]},"properties":{"ef_share":0.0,"ef_tj":0.0}},{"type":"Feature","geometry":{"type":"LineString","coordinates":[[-105.81887,37.34554,10670.0],[-105.62244,37.37495,10670.0]]},"properties":{"ef_share":0.0,"ef_tj":0.0}},{"type":"Feature","geometry":{"type":"LineString","coordinates":[[-105.62244,37.37495,10670.0],[-105.42644,37.40072,10670.0]]},"properties":{"ef_share":0.0,"ef_tj":0.0}},{"type":"Feature","geometry":{"type":"LineString","coordinates":[[-105.42644,37.40072,10670.0],[-105.23278,37.42593,10670.0]]},"properties":{"ef_share":0.0,"ef_tj":0.0}},{"type":"Feature","geometry":{"type":"LineString","coordinates":[[-105.23278,37.42593,10670.0],[-105.04001,37.45069,10670.0]]},"properties":{"ef_share":0.0,"ef_tj":0.0}},{"type":"Feature","geometry":{"type":"LineString","coordinates":[[-105.04001,37.45069,10670.0],[-104.8434,37.47564,10680.0]]},"properties":{"ef_share":0.0,"ef_tj":0.0}},{"type":"Feature","geometry":{"type":"LineString","coordinates":[[-104.8434,37.47564,10680.0],[-104.64523,37.50038,10670.0]]},"properties":{"ef_share":0.0,"ef_tj":0.0}},{"type":"Feature","geometry":{"type":"LineString","coordinates":[[-104.64523,37.50038,10670.0],[-104.44569,37.52496,10670.0]]},"properties":{"ef_share":0.0,"ef_tj":0.0}},{"type":"Feature","geometry":{"type":"LineString","coordinates":[[-104.44569,37.52496,10670.0],[-104.24688,37.5491,10670.0]]},"properties":{"ef_share":0.0,"ef_tj":0.0}},{"type":"Feature","geometry":{"type":"LineString","coordinates":[[-104.24688,37.5491,10670.0],[-104.04917,37.57274,10670.0]]},"properties":{"ef_share":0.0,"ef_tj":0.0}},{"type":"Feature","geometry":{"type":"LineString","coordinates":[[-104.04917,37.57274,10670.0],[-103.85078,37.59611,10670.0]]},"properties":{"ef_share":0.0,"ef_tj":0.0}},{"type":"Feature","geometry":{"type":"LineString","coordinates":[[-103.85078,37.59611,10670.0],[-103.65352,37.61904,10670.0]]},"properties":{"ef_share":0.0,"ef_tj":0.0}},{"type":"Feature","geometry":{"type":"LineString","coordinates":[[-103.65352,37.61904,10670.0],[-103.45691,37.64152,10670.0]]},"properties":{"ef_share":0.0,"ef_tj":0.0}},{"type":"Feature","geometry":{"type":"LineString","coordinates":[[-103.45691,37.64152,10670.0],[-103.25841,37.66391,10670.0]]},"properties":{"ef_share":0.0,"ef_tj":0.0}},{"type":"Feature","geometry":{"type":"LineString","coordinates":[[-103.25841,37.66391,10670.0],[-103.05915,37.686,10670.0]]},"properties":{"ef_share":0.0,"ef_tj":0.0}},{"type":"Feature","geometry":{"type":"LineString","coordinates":[[-103.05915,37.686,10670.0],[-102.85887,37.70788,10670.0]]},"properties":{"ef_share":0.0,"ef_tj":0.0}},{"type":"Feature","geometry":{"type":"LineString","coordinates":[[-102.85887,37.70788,10670.0],[-102.65756,37.72948,10670.0]]},"properties":{"ef_share":0.0,"ef_tj":0.0}},{"type":"Feature","geometry":{"type":"LineString","coordinates":[[-102.65756,37.72948,10670.0],[-102.45685,37.75069,10670.0]]},"properties":{"ef_share":0.0,"ef_tj":0.0}},{"type":"Feature","geometry":{"type":"LineString","coordinates":[[-102.45685,37.75069,10670.0],[-102.25668,37.77148,10670.0]]},"properties":{"ef_share":0.0,"ef_tj":0.0}},{"type":"Feature","geometry":{"type":"LineString","coordinates":[[-102.25668,37.77148,10670.0],[-102.05567,37.79198,10670.0]]},"properties":{"ef_share":0.0,"ef_tj":0.0}},{"type":"Feature","geometry":{"type":"LineString","coordinates":[[-102.05567,37.79198,10670.0],[-101.85519,37.81211,10670.0]]},"properties":{"ef_share":0.0,"ef_tj":0.0}},{"type":"Feature","geometry":{"type":"LineString","coordinates":[[-101.85519,37.81211,10670.0],[-101.65644,37.8317,10750.0]]},"properties":{"ef_share":0.0,"ef_tj":0.0}},{"type":"Feature","geometry":{"type":"LineString","coordinates":[[-101.65644,37.8317,10750.0],[-101.46047,37.85398,10920.0]]},"properties":{"ef_share":0.0,"ef_tj":0.0}},{"type":"Feature","geometry":{"type":"LineString","coordinates":[[-101.46047,37.85398,10920.0],[-101.27375,37.89483,11280.0]]},"properties":{"ef_share":0.0,"ef_tj":0.0}},{"type":"Feature","geometry":{"type":"LineString","coordinates":[[-101.27375,37.89483,11280.0],[-101.08506,37.93833,11680.0]]},"properties":{"ef_share":0.0,"ef_tj":0.0}},{"type":"Feature","geometry":{"type":"LineString","coordinates":[[-101.08506,37.93833,11680.0],[-100.88663,37.96202,12090.0]]},"properties":{"ef_share":0.0,"ef_tj":0.0}},{"type":"Feature","geometry":{"type":"LineString","coordinates":[[-100.88663,37.96202,12090.0],[-100.68525,37.97707,12490.0]]},"properties":{"ef_share":0.0,"ef_tj":0.0}},{"type":"Feature","geometry":{"type":"LineString","coordinates":[[-100.68525,37.97707,12490.0],[-100.48286,37.99211,12810.0]]},"properties":{"ef_share":0.0,"ef_tj":0.0}},{"type":"Feature","geometry":{"type":"LineString","coordinates":[[-100.48286,37.99211,12810.0],[-100.28399,38.02307,13090.0]]},"properties":{"ef_share":0.0,"ef_tj":0.0}},{"type":"Feature","geometry":{"type":"LineString","coordinates":[[-100.28399,38.02307,13090.0],[-100.08935,38.05877,13380.0]]},"properties":{"ef_share":0.0,"ef_tj":0.0}},{"type":"Feature","geometry":{"type":"LineString","coordinates":[[-100.08935,38.05877,13380.0],[-99.8945,38.08768,13640.0]]},"properties":{"ef_share":0.0,"ef_tj":0.0}},{"type":"Feature","geometry":{"type":"LineString","coordinates":[[-99.8945,38.08768,13640.0],[-99.70202,38.12384,13720.0]]},"properties":{"ef_share":0.0,"ef_tj":0.0}},{"type":"Feature","geometry":{"type":"LineString","coordinates":[[-99.70202,38.12384,13720.0],[-99.50749,38.16024,13720.0]]},"properties":{"ef_share":0.0,"ef_tj":0.0}},{"type":"Feature","geometry":{"type":"LineString","coordinates":[[-99.50749,38.16024,13720.0],[-99.31309,38.19624,13720.0]]},"properties":{"ef_share":0.0,"ef_tj":0.0}},{"type":"Feature","geometry":{"type":"LineString","coordinates":[[-99.31309,38.19624,13720.0],[-99.11846,38.23195,13720.0]]},"properties":{"ef_share":0.0,"ef_tj":0.0}},{"type":"Feature","geometry":{"type":"LineString","coordinates":[[-99.11846,38.23195,13720.0],[-98.92427,38.2672,13720.0]]},"properties":{"ef_share":0.0,"ef_tj":0.0}},{"type":"Feature","geometry":{"type":"LineString","coordinates":[[-98.92427,38.2672,13720.0],[-98.73052,38.30206,13720.0]]},"properties":{"ef_share":0.0,"ef_tj":0.0}},{"type":"Feature","geometry":{"type":"LineString","coordinates":[[-98.73052,38.30206,13720.0],[-98.53629,38.33662,13720.0]]},"properties":{"ef_share":0.0,"ef_tj":0.0}},{"type":"Feature","geometry":{"type":"LineString","coordinates":[[-98.53629,38.33662,13720.0],[-98.34198,38.37084,13720.0]]},"properties":{"ef_share":0.0,"ef_tj":0.0}},{"type":"Feature","geometry":{"type":"LineString","coordinates":[[-98.34198,38.37084,13720.0],[-98.14727,38.40478,13720.0]]},"properties":{"ef_share":0.0,"ef_tj":0.0}},{"type":"Feature","geometry":{"type":"LineString","coordinates":[[-98.14727,38.40478,13720.0],[-97.9527,38.43834,13720.0]]},"properties":{"ef_share":0.0,"ef_tj":0.0}},{"type":"Feature","geometry":{"type":"LineString","coordinates":[[-97.9527,38.43834,13720.0],[-97.75592,38.47192,13720.0]]},"properties":{"ef_share":0.0,"ef_tj":0.0}},{"type":"Feature","geometry":{"type":"LineString","coordinates":[[-97.75592,38.47192,13720.0],[-97.55837,38.50526,13720.0]]},"properties":{"ef_share":0.0,"ef_tj":0.0}},{"type":"Feature","geometry":{"type":"LineString","coordinates":[[-97.55837,38.50526,13720.0],[-97.3611,38.53822,13720.0]]},"properties":{"ef_share":0.0,"ef_tj":0.0}},{"type":"Feature","geometry":{"type":"LineString","coordinates":[[-97.3611,38.53822,13720.0],[-97.1632,38.57088,13720.0]]},"properties":{"ef_share":0.0,"ef_tj":0.0}},{"type":"Feature","geometry":{"type":"LineString","coordinates":[[-97.1632,38.57088,13720.0],[-96.9662,38.60305,13720.0]]},"properties":{"ef_share":0.0,"ef_tj":0.0}},{"type":"Feature","geometry":{"type":"LineString","coordinates":[[-96.9662,38.60305,13720.0],[-96.76909,38.63491,13720.0]]},"properties":{"ef_share":0.0,"ef_tj":0.0}},{"type":"Feature","geometry":{"type":"LineString","coordinates":[[-96.76909,38.63491,13720.0],[-96.57023,38.66662,13720.0]]},"properties":{"ef_share":0.0,"ef_tj":0.0}},{"type":"Feature","geometry":{"type":"LineString","coordinates":[[-96.57023,38.66662,13720.0],[-96.36902,38.69839,13720.0]]},"properties":{"ef_share":0.0,"ef_tj":0.0}},{"type":"Feature","geometry":{"type":"LineString","coordinates":[[-96.36902,38.69839,13720.0],[-96.1677,38.72978,13720.0]]},"properties":{"ef_share":0.0,"ef_tj":0.0}},{"type":"Feature","geometry":{"type":"LineString","coordinates":[[-96.1677,38.72978,13720.0],[-95.96636,38.76079,13720.0]]},"properties":{"ef_share":0.0,"ef_tj":0.0}},{"type":"Feature","geometry":{"type":"LineString","coordinates":[[-95.96636,38.76079,13720.0],[-95.76463,38.7915,13720.0]]},"properties":{"ef_share":0.0,"ef_tj":0.0}},{"type":"Feature","geometry":{"type":"LineString","coordinates":[[-95.76463,38.7915,13720.0],[-95.56295,38.8218,13720.0]]},"properties":{"ef_share":0.0,"ef_tj":0.0}},{"type":"Feature","geometry":{"type":"LineString","coordinates":[[-95.56295,38.8218,13720.0],[-95.36105,38.8518,13720.0]]},"properties":{"ef_share":0.0,"ef_tj":0.0}},{"type":"Feature","geometry":{"type":"LineString","coordinates":[[-95.36105,38.8518,13720.0],[-95.15753,38.88164,13720.0]]},"properties":{"ef_share":0.0,"ef_tj":0.0}},{"type":"Feature","geometry":{"type":"LineString","coordinates":[[-95.15753,38.88164,13720.0],[-94.95432,38.91108,13720.0]]},"properties":{"ef_share":0.0,"ef_tj":0.0}},{"type":"Feature","geometry":{"type":"LineString","coordinates":[[-94.95432,38.91108,13720.0],[-94.75023,38.94023,13720.0]]},"properties":{"ef_share":0.0,"ef_tj":0.0}},{"type":"Feature","geometry":{"type":"LineString","coordinates":[[-94.75023,38.94023,13720.0],[-94.54648,38.969,13720.0]]},"properties":{"ef_share":0.0,"ef_tj":0.0}},{"type":"Feature","geometry":{"type":"LineString","coordinates":[[-94.54648,38.969,13720.0],[-94.34219,38.99742,13720.0]]},"properties":{"ef_share":0.0,"ef_tj":0.0}},{"type":"Feature","geometry":{"type":"LineString","coordinates":[[-94.34219,38.99742,13720.0],[-94.13781,39.02548,13720.0]]},"properties":{"ef_share":0.0,"ef_tj":0.0}},{"type":"Feature","geometry":{"type":"LineString","coordinates":[[-94.13781,39.02548,13720.0],[-93.93395,39.05311,13720.0]]},"properties":{"ef_share":0.0,"ef_tj":0.0}},{"type":"Feature","geometry":{"type":"LineString","coordinates":[[-93.93395,39.05311,13720.0],[-93.72971,39.0804,13720.0]]},"properties":{"ef_share":0.0,"ef_tj":0.0}},{"type":"Feature","geometry":{"type":"LineString","coordinates":[[-93.72971,39.0804,13720.0],[-93.52445,39.10742,13720.0]]},"properties":{"ef_share":0.0,"ef_tj":0.0}},{"type":"Feature","geometry":{"type":"LineString","coordinates":[[-93.52445,39.10742,13720.0],[-93.31797,39.13425,13720.0]]},"properties":{"ef_share":0.0,"ef_tj":0.0}},{"type":"Feature","geometry":{"type":"LineString","coordinates":[[-93.31797,39.13425,13720.0],[-93.11085,39.16077,13720.0]]},"properties":{"ef_share":0.0,"ef_tj":0.0}},{"type":"Feature","geometry":{"type":"LineString","coordinates":[[-93.11085,39.16077,13720.0],[-92.90268,39.18702,13720.0]]},"properties":{"ef_share":0.0,"ef_tj":0.0}},{"type":"Feature","geometry":{"type":"LineString","coordinates":[[-92.90268,39.18702,13720.0],[-92.69404,39.21294,13720.0]]},"properties":{"ef_share":0.0,"ef_tj":0.0}},{"type":"Feature","geometry":{"type":"LineString","coordinates":[[-92.69404,39.21294,13720.0],[-92.48433,39.2386,13720.0]]},"properties":{"ef_share":0.0,"ef_tj":0.0}},{"type":"Feature","geometry":{"type":"LineString","coordinates":[[-92.48433,39.2386,13720.0],[-92.27508,39.26381,13720.0]]},"properties":{"ef_share":0.0,"ef_tj":0.0}},{"type":"Feature","geometry":{"type":"LineString","coordinates":[[-92.27508,39.26381,13720.0],[-92.06531,39.2887,13720.0]]},"properties":{"ef_share":0.0,"ef_tj":0.0}},{"type":"Feature","geometry":{"type":"LineString","coordinates":[[-92.06531,39.2887,13720.0],[-91.85577,39.31318,13720.0]]},"properties":{"ef_share":0.0,"ef_tj":0.0}},{"type":"Feature","geometry":{"type":"LineString","coordinates":[[-91.85577,39.31318,13720.0],[-91.64591,39.33725,13720.0]]},"properties":{"ef_share":0.0,"ef_tj":0.0}},{"type":"Feature","geometry":{"type":"LineString","coordinates":[[-91.64591,39.33725,13720.0],[-91.43829,39.36069,13720.0]]},"properties":{"ef_share":0.0,"ef_tj":0.0}},{"type":"Feature","geometry":{"type":"LineString","coordinates":[[-91.43829,39.36069,13720.0],[-91.2318,39.38364,13720.0]]},"properties":{"ef_share":0.0,"ef_tj":0.0}},{"type":"Feature","geometry":{"type":"LineString","coordinates":[[-91.2318,39.38364,13720.0],[-91.02568,39.40618,13720.0]]},"properties":{"ef_share":0.0,"ef_tj":0.0}},{"type":"Feature","geometry":{"type":"LineString","coordinates":[[-91.02568,39.40618,13720.0],[-90.82085,39.42819,13720.0]]},"properties":{"ef_share":0.0,"ef_tj":0.0}},{"type":"Feature","geometry":{"type":"LineString","coordinates":[[-90.82085,39.42819,13720.0],[-90.61749,39.44964,13720.0]]},"properties":{"ef_share":0.0,"ef_tj":0.0}},{"type":"Feature","geometry":{"type":"LineString","coordinates":[[-90.61749,39.44964,13720.0],[-90.41322,39.47085,13720.0]]},"properties":{"ef_share":0.0,"ef_tj":0.0}},{"type":"Feature","geometry":{"type":"LineString","coordinates":[[-90.41322,39.47085,13720.0],[-90.20857,39.49174,13720.0]]},"properties":{"ef_share":0.0,"ef_tj":0.0}},{"type":"Feature","geometry":{"type":"LineString","coordinates":[[-90.20857,39.49174,13720.0],[-90.00463,39.51213,13720.0]]},"properties":{"ef_share":0.0,"ef_tj":0.0}},{"type":"Feature","geometry":{"type":"LineString","coordinates":[[-90.00463,39.51213,13720.0],[-89.80111,39.53216,13720.0]]},"properties":{"ef_share":0.0,"ef_tj":0.0}},{"type":"Feature","geometry":{"type":"LineString","coordinates":[[-89.80111,39.53216,13720.0],[-89.59656,39.5519,13720.0]]},"properties":{"ef_share":0.0,"ef_tj":0.0}},{"type":"Feature","geometry":{"type":"LineString","coordinates":[[-89.59656,39.5519,13720.0],[-89.39249,39.57125,13720.0]]},"properties":{"ef_share":0.0,"ef_tj":0.0}},{"type":"Feature","geometry":{"type":"LineString","coordinates":[[-89.39249,39.57125,13720.0],[-89.18871,39.59019,13720.0]]},"properties":{"ef_share":0.0,"ef_tj":0.0}},{"type":"Feature","geometry":{"type":"LineString","coordinates":[[-89.18871,39.59019,13720.0],[-88.98453,39.60878,13720.0]]},"properties":{"ef_share":0.0,"ef_tj":0.0}},{"type":"Feature","geometry":{"type":"LineString","coordinates":[[-88.98453,39.60878,13720.0],[-88.77907,39.62712,13720.0]]},"properties":{"ef_share":0.0,"ef_tj":0.0}},{"type":"Feature","geometry":{"type":"LineString","coordinates":[[-88.77907,39.62712,13720.0],[-88.57259,39.64519,13720.0]]},"properties":{"ef_share":0.0,"ef_tj":0.0}},{"type":"Feature","geometry":{"type":"LineString","coordinates":[[-88.57259,39.64519,13720.0],[-88.36581,39.66288,13720.0]]},"properties":{"ef_share":0.0,"ef_tj":0.0}},{"type":"Feature","geometry":{"type":"LineString","coordinates":[[-88.36581,39.66288,13720.0],[-88.15823,39.68031,13720.0]]},"properties":{"ef_share":0.0,"ef_tj":0.0}},{"type":"Feature","geometry":{"type":"LineString","coordinates":[[-88.15823,39.68031,13720.0],[-87.95146,39.70338,13720.0]]},"properties":{"ef_share":0.0,"ef_tj":0.0}},{"type":"Feature","geometry":{"type":"LineString","coordinates":[[-87.95146,39.70338,13720.0],[-87.75342,39.75557,13720.0]]},"properties":{"ef_share":0.0,"ef_tj":0.0}},{"type":"Feature","geometry":{"type":"LineString","coordinates":[[-87.75342,39.75557,13720.0],[-87.55636,39.81198,13720.0]]},"properties":{"ef_share":0.0,"ef_tj":0.0}},{"type":"Feature","geometry":{"type":"LineString","coordinates":[[-87.55636,39.81198,13720.0],[-87.3583,39.86821,13720.0]]},"properties":{"ef_share":0.0,"ef_tj":0.0}},{"type":"Feature","geometry":{"type":"LineString","coordinates":[[-87.3583,39.86821,13720.0],[-87.15917,39.92431,13720.0]]},"properties":{"ef_share":0.0,"ef_tj":0.0}},{"type":"Feature","geometry":{"type":"LineString","coordinates":[[-87.15917,39.92431,13720.0],[-86.95875,39.9803,13720.0]]},"properties":{"ef_share":0.0,"ef_tj":0.0}},{"type":"Feature","geometry":{"type":"LineString","coordinates":[[-86.95875,39.9803,13720.0],[-86.75752,40.03612,13720.0]]},"properties":{"ef_share":0.0,"ef_tj":0.0}},{"type":"Feature","geometry":{"type":"LineString","coordinates":[[-86.75752,40.03612,13720.0],[-86.55574,40.09163,13720.0]]},"properties":{"ef_share":0.0,"ef_tj":0.0}},{"type":"Feature","geometry":{"type":"LineString","coordinates":[[-86.55574,40.09163,13720.0],[-86.35329,40.14685,13720.0]]},"properties":{"ef_share":0.0,"ef_tj":0.0}},{"type":"Feature","geometry":{"type":"LineString","coordinates":[[-86.35329,40.14685,13720.0],[-86.15103,40.20162,13720.0]]},"properties":{"ef_share":0.0,"ef_tj":0.0}},{"type":"Feature","geometry":{"type":"LineString","coordinates":[[-86.15103,40.20162,13720.0],[-85.94926,40.25583,13720.0]]},"properties":{"ef_share":0.0,"ef_tj":0.0}},{"type":"Feature","geometry":{"type":"LineString","coordinates":[[-85.94926,40.25583,13720.0],[-85.74765,40.30955,13720.0]]},"properties":{"ef_share":0.0,"ef_tj":0.0}},{"type":"Feature","geometry":{"type":"LineString","coordinates":[[-85.74765,40.30955,13720.0],[-85.5472,40.36251,13720.0]]},"properties":{"ef_share":0.0,"ef_tj":0.0}},{"type":"Feature","geometry":{"type":"LineString","coordinates":[[-85.5472,40.36251,13720.0],[-85.34801,40.41475,13720.0]]},"properties":{"ef_share":0.0,"ef_tj":0.0}},{"type":"Feature","geometry":{"type":"LineString","coordinates":[[-85.34801,40.41475,13720.0],[-85.15018,40.4661,13720.0]]},"properties":{"ef_share":0.0,"ef_tj":0.0}},{"type":"Feature","geometry":{"type":"LineString","coordinates":[[-85.15018,40.4661,13720.0],[-84.95099,40.5175,13720.0]]},"properties":{"ef_share":0.0,"ef_tj":0.0}},{"type":"Feature","geometry":{"type":"LineString","coordinates":[[-84.95099,40.5175,13720.0],[-84.75141,40.56856,13720.0]]},"properties":{"ef_share":0.0,"ef_tj":0.0}},{"type":"Feature","geometry":{"type":"LineString","coordinates":[[-84.75141,40.56856,13720.0],[-84.5498,40.61971,13720.0]]},"properties":{"ef_share":0.0,"ef_tj":0.0}},{"type":"Feature","geometry":{"type":"LineString","coordinates":[[-84.5498,40.61971,13720.0],[-84.34708,40.67071,13720.0]]},"properties":{"ef_share":0.0,"ef_tj":0.0}},{"type":"Feature","geometry":{"type":"LineString","coordinates":[[-84.34708,40.67071,13720.0],[-84.1422,40.72175,13720.0]]},"properties":{"ef_share":0.0,"ef_tj":0.0}},{"type":"Feature","geometry":{"type":"LineString","coordinates":[[-84.1422,40.72175,13720.0],[-83.93654,40.77263,13720.0]]},"properties":{"ef_share":0.0,"ef_tj":0.0}},{"type":"Feature","geometry":{"type":"LineString","coordinates":[[-83.93654,40.77263,13720.0],[-83.73052,40.8231,13720.0]]},"properties":{"ef_share":0.0,"ef_tj":0.0}},{"type":"Feature","geometry":{"type":"LineString","coordinates":[[-83.73052,40.8231,13720.0],[-83.52499,40.87298,13720.0]]},"properties":{"ef_share":0.0,"ef_tj":0.0}},{"type":"Feature","geometry":{"type":"LineString","coordinates":[[-83.52499,40.87298,13720.0],[-83.31962,40.92245,13720.0]]},"properties":{"ef_share":0.0,"ef_tj":0.0}},{"type":"Feature","geometry":{"type":"LineString","coordinates":[[-83.31962,40.92245,13720.0],[-83.11304,40.97172,13720.0]]},"properties":{"ef_share":0.0,"ef_tj":0.0}},{"type":"Feature","geometry":{"type":"LineString","coordinates":[[-83.11304,40.97172,13720.0],[-82.90457,41.02102,13720.0]]},"properties":{"ef_share":0.0,"ef_tj":0.0}},{"type":"Feature","geometry":{"type":"LineString","coordinates":[[-82.90457,41.02102,13720.0],[-82.69381,41.07038,13720.0]]},"properties":{"ef_share":0.0,"ef_tj":0.0}},{"type":"Feature","geometry":{"type":"LineString","coordinates":[[-82.69381,41.07038,13720.0],[-82.48183,41.11955,13720.0]]},"properties":{"ef_share":0.0,"ef_tj":0.0}},{"type":"Feature","geometry":{"type":"LineString","coordinates":[[-82.48183,41.11955,13720.0],[-82.26971,41.16831,13720.0]]},"properties":{"ef_share":0.0,"ef_tj":0.0}},{"type":"Feature","geometry":{"type":"LineString","coordinates":[[-82.26971,41.16831,13720.0],[-82.05935,41.21622,13720.0]]},"properties":{"ef_share":0.0,"ef_tj":0.0}},{"type":"Feature","geometry":{"type":"LineString","coordinates":[[-82.05935,41.21622,13720.0],[-81.8496,41.26353,13720.0]]},"properties":{"ef_share":0.0,"ef_tj":0.0}},{"type":"Feature","geometry":{"type":"LineString","coordinates":[[-81.8496,41.26353,13720.0],[-81.63904,41.31058,13720.0]]},"properties":{"ef_share":0.0,"ef_tj":0.0}},{"type":"Feature","geometry":{"type":"LineString","coordinates":[[-81.63904,41.31058,13720.0],[-81.42775,41.35734,13720.0]]},"properties":{"ef_share":0.0,"ef_tj":0.0}},{"type":"Feature","geometry":{"type":"LineString","coordinates":[[-81.42775,41.35734,13720.0],[-81.21631,41.40368,13720.0]]},"properties":{"ef_share":0.0,"ef_tj":0.0}},{"type":"Feature","geometry":{"type":"LineString","coordinates":[[-81.21631,41.40368,13720.0],[-81.00406,41.44971,13720.0]]},"properties":{"ef_share":0.0,"ef_tj":0.0}},{"type":"Feature","geometry":{"type":"LineString","coordinates":[[-81.00406,41.44971,13720.0],[-80.79213,41.49525,13720.0]]},"properties":{"ef_share":0.0,"ef_tj":0.0}},{"type":"Feature","geometry":{"type":"LineString","coordinates":[[-80.79213,41.49525,13720.0],[-80.58007,41.54034,13720.0]]},"properties":{"ef_share":0.0,"ef_tj":0.0}},{"type":"Feature","geometry":{"type":"LineString","coordinates":[[-80.58007,41.54034,13720.0],[-80.36798,41.585,13720.0]]},"properties":{"ef_share":0.0,"ef_tj":0.0}},{"type":"Feature","geometry":{"type":"LineString","coordinates":[[-80.36798,41.585,13720.0],[-80.15545,41.62927,13720.0]]},"properties":{"ef_share":0.0,"ef_tj":0.0}},{"type":"Feature","geometry":{"type":"LineString","coordinates":[[-80.15545,41.62927,13720.0],[-79.94203,41.6733,13720.0]]},"properties":{"ef_share":0.0,"ef_tj":0.0}},{"type":"Feature","geometry":{"type":"LineString","coordinates":[[-79.94203,41.6733,13720.0],[-79.72824,41.71693,13720.0]]},"properties":{"ef_share":0.0,"ef_tj":0.0}},{"type":"Feature","geometry":{"type":"LineString","coordinates":[[-79.72824,41.71693,13720.0],[-79.51468,41.76009,13720.0]]},"properties":{"ef_share":0.0,"ef_tj":0.0}},{"type":"Feature","geometry":{"type":"LineString","coordinates":[[-79.51468,41.76009,13720.0],[-79.3011,41.80275,13720.0]]},"properties":{"ef_share":0.0,"ef_tj":0.0}},{"type":"Feature","geometry":{"type":"LineString","coordinates":[[-79.3011,41.80275,13720.0],[-79.08708,41.84507,13720.0]]},"properties":{"ef_share":0.0,"ef_tj":0.0}},{"type":"Feature","geometry":{"type":"LineString","coordinates":[[-79.08708,41.84507,13720.0],[-78.87196,41.88716,13720.0]]},"properties":{"ef_share":0.0,"ef_tj":0.0}},{"type":"Feature","geometry":{"type":"LineString","coordinates":[[-78.87196,41.88716,13720.0],[-78.65675,41.92879,13720.0]]},"properties":{"ef_share":0.0,"ef_tj":0.0}},{"type":"Feature","geometry":{"type":"LineString","coordinates":[[-78.65675,41.92879,13720.0],[-78.44107,41.97006,13720.0]]},"properties":{"ef_share":0.0,"ef_tj":0.0}},{"type":"Feature","geometry":{"type":"LineString","coordinates":[[-78.44107,41.97006,13720.0],[-78.2253,42.01089,13720.0]]},"properties":{"ef_share":0.0,"ef_tj":0.0}},{"type":"Feature","geometry":{"type":"LineString","coordinates":[[-78.2253,42.01089,13720.0],[-78.00877,42.05144,13720.0]]},"properties":{"ef_share":0.0,"ef_tj":0.0}},{"type":"Feature","geometry":{"type":"LineString","coordinates":[[-78.00877,42.05144,13720.0],[-77.79361,42.09122,13720.0]]},"properties":{"ef_share":0.0,"ef_tj":0.0}},{"type":"Feature","geometry":{"type":"LineString","coordinates":[[-77.79361,42.09122,13720.0],[-77.57942,42.13041,13720.0]]},"properties":{"ef_share":0.0,"ef_tj":0.0}},{"type":"Feature","geometry":{"type":"LineString","coordinates":[[-77.57942,42.13041,13720.0],[-77.3642,42.16931,13720.0]]},"properties":{"ef_share":0.0,"ef_tj":0.0}},{"type":"Feature","geometry":{"type":"LineString","coordinates":[[-77.3642,42.16931,13720.0],[-77.14895,42.20775,13720.0]]},"properties":{"ef_share":0.0,"ef_tj":0.0}},{"type":"Feature","geometry":{"type":"LineString","coordinates":[[-77.14895,42.20775,13720.0],[-76.93198,42.24608,13720.0]]},"properties":{"ef_share":0.0,"ef_tj":0.0}},{"type":"Feature","geometry":{"type":"LineString","coordinates":[[-76.93198,42.24608,13720.0],[-76.71551,42.28383,13720.0]]},"properties":{"ef_share":0.0,"ef_tj":0.0}},{"type":"Feature","geometry":{"type":"LineString","coordinates":[[-76.71551,42.28383,13720.0],[-76.49713,42.32151,13720.0]]},"properties":{"ef_share":0.0,"ef_tj":0.0}},{"type":"Feature","geometry":{"type":"LineString","coordinates":[[-76.49713,42.32151,13720.0],[-76.27881,42.35867,13720.0]]},"properties":{"ef_share":0.0,"ef_tj":0.0}},{"type":"Feature","geometry":{"type":"LineString","coordinates":[[-76.27881,42.35867,13720.0],[-76.05915,42.3956,13720.0]]},"properties":{"ef_share":0.0,"ef_tj":0.0}},{"type":"Feature","geometry":{"type":"LineString","coordinates":[[-76.05915,42.3956,13720.0],[-75.83986,42.43203,13720.0]]},"properties":{"ef_share":0.0,"ef_tj":0.0}},{"type":"Feature","geometry":{"type":"LineString","coordinates":[[-75.83986,42.43203,13720.0],[-75.62074,42.46796,13720.0]]},"properties":{"ef_share":0.0,"ef_tj":0.0}},{"type":"Feature","geometry":{"type":"LineString","coordinates":[[-75.62074,42.46796,13720.0],[-75.40858,42.50231,13720.0]]},"properties":{"ef_share":0.0,"ef_tj":0.0}},{"type":"Feature","geometry":{"type":"LineString","coordinates":[[-75.40858,42.50231,13720.0],[-75.20928,42.53418,13460.0]]},"properties":{"ef_share":0.0,"ef_tj":0.0}},{"type":"Feature","geometry":{"type":"LineString","coordinates":[[-75.20928,42.53418,13460.0],[-75.01711,42.56456,13160.0]]},"properties":{"ef_share":0.0,"ef_tj":0.0}},{"type":"Feature","geometry":{"type":"LineString","coordinates":[[-75.01711,42.56456,13160.0],[-74.82165,42.59508,12750.0]]},"properties":{"ef_share":0.0,"ef_tj":0.0}},{"type":"Feature","geometry":{"type":"LineString","coordinates":[[-74.82165,42.59508,12750.0],[-74.62129,42.624,12010.0]]},"properties":{"ef_share":0.0,"ef_tj":0.0}},{"type":"Feature","geometry":{"type":"LineString","coordinates":[[-74.62129,42.624,12010.0],[-74.41902,42.63371,11890.0]]},"properties":{"ef_share":0.0,"ef_tj":0.0}},{"type":"Feature","geometry":{"type":"LineString","coordinates":[[-74.41902,42.63371,11890.0],[-74.21573,42.64081,11640.0]]},"properties":{"ef_share":0.0,"ef_tj":0.0}},{"type":"Feature","geometry":{"type":"LineString","coordinates":[[-74.21573,42.64081,11640.0],[-73.99386,42.64814,11330.0]]},"properties":{"ef_share":0.0,"ef_tj":0.0}},{"type":"Feature","geometry":{"type":"LineString","coordinates":[[-73.99386,42.64814,11330.0],[-73.76028,42.65555,11040.0]]},"properties":{"ef_share":0.0,"ef_tj":0.0}},{"type":"Feature","geometry":{"type":"LineString","coordinates":[[-73.76028,42.65555,11040.0],[-73.5297,42.66232,10420.0]]},"properties":{"ef_share":0.0,"ef_tj":0.0}},{"type":"Feature","geometry":{"type":"LineString","coordinates":[[-73.5297,42.66232,10420.0],[-73.30395,42.66853,9620.0]]},"properties":{"ef_share":0.0,"ef_tj":0.0}},{"type":"Feature","geometry":{"type":"LineString","coordinates":[[-73.30395,42.66853,9620.0],[-73.08899,42.67399,8850.0]]},"properties":{"ef_share":0.0,"ef_tj":0.0}},{"type":"Feature","geometry":{"type":"LineString","coordinates":[[-73.08899,42.67399,8850.0],[-72.88507,42.67878,8110.0]]},"properties":{"ef_share":0.0,"ef_tj":0.0}},{"type":"Feature","geometry":{"type":"LineString","coordinates":[[-72.88507,42.67878,8110.0],[-72.69219,42.68289,7500.0]]},"properties":{"ef_share":0.0,"ef_tj":0.0}},{"type":"Feature","geometry":{"type":"LineString","coordinates":[[-72.69219,42.68289,7500.0],[-72.51215,42.67006,6980.0]]},"properties":{"ef_share":0.0,"ef_tj":0.0}},{"type":"Feature","geometry":{"type":"LineString","coordinates":[[-72.51215,42.67006,6980.0],[-72.34878,42.64991,6500.0]]},"properties":{"ef_share":0.0,"ef_tj":0.0}},{"type":"Feature","geometry":{"type":"LineString","coordinates":[[-72.34878,42.64991,6500.0],[-72.19099,42.63132,5930.0]]},"properties":{"ef_share":0.0,"ef_tj":0.0}},{"type":"Feature","geometry":{"type":"LineString","coordinates":[[-72.19099,42.63132,5930.0],[-72.03577,42.61316,5300.0]]},"properties":{"ef_share":0.0,"ef_tj":0.0}},{"type":"Feature","geometry":{"type":"LineString","coordinates":[[-72.03577,42.61316,5300.0],[-71.88504,42.59449,4730.0]]},"properties":{"ef_share":0.0,"ef_tj":0.0}},{"type":"Feature","geometry":{"type":"LineString","coordinates":[[-71.88504,42.59449,4730.0],[-71.73992,42.57405,4180.0]]},"properties":{"ef_share":0.0,"ef_tj":0.0}},{"type":"Feature","geometry":{"type":"LineString","coordinates":[[-71.73992,42.57405,4180.0],[-71.60051,42.55163,3650.0]]},"properties":{"ef_share":0.0,"ef_tj":0.0}},{"type":"Feature","geometry":{"type":"LineString","coordinates":[[-71.60051,42.55163,3650.0],[-71.46922,42.5286,3470.0]]},"properties":{"ef_share":0.0,"ef_tj":0.0}},{"type":"Feature","geometry":{"type":"LineString","coordinates":[[-71.46922,42.5286,3470.0],[-71.34753,42.51182,2980.0]]},"properties":{"ef_share":0.0,"ef_tj":0.0}},{"type":"Feature","geometry":{"type":"LineString","coordinates":[[-71.34753,42.51182,2980.0],[-71.23173,42.50168,2500.0]]},"properties":{"ef_share":0.0,"ef_tj":0.0}},{"type":"Feature","geometry":{"type":"LineString","coordinates":[[-71.23173,42.50168,2500.0],[-71.12075,42.49153,2390.0]]},"properties":{"ef_share":0.0,"ef_tj":0.0}},{"type":"Feature","geometry":{"type":"LineString","coordinates":[[-71.12075,42.49153,2390.0],[-71.02063,42.48216,2340.0]]},"properties":{"ef_share":0.0,"ef_tj":0.0}},{"type":"Feature","geometry":{"type":"LineString","coordinates":[[-71.02063,42.48216,2340.0],[-70.94965,42.44308,2060.0]]},"properties":{"ef_share":0.0,"ef_tj":0.0}},{"type":"Feature","geometry":{"type":"LineString","coordinates":[[-70.94965,42.44308,2060.0],[-70.89021,42.3941,1810.0]]},"properties":{"ef_share":0.0,"ef_tj":0.0}},{"type":"Feature","geometry":{"type":"LineString","coordinates":[[-70.89021,42.3941,1810.0],[-70.83225,42.34517,1370.0]]},"properties":{"ef_share":0.0,"ef_tj":0.0}},{"type":"Feature","geometry":{"type":"LineString","coordinates":[[-70.83225,42.34517,1370.0],[-70.77664,42.29653,950.0]]},"properties":{"ef_share":0.0,"ef_tj":0.0}},{"type":"Feature","geometry":{"type":"LineString","coordinates":[[-70.77664,42.29653,950.0],[-70.80678,42.25112,870.0]]},"properties":{"ef_share":0.0,"ef_tj":0.0}},{"type":"Feature","geometry":{"type":"LineString","coordinates":[[-70.80678,42.25112,870.0],[-70.86307,42.24705,810.0]]},"properties":{"ef_share":0.0,"ef_tj":0.0}},{"type":"Feature","geometry":{"type":"LineString","coordinates":[[-70.86307,42.24705,810.0],[-70.91071,42.27709,550.0]]},"properties":{"ef_share":0.0,"ef_tj":0.0}},{"type":"Feature","geometry":{"type":"LineString","coordinates":[[-70.91071,42.27709,550.0],[-70.94634,42.30356,340.0]]},"properties":{"ef_share":0.0,"ef_tj":0.0}},{"type":"Feature","geometry":{"type":"LineString","coordinates":[[-70.94634,42.30356,340.0],[-70.97307,42.32729,170.0]]},"properties":{"ef_share":0.0,"ef_tj":0.0}},{"type":"Feature","geometry":{"type":"LineString","coordinates":[[-70.97307,42.32729,170.0],[-71.00555,42.34716,-20.0]]},"properties":{"ef_share":0.0,"ef_tj":0.0}}]}