{"type":"FeatureCollection","properties":{"icao24":"aa3410","registration":"N757AF","owner_label":"Donald Trump","combined_co2e_central":38030.8,"fuel_co2_kg":37966.9,"contrail_co2e_central":63.9,"tier":"high"},"features":[{"type":"Feature","geometry":{"type":"LineString","coordinates":[[-73.86922,40.82424,710.0],[-73.92032,40.87165,1820.0]]},"properties":{"ef_share":0.0,"ef_tj":0.0}},{"type":"Feature","geometry":{"type":"LineString","coordinates":[[-73.92032,40.87165,1820.0],[-73.99548,40.86682,3010.0]]},"properties":{"ef_share":0.0,"ef_tj":0.0}},{"type":"Feature","geometry":{"type":"LineString","coordinates":[[-73.99548,40.86682,3010.0],[-74.03106,40.78637,3460.0]]},"properties":{"ef_share":0.0,"ef_tj":0.0}},{"type":"Feature","geometry":{"type":"LineString","coordinates":[[-74.03106,40.78637,3460.0],[-74.08006,40.70281,3470.0]]},"properties":{"ef_share":0.0,"ef_tj":0.0}},{"type":"Feature","geometry":{"type":"LineString","coordinates":[[-74.08006,40.70281,3470.0],[-74.15294,40.6336,4070.0]]},"properties":{"ef_share":0.0,"ef_tj":0.0}},{"type":"Feature","geometry":{"type":"LineString","coordinates":[[-74.15294,40.6336,4070.0],[-74.19313,40.54256,4910.0]]},"properties":{"ef_share":0.0,"ef_tj":0.0}},{"type":"Feature","geometry":{"type":"LineString","coordinates":[[-74.19313,40.54256,4910.0],[-74.14871,40.43286,4980.0]]},"properties":{"ef_share":0.0,"ef_tj":0.0}},{"type":"Feature","geometry":{"type":"LineString","coordinates":[[-74.14871,40.43286,4980.0],[-74.12321,40.32802,4980.0]]},"properties":{"ef_share":0.0,"ef_tj":0.0}},{"type":"Feature","geometry":{"type":"LineString","coordinates":[[-74.12321,40.32802,4980.0],[-74.1538,40.23522,4980.0]]},"properties":{"ef_share":0.0,"ef_tj":0.0}},{"type":"Feature","geometry":{"type":"LineString","coordinates":[[-74.1538,40.23522,4980.0],[-74.19305,40.14497,4980.0]]},"properties":{"ef_share":0.0,"ef_tj":0.0}},{"type":"Feature","geometry":{"type":"LineString","coordinates":[[-74.19305,40.14497,4980.0],[-74.24355,40.06163,5320.0]]},"properties":{"ef_share":0.0,"ef_tj":0.0}},{"type":"Feature","geometry":{"type":"LineString","coordinates":[[-74.24355,40.06163,5320.0],[-74.34265,40.02011,5610.0]]},"properties":{"ef_share":0.0,"ef_tj":0.0}},{"type":"Feature","geometry":{"type":"LineString","coordinates":[[-74.34265,40.02011,5610.0],[-74.44733,39.98357,6490.0]]},"properties":{"ef_share":0.0,"ef_tj":0.0}},{"type":"Feature","geometry":{"type":"LineString","coordinates":[[-74.44733,39.98357,6490.0],[-74.53492,39.91918,7230.0]]},"properties":{"ef_share":0.0,"ef_tj":0.0}},{"type":"Feature","geometry":{"type":"LineString","coordinates":[[-74.53492,39.91918,7230.0],[-74.57017,39.81602,7330.0]]},"properties":{"ef_share":0.0,"ef_tj":0.0}},{"type":"Feature","geometry":{"type":"LineString","coordinates":[[-74.57017,39.81602,7330.0],[-74.6422,39.73361,7710.0]]},"properties":{"ef_share":0.0,"ef_tj":0.0}},{"type":"Feature","geometry":{"type":"LineString","coordinates":[[-74.6422,39.73361,7710.0],[-74.72736,39.65585,8340.0]]},"properties":{"ef_share":0.0,"ef_tj":0.0}},{"type":"Feature","geometry":{"type":"LineString","coordinates":[[-74.72736,39.65585,8340.0],[-74.8175,39.5728,8710.0]]},"properties":{"ef_share":0.0,"ef_tj":0.0}},{"type":"Feature","geometry":{"type":"LineString","coordinates":[[-74.8175,39.5728,8710.0],[-74.91064,39.48643,9360.0]]},"properties":{"ef_share":0.0,"ef_tj":0.0}},{"type":"Feature","geometry":{"type":"LineString","coordinates":[[-74.91064,39.48643,9360.0],[-75.00034,39.40319,10230.0]]},"properties":{"ef_share":0.0,"ef_tj":0.0}},{"type":"Feature","geometry":{"type":"LineString","coordinates":[[-75.00034,39.40319,10230.0],[-75.08569,39.32419,10910.0]]},"properties":{"ef_share":0.0,"ef_tj":0.0}},{"type":"Feature","geometry":{"type":"LineString","coordinates":[[-75.08569,39.32419,10910.0],[-75.1727,39.25123,11430.0]]},"properties":{"ef_share":0.0,"ef_tj":0.0}},{"type":"Feature","geometry":{"type":"LineString","coordinates":[[-75.1727,39.25123,11430.0],[-75.26191,39.1802,11760.0]]},"properties":{"ef_share":0.0,"ef_tj":0.0}},{"type":"Feature","geometry":{"type":"LineString","coordinates":[[-75.26191,39.1802,11760.0],[-75.3522,39.10779,12040.0]]},"properties":{"ef_share":0.0,"ef_tj":0.0}},{"type":"Feature","geometry":{"type":"LineString","coordinates":[[-75.3522,39.10779,12040.0],[-75.43547,39.02813,12210.0]]},"properties":{"ef_share":0.0,"ef_tj":0.0}},{"type":"Feature","geometry":{"type":"LineString","coordinates":[[-75.43547,39.02813,12210.0],[-75.45672,38.91112,12210.0]]},"properties":{"ef_share":0.0,"ef_tj":0.0}},{"type":"Feature","geometry":{"type":"LineString","coordinates":[[-75.45672,38.91112,12210.0],[-75.49329,38.79903,12210.0]]},"properties":{"ef_share":0.0,"ef_tj":0.0}},{"type":"Feature","geometry":{"type":"LineString","coordinates":[[-75.49329,38.79903,12210.0],[-75.55736,38.69943,12210.0]]},"properties":{"ef_share":0.0,"ef_tj":0.0}},{"type":"Feature","geometry":{"type":"LineString","coordinates":[[-75.55736,38.69943,12210.0],[-75.62215,38.59956,12210.0]]},"properties":{"ef_share":0.0,"ef_tj":0.0}},{"type":"Feature","geometry":{"type":"LineString","coordinates":[[-75.62215,38.59956,12210.0],[-75.68607,38.49876,12210.0]]},"properties":{"ef_share":0.0,"ef_tj":0.0}},{"type":"Feature","geometry":{"type":"LineString","coordinates":[[-75.68607,38.49876,12210.0],[-75.75006,38.39752,12210.0]]},"properties":{"ef_share":0.0,"ef_tj":0.0}},{"type":"Feature","geometry":{"type":"LineString","coordinates":[[-75.75006,38.39752,12210.0],[-75.81379,38.29686,12210.0]]},"properties":{"ef_share":0.0,"ef_tj":0.0}},{"type":"Feature","geometry":{"type":"LineString","coordinates":[[-75.81379,38.29686,12210.0],[-75.87757,38.19582,12210.0]]},"properties":{"ef_share":0.0,"ef_tj":0.0}},{"type":"Feature","geometry":{"type":"LineString","coordinates":[[-75.87757,38.19582,12210.0],[-75.94074,38.09534,12210.0]]},"properties":{"ef_share":0.0,"ef_tj":0.0}},{"type":"Feature","geometry":{"type":"LineString","coordinates":[[-75.94074,38.09534,12210.0],[-76.00354,37.99511,12210.0]]},"properties":{"ef_share":0.0,"ef_tj":0.0}},{"type":"Feature","geometry":{"type":"LineString","coordinates":[[-76.00354,37.99511,12210.0],[-76.06628,37.89483,12210.0]]},"properties":{"ef_share":0.0,"ef_tj":0.0}},{"type":"Feature","geometry":{"type":"LineString","coordinates":[[-76.06628,37.89483,12210.0],[-76.12897,37.79415,12210.0]]},"properties":{"ef_share":0.0,"ef_tj":0.0}},{"type":"Feature","geometry":{"type":"LineString","coordinates":[[-76.12897,37.79415,12210.0],[-76.19152,37.69341,12210.0]]},"properties":{"ef_share":0.0,"ef_tj":0.0}},{"type":"Feature","geometry":{"type":"LineString","coordinates":[[-76.19152,37.69341,12210.0],[-76.25408,37.59232,12210.0]]},"properties":{"ef_share":0.0,"ef_tj":0.0}},{"type":"Feature","geometry":{"type":"LineString","coordinates":[[-76.25408,37.59232,12210.0],[-76.31636,37.49142,12210.0]]},"properties":{"ef_share":0.0,"ef_tj":0.0}},{"type":"Feature","geometry":{"type":"LineString","coordinates":[[-76.31636,37.49142,12210.0],[-76.37804,37.39129,12210.0]]},"properties":{"ef_share":0.0,"ef_tj":0.0}},{"type":"Feature","geometry":{"type":"LineString","coordinates":[[-76.37804,37.39129,12210.0],[-76.43916,37.2917,12210.0]]},"properties":{"ef_share":0.0,"ef_tj":0.0}},{"type":"Feature","geometry":{"type":"LineString","coordinates":[[-76.43916,37.2917,12210.0],[-76.49895,37.19383,12210.0]]},"properties":{"ef_share":0.0,"ef_tj":0.0}},{"type":"Feature","geometry":{"type":"LineString","coordinates":[[-76.49895,37.19383,12210.0],[-76.5567,37.09937,12210.0]]},"properties":{"ef_share":0.0,"ef_tj":0.0}},{"type":"Feature","geometry":{"type":"LineString","coordinates":[[-76.5567,37.09937,12210.0],[-76.61348,37.00624,12210.0]]},"properties":{"ef_share":0.0,"ef_tj":0.0}},{"type":"Feature","geometry":{"type":"LineString","coordinates":[[-76.61348,37.00624,12210.0],[-76.67013,36.91268,12210.0]]},"properties":{"ef_share":0.0,"ef_tj":0.0}},{"type":"Feature","geometry":{"type":"LineString","coordinates":[[-76.67013,36.91268,12210.0],[-76.72702,36.81868,12210.0]]},"properties":{"ef_share":0.0,"ef_tj":0.0}},{"type":"Feature","geometry":{"type":"LineString","coordinates":[[-76.72702,36.81868,12210.0],[-76.78411,36.72405,12210.0]]},"properties":{"ef_share":0.0,"ef_tj":0.0}},{"type":"Feature","geometry":{"type":"LineString","coordinates":[[-76.78411,36.72405,12210.0],[-76.84139,36.62884,12210.0]]},"properties":{"ef_share":0.0,"ef_tj":0.0}},{"type":"Feature","geometry":{"type":"LineString","coordinates":[[-76.84139,36.62884,12210.0],[-76.89842,36.53375,12210.0]]},"properties":{"ef_share":0.0,"ef_tj":0.0}},{"type":"Feature","geometry":{"type":"LineString","coordinates":[[-76.89842,36.53375,12210.0],[-76.9554,36.43852,12210.0]]},"properties":{"ef_share":0.0,"ef_tj":0.0}},{"type":"Feature","geometry":{"type":"LineString","coordinates":[[-76.9554,36.43852,12210.0],[-77.01229,36.34323,12210.0]]},"properties":{"ef_share":0.0,"ef_tj":0.0}},{"type":"Feature","geometry":{"type":"LineString","coordinates":[[-77.01229,36.34323,12210.0],[-77.06915,36.24768,12210.0]]},"properties":{"ef_share":0.0,"ef_tj":0.0}},{"type":"Feature","geometry":{"type":"LineString","coordinates":[[-77.06915,36.24768,12210.0],[-77.12569,36.15243,12210.0]]},"properties":{"ef_share":0.0,"ef_tj":0.0}},{"type":"Feature","geometry":{"type":"LineString","coordinates":[[-77.12569,36.15243,12210.0],[-77.18186,36.05753,12210.0]]},"properties":{"ef_share":0.0,"ef_tj":0.0}},{"type":"Feature","geometry":{"type":"LineString","coordinates":[[-77.18186,36.05753,12210.0],[-77.23799,35.96263,12210.0]]},"properties":{"ef_share":0.0,"ef_tj":0.0}},{"type":"Feature","geometry":{"type":"LineString","coordinates":[[-77.23799,35.96263,12210.0],[-77.30698,35.87764,12210.0]]},"properties":{"ef_share":0.0,"ef_tj":0.0}},{"type":"Feature","geometry":{"type":"LineString","coordinates":[[-77.30698,35.87764,12210.0],[-77.38335,35.79849,12210.0]]},"properties":{"ef_share":0.0,"ef_tj":0.0}},{"type":"Feature","geometry":{"type":"LineString","coordinates":[[-77.38335,35.79849,12210.0],[-77.45942,35.71937,12210.0]]},"properties":{"ef_share":0.0,"ef_tj":0.0}},{"type":"Feature","geometry":{"type":"LineString","coordinates":[[-77.45942,35.71937,12210.0],[-77.53565,35.63994,12210.0]]},"properties":{"ef_share":0.0,"ef_tj":0.0}},{"type":"Feature","geometry":{"type":"LineString","coordinates":[[-77.53565,35.63994,12210.0],[-77.61169,35.56051,12210.0]]},"properties":{"ef_share":0.0,"ef_tj":0.0}},{"type":"Feature","geometry":{"type":"LineString","coordinates":[[-77.61169,35.56051,12210.0],[-77.68794,35.48069,12210.0]]},"properties":{"ef_share":0.0,"ef_tj":0.0}},{"type":"Feature","geometry":{"type":"LineString","coordinates":[[-77.68794,35.48069,12210.0],[-77.76458,35.40024,12210.0]]},"properties":{"ef_share":0.0,"ef_tj":0.0}},{"type":"Feature","geometry":{"type":"LineString","coordinates":[[-77.76458,35.40024,12210.0],[-77.84235,35.31836,12210.0]]},"properties":{"ef_share":0.0,"ef_tj":0.0}},{"type":"Feature","geometry":{"type":"LineString","coordinates":[[-77.84235,35.31836,12210.0],[-77.92075,35.23555,12210.0]]},"properties":{"ef_share":0.0,"ef_tj":0.0}},{"type":"Feature","geometry":{"type":"LineString","coordinates":[[-77.92075,35.23555,12210.0],[-77.99948,35.1522,12210.0]]},"properties":{"ef_share":0.0,"ef_tj":0.0}},{"type":"Feature","geometry":{"type":"LineString","coordinates":[[-77.99948,35.1522,12210.0],[-78.07831,35.06854,12210.0]]},"properties":{"ef_share":0.0,"ef_tj":0.0}},{"type":"Feature","geometry":{"type":"LineString","coordinates":[[-78.07831,35.06854,12210.0],[-78.15708,34.9848,12210.0]]},"properties":{"ef_share":0.0,"ef_tj":0.0}},{"type":"Feature","geometry":{"type":"LineString","coordinates":[[-78.15708,34.9848,12210.0],[-78.23576,34.90085,12210.0]]},"properties":{"ef_share":0.0,"ef_tj":0.0}},{"type":"Feature","geometry":{"type":"LineString","coordinates":[[-78.23576,34.90085,12210.0],[-78.31416,34.81694,12210.0]]},"properties":{"ef_share":0.0,"ef_tj":0.0}},{"type":"Feature","geometry":{"type":"LineString","coordinates":[[-78.31416,34.81694,12210.0],[-78.39221,34.73326,12210.0]]},"properties":{"ef_share":0.0,"ef_tj":0.0}},{"type":"Feature","geometry":{"type":"LineString","coordinates":[[-78.39221,34.73326,12210.0],[-78.46996,34.64967,12210.0]]},"properties":{"ef_share":0.0,"ef_tj":0.0}},{"type":"Feature","geometry":{"type":"LineString","coordinates":[[-78.46996,34.64967,12210.0],[-78.54743,34.56613,12210.0]]},"properties":{"ef_share":0.0,"ef_tj":0.0}},{"type":"Feature","geometry":{"type":"LineString","coordinates":[[-78.54743,34.56613,12210.0],[-78.62463,34.48267,12210.0]]},"properties":{"ef_share":0.0,"ef_tj":0.0}},{"type":"Feature","geometry":{"type":"LineString","coordinates":[[-78.62463,34.48267,12210.0],[-78.70157,34.39924,12210.0]]},"properties":{"ef_share":0.0,"ef_tj":0.0}},{"type":"Feature","geometry":{"type":"LineString","coordinates":[[-78.70157,34.39924,12210.0],[-78.77375,34.31223,12210.0]]},"properties":{"ef_share":0.0,"ef_tj":0.0}},{"type":"Feature","geometry":{"type":"LineString","coordinates":[[-78.77375,34.31223,12210.0],[-78.84579,34.22525,12210.0]]},"properties":{"ef_share":0.0,"ef_tj":0.0}},{"type":"Feature","geometry":{"type":"LineString","coordinates":[[-78.84579,34.22525,12210.0],[-78.91798,34.1389,12210.0]]},"properties":{"ef_share":0.0,"ef_tj":0.0}},{"type":"Feature","geometry":{"type":"LineString","coordinates":[[-78.91798,34.1389,12210.0],[-78.98967,34.05274,12210.0]]},"properties":{"ef_share":0.0,"ef_tj":0.0}},{"type":"Feature","geometry":{"type":"LineString","coordinates":[[-78.98967,34.05274,12210.0],[-79.06109,33.96647,12210.0]]},"properties":{"ef_share":0.0,"ef_tj":0.0}},{"type":"Feature","geometry":{"type":"LineString","coordinates":[[-79.06109,33.96647,12210.0],[-79.13256,33.87994,12210.0]]},"properties":{"ef_share":0.0,"ef_tj":0.0}},{"type":"Feature","geometry":{"type":"LineString","coordinates":[[-79.13256,33.87994,12210.0],[-79.20421,33.79302,12210.0]]},"properties":{"ef_share":0.0,"ef_tj":0.0}},{"type":"Feature","geometry":{"type":"LineString","coordinates":[[-79.20421,33.79302,12210.0],[-79.27572,33.70601,12210.0]]},"properties":{"ef_share":0.0,"ef_tj":0.0}},{"type":"Feature","geometry":{"type":"LineString","coordinates":[[-79.27572,33.70601,12210.0],[-79.34858,33.61903,12210.0]]},"properties":{"ef_share":0.0,"ef_tj":0.0}},{"type":"Feature","geometry":{"type":"LineString","coordinates":[[-79.34858,33.61903,12210.0],[-79.42208,33.53287,12210.0]]},"properties":{"ef_share":0.0,"ef_tj":0.0}},{"type":"Feature","geometry":{"type":"LineString","coordinates":[[-79.42208,33.53287,12210.0],[-79.49539,33.44619,12210.0]]},"properties":{"ef_share":0.0,"ef_tj":0.0}},{"type":"Feature","geometry":{"type":"LineString","coordinates":[[-79.49539,33.44619,12210.0],[-79.56888,33.35908,12210.0]]},"properties":{"ef_share":0.0,"ef_tj":0.0}},{"type":"Feature","geometry":{"type":"LineString","coordinates":[[-79.56888,33.35908,12210.0],[-79.64223,33.27198,12210.0]]},"properties":{"ef_share":0.0,"ef_tj":0.0}},{"type":"Feature","geometry":{"type":"LineString","coordinates":[[-79.64223,33.27198,12210.0],[-79.71534,33.18496,12210.0]]},"properties":{"ef_share":0.0,"ef_tj":0.0}},{"type":"Feature","geometry":{"type":"LineString","coordinates":[[-79.71534,33.18496,12210.0],[-79.78864,33.0976,12210.0]]},"properties":{"ef_share":0.0,"ef_tj":0.0}},{"type":"Feature","geometry":{"type":"LineString","coordinates":[[-79.78864,33.0976,12210.0],[-79.86175,33.0101,12210.0]]},"properties":{"ef_share":0.0,"ef_tj":0.0}},{"type":"Feature","geometry":{"type":"LineString","coordinates":[[-79.86175,33.0101,12210.0],[-79.93466,32.92265,12210.0]]},"properties":{"ef_share":0.02,"ef_tj":0.002382}},{"type":"Feature","geometry":{"type":"LineString","coordinates":[[-79.93466,32.92265,12210.0],[-80.00746,32.83517,12210.0]]},"properties":{"ef_share":0.026,"ef_tj":0.003147}},{"type":"Feature","geometry":{"type":"LineString","coordinates":[[-80.00746,32.83517,12210.0],[-80.07719,32.74593,12210.0]]},"properties":{"ef_share":0.037,"ef_tj":0.004451}},{"type":"Feature","geometry":{"type":"LineString","coordinates":[[-80.07719,32.74593,12210.0],[-80.12956,32.64483,12190.0]]},"properties":{"ef_share":0.041,"ef_tj":0.004828}},{"type":"Feature","geometry":{"type":"LineString","coordinates":[[-80.12956,32.64483,12190.0],[-80.17789,32.54128,11740.0]]},"properties":{"ef_share":0.049,"ef_tj":0.0058}},{"type":"Feature","geometry":{"type":"LineString","coordinates":[[-80.17789,32.54128,11740.0],[-80.22838,32.43594,11600.0]]},"properties":{"ef_share":1.0,"ef_tj":0.118843}},{"type":"Feature","geometry":{"type":"LineString","coordinates":[[-80.22838,32.43594,11600.0],[-80.27896,32.33015,11610.0]]},"properties":{"ef_share":0.68,"ef_tj":0.080802}},{"type":"Feature","geometry":{"type":"LineString","coordinates":[[-80.27896,32.33015,11610.0],[-80.32925,32.22252,11610.0]]},"properties":{"ef_share":0.036,"ef_tj":0.004327}},{"type":"Feature","geometry":{"type":"LineString","coordinates":[[-80.32925,32.22252,11610.0],[-80.36747,32.11026,11380.0]]},"properties":{"ef_share":0.0,"ef_tj":0.0}},{"type":"Feature","geometry":{"type":"LineString","coordinates":[[-80.36747,32.11026,11380.0],[-80.3989,31.99492,11140.0]]},"properties":{"ef_share":0.0,"ef_tj":0.0}},{"type":"Feature","geometry":{"type":"LineString","coordinates":[[-80.3989,31.99492,11140.0],[-80.43044,31.87885,10990.0]]},"properties":{"ef_share":0.0,"ef_tj":0.0}},{"type":"Feature","geometry":{"type":"LineString","coordinates":[[-80.43044,31.87885,10990.0],[-80.46264,31.7632,10990.0]]},"properties":{"ef_share":0.0,"ef_tj":0.0}},{"type":"Feature","geometry":{"type":"LineString","coordinates":[[-80.46264,31.7632,10990.0],[-80.49532,31.64636,10990.0]]},"properties":{"ef_share":0.0,"ef_tj":0.0}},{"type":"Feature","geometry":{"type":"LineString","coordinates":[[-80.49532,31.64636,10990.0],[-80.52816,31.52839,11000.0]]},"properties":{"ef_share":0.0,"ef_tj":0.0}},{"type":"Feature","geometry":{"type":"LineString","coordinates":[[-80.52816,31.52839,11000.0],[-80.56124,31.4093,10990.0]]},"properties":{"ef_share":0.0,"ef_tj":0.0}},{"type":"Feature","geometry":{"type":"LineString","coordinates":[[-80.56124,31.4093,10990.0],[-80.59434,31.28967,10990.0]]},"properties":{"ef_share":0.0,"ef_tj":0.0}},{"type":"Feature","geometry":{"type":"LineString","coordinates":[[-80.59434,31.28967,10990.0],[-80.62748,31.16967,10990.0]]},"properties":{"ef_share":0.0,"ef_tj":0.0}},{"type":"Feature","geometry":{"type":"LineString","coordinates":[[-80.62748,31.16967,10990.0],[-80.6603,31.05048,10990.0]]},"properties":{"ef_share":0.0,"ef_tj":0.0}},{"type":"Feature","geometry":{"type":"LineString","coordinates":[[-80.6603,31.05048,10990.0],[-80.69287,30.93187,11000.0]]},"properties":{"ef_share":0.0,"ef_tj":0.0}},{"type":"Feature","geometry":{"type":"LineString","coordinates":[[-80.69287,30.93187,11000.0],[-80.72535,30.81353,10990.0]]},"properties":{"ef_share":0.0,"ef_tj":0.0}},{"type":"Feature","geometry":{"type":"LineString","coordinates":[[-80.72535,30.81353,10990.0],[-80.75766,30.69519,10990.0]]},"properties":{"ef_share":0.0,"ef_tj":0.0}},{"type":"Feature","geometry":{"type":"LineString","coordinates":[[-80.75766,30.69519,10990.0],[-80.79776,30.58023,10990.0]]},"properties":{"ef_share":0.0,"ef_tj":0.0}},{"type":"Feature","geometry":{"type":"LineString","coordinates":[[-80.79776,30.58023,10990.0],[-80.88781,30.49322,11000.0]]},"properties":{"ef_share":0.0,"ef_tj":0.0}},{"type":"Feature","geometry":{"type":"LineString","coordinates":[[-80.88781,30.49322,11000.0],[-80.98374,30.41024,10990.0]]},"properties":{"ef_share":0.0,"ef_tj":0.0}},{"type":"Feature","geometry":{"type":"LineString","coordinates":[[-80.98374,30.41024,10990.0],[-81.07918,30.32677,10990.0]]},"properties":{"ef_share":0.0,"ef_tj":0.0}},{"type":"Feature","geometry":{"type":"LineString","coordinates":[[-81.07918,30.32677,10990.0],[-81.12724,30.21615,10990.0]]},"properties":{"ef_share":0.0,"ef_tj":0.0}},{"type":"Feature","geometry":{"type":"LineString","coordinates":[[-81.12724,30.21615,10990.0],[-81.12764,30.09139,11000.0]]},"properties":{"ef_share":0.0,"ef_tj":0.0}},{"type":"Feature","geometry":{"type":"LineString","coordinates":[[-81.12764,30.09139,11000.0],[-81.12792,29.96678,10990.0]]},"properties":{"ef_share":0.0,"ef_tj":0.0}},{"type":"Feature","geometry":{"type":"LineString","coordinates":[[-81.12792,29.96678,10990.0],[-81.12914,29.84229,11000.0]]},"properties":{"ef_share":0.0,"ef_tj":0.0}},{"type":"Feature","geometry":{"type":"LineString","coordinates":[[-81.12914,29.84229,11000.0],[-81.13034,29.71737,11000.0]]},"properties":{"ef_share":0.0,"ef_tj":0.0}},{"type":"Feature","geometry":{"type":"LineString","coordinates":[[-81.13034,29.71737,11000.0],[-81.13142,29.59227,10990.0]]},"properties":{"ef_share":0.0,"ef_tj":0.0}},{"type":"Feature","geometry":{"type":"LineString","coordinates":[[-81.13142,29.59227,10990.0],[-81.13245,29.46702,11000.0]]},"properties":{"ef_share":0.0,"ef_tj":0.0}},{"type":"Feature","geometry":{"type":"LineString","coordinates":[[-81.13245,29.46702,11000.0],[-81.13328,29.34187,10990.0]]},"properties":{"ef_share":0.0,"ef_tj":0.0}},{"type":"Feature","geometry":{"type":"LineString","coordinates":[[-81.13328,29.34187,10990.0],[-81.10174,29.21813,11000.0]]},"properties":{"ef_share":0.0,"ef_tj":0.0}},{"type":"Feature","geometry":{"type":"LineString","coordinates":[[-81.10174,29.21813,11000.0],[-81.05218,29.09705,10990.0]]},"properties":{"ef_share":0.0,"ef_tj":0.0}},{"type":"Feature","geometry":{"type":"LineString","coordinates":[[-81.05218,29.09705,10990.0],[-81.0027,28.97613,10990.0]]},"properties":{"ef_share":0.0,"ef_tj":0.0}},{"type":"Feature","geometry":{"type":"LineString","coordinates":[[-81.0027,28.97613,10990.0],[-80.95371,28.85557,10990.0]]},"properties":{"ef_share":0.0,"ef_tj":0.0}},{"type":"Feature","geometry":{"type":"LineString","coordinates":[[-80.95371,28.85557,10990.0],[-80.90482,28.73519,10990.0]]},"properties":{"ef_share":0.0,"ef_tj":0.0}},{"type":"Feature","geometry":{"type":"LineString","coordinates":[[-80.90482,28.73519,10990.0],[-80.85615,28.61494,10990.0]]},"properties":{"ef_share":0.0,"ef_tj":0.0}},{"type":"Feature","geometry":{"type":"LineString","coordinates":[[-80.85615,28.61494,10990.0],[-80.80771,28.49497,10820.0]]},"properties":{"ef_share":0.0,"ef_tj":0.0}},{"type":"Feature","geometry":{"type":"LineString","coordinates":[[-80.80771,28.49497,10820.0],[-80.75896,28.37382,10470.0]]},"properties":{"ef_share":0.0,"ef_tj":0.0}},{"type":"Feature","geometry":{"type":"LineString","coordinates":[[-80.75896,28.37382,10470.0],[-80.71193,28.25697,10120.0]]},"properties":{"ef_share":0.0,"ef_tj":0.0}},{"type":"Feature","geometry":{"type":"LineString","coordinates":[[-80.71193,28.25697,10120.0],[-80.66681,28.14434,9610.0]]},"properties":{"ef_share":0.0,"ef_tj":0.0}},{"type":"Feature","geometry":{"type":"LineString","coordinates":[[-80.66681,28.14434,9610.0],[-80.62144,28.031,8680.0]]},"properties":{"ef_share":0.0,"ef_tj":0.0}},{"type":"Feature","geometry":{"type":"LineString","coordinates":[[-80.62144,28.031,8680.0],[-80.56087,27.91801,7720.0]]},"properties":{"ef_share":0.0,"ef_tj":0.0}},{"type":"Feature","geometry":{"type":"LineString","coordinates":[[-80.56087,27.91801,7720.0],[-80.48859,27.80945,6940.0]]},"properties":{"ef_share":0.0,"ef_tj":0.0}},{"type":"Feature","geometry":{"type":"LineString","coordinates":[[-80.48859,27.80945,6940.0],[-80.41933,27.70353,6190.0]]},"properties":{"ef_share":0.0,"ef_tj":0.0}},{"type":"Feature","geometry":{"type":"LineString","coordinates":[[-80.41933,27.70353,6190.0],[-80.35276,27.60034,5430.0]]},"properties":{"ef_share":0.0,"ef_tj":0.0}},{"type":"Feature","geometry":{"type":"LineString","coordinates":[[-80.35276,27.60034,5430.0],[-80.28827,27.50027,4730.0]]},"properties":{"ef_share":0.0,"ef_tj":0.0}},{"type":"Feature","geometry":{"type":"LineString","coordinates":[[-80.28827,27.50027,4730.0],[-80.22867,27.40768,3720.0]]},"properties":{"ef_share":0.0,"ef_tj":0.0}},{"type":"Feature","geometry":{"type":"LineString","coordinates":[[-80.22867,27.40768,3720.0],[-80.17518,27.32464,3100.0]]},"properties":{"ef_share":0.0,"ef_tj":0.0}},{"type":"Feature","geometry":{"type":"LineString","coordinates":[[-80.17518,27.32464,3100.0],[-80.13111,27.25469,2960.0]]},"properties":{"ef_share":0.0,"ef_tj":0.0}},{"type":"Feature","geometry":{"type":"LineString","coordinates":[[-80.13111,27.25469,2960.0],[-80.0959,27.18346,2550.0]]},"properties":{"ef_share":0.0,"ef_tj":0.0}},{"type":"Feature","geometry":{"type":"LineString","coordinates":[[-80.0959,27.18346,2550.0],[-80.06261,27.11478,2340.0]]},"properties":{"ef_share":0.0,"ef_tj":0.0}},{"type":"Feature","geometry":{"type":"LineString","coordinates":[[-80.06261,27.11478,2340.0],[-80.03049,27.05021,1930.0]]},"properties":{"ef_share":0.0,"ef_tj":0.0}},{"type":"Feature","geometry":{"type":"LineString","coordinates":[[-80.03049,27.05021,1930.0],[-79.99887,26.98569,1560.0]]},"properties":{"ef_share":0.0,"ef_tj":0.0}},{"type":"Feature","geometry":{"type":"LineString","coordinates":[[-79.99887,26.98569,1560.0],[-80.00697,26.92105,1130.0]]},"properties":{"ef_share":0.0,"ef_tj":0.0}},{"type":"Feature","geometry":{"type":"LineString","coordinates":[[-80.00697,26.92105,1130.0],[-80.05687,26.86646,1130.0]]},"properties":{"ef_share":0.0,"ef_tj":0.0}},{"type":"Feature","geometry":{"type":"LineString","coordinates":[[-80.05687,26.86646,1130.0],[-80.10179,26.81527,970.0]]},"properties":{"ef_share":0.0,"ef_tj":0.0}},{"type":"Feature","geometry":{"type":"LineString","coordinates":[[-80.10179,26.81527,970.0],[-80.16645,26.80219,820.0]]},"properties":{"ef_share":0.0,"ef_tj":0.0}},{"type":"Feature","geometry":{"type":"LineString","coordinates":[[-80.16645,26.80219,820.0],[-80.23473,26.79706,820.0]]},"properties":{"ef_share":0.0,"ef_tj":0.0}},{"type":"Feature","geometry":{"type":"LineString","coordinates":[[-80.23473,26.79706,820.0],[-80.30254,26.7918,820.0]]},"properties":{"ef_share":0.0,"ef_tj":0.0}},{"type":"Feature","geometry":{"type":"LineString","coordinates":[[-80.30254,26.7918,820.0],[-80.37074,26.78639,820.0]]},"properties":{"ef_share":0.0,"ef_tj":0.0}},{"type":"Feature","geometry":{"type":"LineString","coordinates":[[-80.37074,26.78639,820.0],[-80.43741,26.77275,730.0]]},"properties":{"ef_share":0.0,"ef_tj":0.0}},{"type":"Feature","geometry":{"type":"LineString","coordinates":[[-80.43741,26.77275,730.0],[-80.49743,26.74919,620.0]]},"properties":{"ef_share":0.0,"ef_tj":0.0}},{"type":"Feature","geometry":{"type":"LineString","coordinates":[[-80.49743,26.74919,620.0],[-80.52756,26.71539,550.0]]},"properties":{"ef_share":0.0,"ef_tj":0.0}},{"type":"Feature","geometry":{"type":"LineString","coordinates":[[-80.52756,26.71539,550.0],[-80.48344,26.69757,520.0]]},"properties":{"ef_share":0.0,"ef_tj":0.0}},{"type":"Feature","geometry":{"type":"LineString","coordinates":[[-80.48344,26.69757,520.0],[-80.42922,26.69672,510.0]]},"properties":{"ef_share":0.0,"ef_tj":0.0}},{"type":"Feature","geometry":{"type":"LineString","coordinates":[[-80.42922,26.69672,510.0],[-80.37454,26.69468,510.0]]},"properties":{"ef_share":0.0,"ef_tj":0.0}},{"type":"Feature","geometry":{"type":"LineString","coordinates":[[-80.37454,26.69468,510.0],[-80.31985,26.69225,510.0]]},"properties":{"ef_share":0.0,"ef_tj":0.0}},{"type":"Feature","geometry":{"type":"LineString","coordinates":[[-80.31985,26.69225,510.0],[-80.26773,26.69005,510.0]]},"properties":{"ef_share":0.0,"ef_tj":0.0}},{"type":"Feature","geometry":{"type":"LineString","coordinates":[[-80.26773,26.69005,510.0],[-80.2206,26.68807,490.0]]},"properties":{"ef_share":0.0,"ef_tj":0.0}},{"type":"Feature","geometry":{"type":"LineString","coordinates":[[-80.2206,26.68807,490.0],[-80.18033,26.68633,310.0]]},"properties":{"ef_share":0.0,"ef_tj":0.0}}]}