{"type":"FeatureCollection","properties":{"icao24":"aa3410","registration":"N757AF","owner_label":"Donald Trump","combined_co2e_central":32605.5,"fuel_co2_kg":32605.5,"contrail_co2e_central":0.0,"tier":"high"},"features":[{"type":"Feature","geometry":{"type":"LineString","coordinates":[[-73.89152,40.80341,600.0],[-73.90237,40.86319,1720.0]]},"properties":{"ef_share":0.0,"ef_tj":0.0}},{"type":"Feature","geometry":{"type":"LineString","coordinates":[[-73.90237,40.86319,1720.0],[-73.97439,40.87909,2910.0]]},"properties":{"ef_share":0.0,"ef_tj":0.0}},{"type":"Feature","geometry":{"type":"LineString","coordinates":[[-73.97439,40.87909,2910.0],[-74.02734,40.8069,3600.0]]},"properties":{"ef_share":0.0,"ef_tj":0.0}},{"type":"Feature","geometry":{"type":"LineString","coordinates":[[-74.02734,40.8069,3600.0],[-74.06688,40.71206,3610.0]]},"properties":{"ef_share":0.0,"ef_tj":0.0}},{"type":"Feature","geometry":{"type":"LineString","coordinates":[[-74.06688,40.71206,3610.0],[-74.0933,40.61163,3640.0]]},"properties":{"ef_share":0.0,"ef_tj":0.0}},{"type":"Feature","geometry":{"type":"LineString","coordinates":[[-74.0933,40.61163,3640.0],[-74.1206,40.51044,4560.0]]},"properties":{"ef_share":0.0,"ef_tj":0.0}},{"type":"Feature","geometry":{"type":"LineString","coordinates":[[-74.1206,40.51044,4560.0],[-74.14873,40.40337,5130.0]]},"properties":{"ef_share":0.0,"ef_tj":0.0}},{"type":"Feature","geometry":{"type":"LineString","coordinates":[[-74.14873,40.40337,5130.0],[-74.17729,40.29505,5960.0]]},"properties":{"ef_share":0.0,"ef_tj":0.0}},{"type":"Feature","geometry":{"type":"LineString","coordinates":[[-74.17729,40.29505,5960.0],[-74.20554,40.18322,6800.0]]},"properties":{"ef_share":0.0,"ef_tj":0.0}},{"type":"Feature","geometry":{"type":"LineString","coordinates":[[-74.20554,40.18322,6800.0],[-74.23566,40.06695,7330.0]]},"properties":{"ef_share":0.0,"ef_tj":0.0}},{"type":"Feature","geometry":{"type":"LineString","coordinates":[[-74.23566,40.06695,7330.0],[-74.29384,39.96106,8120.0]]},"properties":{"ef_share":0.0,"ef_tj":0.0}},{"type":"Feature","geometry":{"type":"LineString","coordinates":[[-74.29384,39.96106,8120.0],[-74.3833,39.86786,8740.0]]},"properties":{"ef_share":0.0,"ef_tj":0.0}},{"type":"Feature","geometry":{"type":"LineString","coordinates":[[-74.3833,39.86786,8740.0],[-74.48386,39.77799,9420.0]]},"properties":{"ef_share":0.0,"ef_tj":0.0}},{"type":"Feature","geometry":{"type":"LineString","coordinates":[[-74.48386,39.77799,9420.0],[-74.58981,39.69805,10230.0]]},"properties":{"ef_share":0.0,"ef_tj":0.0}},{"type":"Feature","geometry":{"type":"LineString","coordinates":[[-74.58981,39.69805,10230.0],[-74.69324,39.61994,10870.0]]},"properties":{"ef_share":0.0,"ef_tj":0.0}},{"type":"Feature","geometry":{"type":"LineString","coordinates":[[-74.69324,39.61994,10870.0],[-74.79558,39.54213,10970.0]]},"properties":{"ef_share":0.0,"ef_tj":0.0}},{"type":"Feature","geometry":{"type":"LineString","coordinates":[[-74.79558,39.54213,10970.0],[-74.89848,39.46379,10970.0]]},"properties":{"ef_share":0.0,"ef_tj":0.0}},{"type":"Feature","geometry":{"type":"LineString","coordinates":[[-74.89848,39.46379,10970.0],[-75.00246,39.38411,10970.0]]},"properties":{"ef_share":0.0,"ef_tj":0.0}},{"type":"Feature","geometry":{"type":"LineString","coordinates":[[-75.00246,39.38411,10970.0],[-75.10544,39.30493,11420.0]]},"properties":{"ef_share":0.0,"ef_tj":0.0}},{"type":"Feature","geometry":{"type":"LineString","coordinates":[[-75.10544,39.30493,11420.0],[-75.20314,39.22734,11830.0]]},"properties":{"ef_share":0.0,"ef_tj":0.0}},{"type":"Feature","geometry":{"type":"LineString","coordinates":[[-75.20314,39.22734,11830.0],[-75.30022,39.14943,12180.0]]},"properties":{"ef_share":0.0,"ef_tj":0.0}},{"type":"Feature","geometry":{"type":"LineString","coordinates":[[-75.30022,39.14943,12180.0],[-75.39785,39.07108,12190.0]]},"properties":{"ef_share":0.0,"ef_tj":0.0}},{"type":"Feature","geometry":{"type":"LineString","coordinates":[[-75.39785,39.07108,12190.0],[-75.44959,38.96347,12200.0]]},"properties":{"ef_share":0.0,"ef_tj":0.0}},{"type":"Feature","geometry":{"type":"LineString","coordinates":[[-75.44959,38.96347,12200.0],[-75.46577,38.83935,12190.0]]},"properties":{"ef_share":0.0,"ef_tj":0.0}},{"type":"Feature","geometry":{"type":"LineString","coordinates":[[-75.46577,38.83935,12190.0],[-75.4824,38.71519,12190.0]]},"properties":{"ef_share":0.0,"ef_tj":0.0}},{"type":"Feature","geometry":{"type":"LineString","coordinates":[[-75.4824,38.71519,12190.0],[-75.49949,38.59103,12190.0]]},"properties":{"ef_share":0.0,"ef_tj":0.0}},{"type":"Feature","geometry":{"type":"LineString","coordinates":[[-75.49949,38.59103,12190.0],[-75.51638,38.46799,12190.0]]},"properties":{"ef_share":0.0,"ef_tj":0.0}},{"type":"Feature","geometry":{"type":"LineString","coordinates":[[-75.51638,38.46799,12190.0],[-75.53868,38.34696,12190.0]]},"properties":{"ef_share":0.0,"ef_tj":0.0}},{"type":"Feature","geometry":{"type":"LineString","coordinates":[[-75.53868,38.34696,12190.0],[-75.5873,38.23604,12190.0]]},"properties":{"ef_share":0.0,"ef_tj":0.0}},{"type":"Feature","geometry":{"type":"LineString","coordinates":[[-75.5873,38.23604,12190.0],[-75.6417,38.12838,12190.0]]},"properties":{"ef_share":0.0,"ef_tj":0.0}},{"type":"Feature","geometry":{"type":"LineString","coordinates":[[-75.6417,38.12838,12190.0],[-75.69721,38.02159,12190.0]]},"properties":{"ef_share":0.0,"ef_tj":0.0}},{"type":"Feature","geometry":{"type":"LineString","coordinates":[[-75.69721,38.02159,12190.0],[-75.75191,37.91466,12190.0]]},"properties":{"ef_share":0.0,"ef_tj":0.0}},{"type":"Feature","geometry":{"type":"LineString","coordinates":[[-75.75191,37.91466,12190.0],[-75.80593,37.80794,12190.0]]},"properties":{"ef_share":0.0,"ef_tj":0.0}},{"type":"Feature","geometry":{"type":"LineString","coordinates":[[-75.80593,37.80794,12190.0],[-75.85993,37.70103,12190.0]]},"properties":{"ef_share":0.0,"ef_tj":0.0}},{"type":"Feature","geometry":{"type":"LineString","coordinates":[[-75.85993,37.70103,12190.0],[-75.91358,37.59441,12190.0]]},"properties":{"ef_share":0.0,"ef_tj":0.0}},{"type":"Feature","geometry":{"type":"LineString","coordinates":[[-75.91358,37.59441,12190.0],[-75.96703,37.48797,12190.0]]},"properties":{"ef_share":0.0,"ef_tj":0.0}},{"type":"Feature","geometry":{"type":"LineString","coordinates":[[-75.96703,37.48797,12190.0],[-76.02017,37.38184,12190.0]]},"properties":{"ef_share":0.0,"ef_tj":0.0}},{"type":"Feature","geometry":{"type":"LineString","coordinates":[[-76.02017,37.38184,12190.0],[-76.0731,37.27573,12190.0]]},"properties":{"ef_share":0.0,"ef_tj":0.0}},{"type":"Feature","geometry":{"type":"LineString","coordinates":[[-76.0731,37.27573,12190.0],[-76.12609,37.16923,12190.0]]},"properties":{"ef_share":0.0,"ef_tj":0.0}},{"type":"Feature","geometry":{"type":"LineString","coordinates":[[-76.12609,37.16923,12190.0],[-76.17885,37.06276,12190.0]]},"properties":{"ef_share":0.0,"ef_tj":0.0}},{"type":"Feature","geometry":{"type":"LineString","coordinates":[[-76.17885,37.06276,12190.0],[-76.23123,36.95682,12190.0]]},"properties":{"ef_share":0.0,"ef_tj":0.0}},{"type":"Feature","geometry":{"type":"LineString","coordinates":[[-76.23123,36.95682,12190.0],[-76.2833,36.85119,12190.0]]},"properties":{"ef_share":0.0,"ef_tj":0.0}},{"type":"Feature","geometry":{"type":"LineString","coordinates":[[-76.2833,36.85119,12190.0],[-76.33497,36.74607,12190.0]]},"properties":{"ef_share":0.0,"ef_tj":0.0}},{"type":"Feature","geometry":{"type":"LineString","coordinates":[[-76.33497,36.74607,12190.0],[-76.38623,36.64143,12190.0]]},"properties":{"ef_share":0.0,"ef_tj":0.0}},{"type":"Feature","geometry":{"type":"LineString","coordinates":[[-76.38623,36.64143,12190.0],[-76.43804,36.53557,12190.0]]},"properties":{"ef_share":0.0,"ef_tj":0.0}},{"type":"Feature","geometry":{"type":"LineString","coordinates":[[-76.43804,36.53557,12190.0],[-76.48961,36.42947,12190.0]]},"properties":{"ef_share":0.0,"ef_tj":0.0}},{"type":"Feature","geometry":{"type":"LineString","coordinates":[[-76.48961,36.42947,12190.0],[-76.54145,36.32277,12190.0]]},"properties":{"ef_share":0.0,"ef_tj":0.0}},{"type":"Feature","geometry":{"type":"LineString","coordinates":[[-76.54145,36.32277,12190.0],[-76.59345,36.21543,12190.0]]},"properties":{"ef_share":0.0,"ef_tj":0.0}},{"type":"Feature","geometry":{"type":"LineString","coordinates":[[-76.59345,36.21543,12190.0],[-76.6453,36.10801,12190.0]]},"properties":{"ef_share":0.0,"ef_tj":0.0}},{"type":"Feature","geometry":{"type":"LineString","coordinates":[[-76.6453,36.10801,12190.0],[-76.69688,36.0009,12190.0]]},"properties":{"ef_share":0.0,"ef_tj":0.0}},{"type":"Feature","geometry":{"type":"LineString","coordinates":[[-76.69688,36.0009,12190.0],[-76.74843,35.8934,12190.0]]},"properties":{"ef_share":0.0,"ef_tj":0.0}},{"type":"Feature","geometry":{"type":"LineString","coordinates":[[-76.74843,35.8934,12190.0],[-76.79965,35.78643,12190.0]]},"properties":{"ef_share":0.0,"ef_tj":0.0}},{"type":"Feature","geometry":{"type":"LineString","coordinates":[[-76.79965,35.78643,12190.0],[-76.85083,35.67908,12190.0]]},"properties":{"ef_share":0.0,"ef_tj":0.0}},{"type":"Feature","geometry":{"type":"LineString","coordinates":[[-76.85083,35.67908,12190.0],[-76.90169,35.57231,12190.0]]},"properties":{"ef_share":0.0,"ef_tj":0.0}},{"type":"Feature","geometry":{"type":"LineString","coordinates":[[-76.90169,35.57231,12190.0],[-76.95228,35.46566,12190.0]]},"properties":{"ef_share":0.0,"ef_tj":0.0}},{"type":"Feature","geometry":{"type":"LineString","coordinates":[[-76.95228,35.46566,12190.0],[-77.0029,35.35863,12190.0]]},"properties":{"ef_share":0.0,"ef_tj":0.0}},{"type":"Feature","geometry":{"type":"LineString","coordinates":[[-77.0029,35.35863,12190.0],[-77.05328,35.25186,12190.0]]},"properties":{"ef_share":0.0,"ef_tj":0.0}},{"type":"Feature","geometry":{"type":"LineString","coordinates":[[-77.05328,35.25186,12190.0],[-77.10317,35.14577,12190.0]]},"properties":{"ef_share":0.0,"ef_tj":0.0}},{"type":"Feature","geometry":{"type":"LineString","coordinates":[[-77.10317,35.14577,12190.0],[-77.15277,35.03999,12190.0]]},"properties":{"ef_share":0.0,"ef_tj":0.0}},{"type":"Feature","geometry":{"type":"LineString","coordinates":[[-77.15277,35.03999,12190.0],[-77.20208,34.93477,12190.0]]},"properties":{"ef_share":0.0,"ef_tj":0.0}},{"type":"Feature","geometry":{"type":"LineString","coordinates":[[-77.20208,34.93477,12190.0],[-77.25098,34.82984,12190.0]]},"properties":{"ef_share":0.0,"ef_tj":0.0}},{"type":"Feature","geometry":{"type":"LineString","coordinates":[[-77.25098,34.82984,12190.0],[-77.2997,34.72508,12190.0]]},"properties":{"ef_share":0.0,"ef_tj":0.0}},{"type":"Feature","geometry":{"type":"LineString","coordinates":[[-77.2997,34.72508,12190.0],[-77.34826,34.62041,12190.0]]},"properties":{"ef_share":0.0,"ef_tj":0.0}},{"type":"Feature","geometry":{"type":"LineString","coordinates":[[-77.34826,34.62041,12190.0],[-77.39642,34.51592,12190.0]]},"properties":{"ef_share":0.0,"ef_tj":0.0}},{"type":"Feature","geometry":{"type":"LineString","coordinates":[[-77.39642,34.51592,12190.0],[-77.42721,34.40328,12190.0]]},"properties":{"ef_share":0.0,"ef_tj":0.0}},{"type":"Feature","geometry":{"type":"LineString","coordinates":[[-77.42721,34.40328,12190.0],[-77.44929,34.28691,12190.0]]},"properties":{"ef_share":0.0,"ef_tj":0.0}},{"type":"Feature","geometry":{"type":"LineString","coordinates":[[-77.44929,34.28691,12190.0],[-77.47173,34.17144,12190.0]]},"properties":{"ef_share":0.0,"ef_tj":0.0}},{"type":"Feature","geometry":{"type":"LineString","coordinates":[[-77.47173,34.17144,12190.0],[-77.4942,34.05664,12190.0]]},"properties":{"ef_share":0.0,"ef_tj":0.0}},{"type":"Feature","geometry":{"type":"LineString","coordinates":[[-77.4942,34.05664,12190.0],[-77.51646,33.94216,12190.0]]},"properties":{"ef_share":0.0,"ef_tj":0.0}},{"type":"Feature","geometry":{"type":"LineString","coordinates":[[-77.51646,33.94216,12190.0],[-77.53863,33.82739,12190.0]]},"properties":{"ef_share":0.0,"ef_tj":0.0}},{"type":"Feature","geometry":{"type":"LineString","coordinates":[[-77.53863,33.82739,12190.0],[-77.56064,33.71345,12190.0]]},"properties":{"ef_share":0.0,"ef_tj":0.0}},{"type":"Feature","geometry":{"type":"LineString","coordinates":[[-77.56064,33.71345,12190.0],[-77.58292,33.59989,12190.0]]},"properties":{"ef_share":0.0,"ef_tj":0.0}},{"type":"Feature","geometry":{"type":"LineString","coordinates":[[-77.58292,33.59989,12190.0],[-77.61563,33.49234,12190.0]]},"properties":{"ef_share":0.0,"ef_tj":0.0}},{"type":"Feature","geometry":{"type":"LineString","coordinates":[[-77.61563,33.49234,12190.0],[-77.65615,33.39024,12190.0]]},"properties":{"ef_share":0.0,"ef_tj":0.0}},{"type":"Feature","geometry":{"type":"LineString","coordinates":[[-77.65615,33.39024,12190.0],[-77.70026,33.29179,12190.0]]},"properties":{"ef_share":0.0,"ef_tj":0.0}},{"type":"Feature","geometry":{"type":"LineString","coordinates":[[-77.70026,33.29179,12190.0],[-77.74378,33.19335,12190.0]]},"properties":{"ef_share":0.0,"ef_tj":0.0}},{"type":"Feature","geometry":{"type":"LineString","coordinates":[[-77.74378,33.19335,12190.0],[-77.78651,33.09491,12190.0]]},"properties":{"ef_share":0.0,"ef_tj":0.0}},{"type":"Feature","geometry":{"type":"LineString","coordinates":[[-77.78651,33.09491,12190.0],[-77.82911,32.99625,12190.0]]},"properties":{"ef_share":0.0,"ef_tj":0.0}},{"type":"Feature","geometry":{"type":"LineString","coordinates":[[-77.82911,32.99625,12190.0],[-77.87166,32.89784,12190.0]]},"properties":{"ef_share":0.0,"ef_tj":0.0}},{"type":"Feature","geometry":{"type":"LineString","coordinates":[[-77.87166,32.89784,12190.0],[-77.9142,32.79904,12190.0]]},"properties":{"ef_share":0.0,"ef_tj":0.0}},{"type":"Feature","geometry":{"type":"LineString","coordinates":[[-77.9142,32.79904,12190.0],[-77.95666,32.70037,12190.0]]},"properties":{"ef_share":0.0,"ef_tj":0.0}},{"type":"Feature","geometry":{"type":"LineString","coordinates":[[-77.95666,32.70037,12190.0],[-77.99902,32.60163,12190.0]]},"properties":{"ef_share":0.0,"ef_tj":0.0}},{"type":"Feature","geometry":{"type":"LineString","coordinates":[[-77.99902,32.60163,12190.0],[-78.04148,32.50241,12190.0]]},"properties":{"ef_share":0.0,"ef_tj":0.0}},{"type":"Feature","geometry":{"type":"LineString","coordinates":[[-78.04148,32.50241,12190.0],[-78.08406,32.40261,12190.0]]},"properties":{"ef_share":0.0,"ef_tj":0.0}},{"type":"Feature","geometry":{"type":"LineString","coordinates":[[-78.08406,32.40261,12190.0],[-78.12651,32.30304,12190.0]]},"properties":{"ef_share":0.0,"ef_tj":0.0}},{"type":"Feature","geometry":{"type":"LineString","coordinates":[[-78.12651,32.30304,12190.0],[-78.1691,32.20265,12190.0]]},"properties":{"ef_share":0.0,"ef_tj":0.0}},{"type":"Feature","geometry":{"type":"LineString","coordinates":[[-78.1691,32.20265,12190.0],[-78.21221,32.10059,12190.0]]},"properties":{"ef_share":0.0,"ef_tj":0.0}},{"type":"Feature","geometry":{"type":"LineString","coordinates":[[-78.21221,32.10059,12190.0],[-78.25566,31.99708,12190.0]]},"properties":{"ef_share":0.0,"ef_tj":0.0}},{"type":"Feature","geometry":{"type":"LineString","coordinates":[[-78.25566,31.99708,12190.0],[-78.29912,31.89357,12190.0]]},"properties":{"ef_share":0.0,"ef_tj":0.0}},{"type":"Feature","geometry":{"type":"LineString","coordinates":[[-78.29912,31.89357,12190.0],[-78.34257,31.79005,12190.0]]},"properties":{"ef_share":0.0,"ef_tj":0.0}},{"type":"Feature","geometry":{"type":"LineString","coordinates":[[-78.34257,31.79005,12190.0],[-78.38602,31.68654,12190.0]]},"properties":{"ef_share":0.0,"ef_tj":0.0}},{"type":"Feature","geometry":{"type":"LineString","coordinates":[[-78.38602,31.68654,12190.0],[-78.42948,31.58303,12190.0]]},"properties":{"ef_share":0.0,"ef_tj":0.0}},{"type":"Feature","geometry":{"type":"LineString","coordinates":[[-78.42948,31.58303,12190.0],[-78.47293,31.47951,12190.0]]},"properties":{"ef_share":0.0,"ef_tj":0.0}},{"type":"Feature","geometry":{"type":"LineString","coordinates":[[-78.47293,31.47951,12190.0],[-78.51638,31.376,12190.0]]},"properties":{"ef_share":0.0,"ef_tj":0.0}},{"type":"Feature","geometry":{"type":"LineString","coordinates":[[-78.51638,31.376,12190.0],[-78.55959,31.27244,12190.0]]},"properties":{"ef_share":0.0,"ef_tj":0.0}},{"type":"Feature","geometry":{"type":"LineString","coordinates":[[-78.55959,31.27244,12190.0],[-78.60228,31.1688,12190.0]]},"properties":{"ef_share":0.0,"ef_tj":0.0}},{"type":"Feature","geometry":{"type":"LineString","coordinates":[[-78.60228,31.1688,12190.0],[-78.64496,31.06515,12190.0]]},"properties":{"ef_share":0.0,"ef_tj":0.0}},{"type":"Feature","geometry":{"type":"LineString","coordinates":[[-78.64496,31.06515,12190.0],[-78.68765,30.96151,12190.0]]},"properties":{"ef_share":0.0,"ef_tj":0.0}},{"type":"Feature","geometry":{"type":"LineString","coordinates":[[-78.68765,30.96151,12190.0],[-78.73033,30.85786,12190.0]]},"properties":{"ef_share":0.0,"ef_tj":0.0}},{"type":"Feature","geometry":{"type":"LineString","coordinates":[[-78.73033,30.85786,12190.0],[-78.77301,30.75422,12190.0]]},"properties":{"ef_share":0.0,"ef_tj":0.0}},{"type":"Feature","geometry":{"type":"LineString","coordinates":[[-78.77301,30.75422,12190.0],[-78.8157,30.65057,12190.0]]},"properties":{"ef_share":0.0,"ef_tj":0.0}},{"type":"Feature","geometry":{"type":"LineString","coordinates":[[-78.8157,30.65057,12190.0],[-78.85838,30.54693,12190.0]]},"properties":{"ef_share":0.0,"ef_tj":0.0}},{"type":"Feature","geometry":{"type":"LineString","coordinates":[[-78.85838,30.54693,12190.0],[-78.90103,30.44326,11580.0]]},"properties":{"ef_share":0.0,"ef_tj":0.0}},{"type":"Feature","geometry":{"type":"LineString","coordinates":[[-78.90103,30.44326,11580.0],[-78.94344,30.33913,11580.0]]},"properties":{"ef_share":0.0,"ef_tj":0.0}},{"type":"Feature","geometry":{"type":"LineString","coordinates":[[-78.94344,30.33913,11580.0],[-78.98592,30.23463,11580.0]]},"properties":{"ef_share":0.0,"ef_tj":0.0}},{"type":"Feature","geometry":{"type":"LineString","coordinates":[[-78.98592,30.23463,11580.0],[-79.02842,30.12989,11580.0]]},"properties":{"ef_share":0.0,"ef_tj":0.0}},{"type":"Feature","geometry":{"type":"LineString","coordinates":[[-79.02842,30.12989,11580.0],[-79.07118,30.02425,11240.0]]},"properties":{"ef_share":0.0,"ef_tj":0.0}},{"type":"Feature","geometry":{"type":"LineString","coordinates":[[-79.07118,30.02425,11240.0],[-79.11508,29.91578,10970.0]]},"properties":{"ef_share":0.0,"ef_tj":0.0}},{"type":"Feature","geometry":{"type":"LineString","coordinates":[[-79.11508,29.91578,10970.0],[-79.15599,29.80343,10970.0]]},"properties":{"ef_share":0.0,"ef_tj":0.0}},{"type":"Feature","geometry":{"type":"LineString","coordinates":[[-79.15599,29.80343,10970.0],[-79.18625,29.68621,10970.0]]},"properties":{"ef_share":0.0,"ef_tj":0.0}},{"type":"Feature","geometry":{"type":"LineString","coordinates":[[-79.18625,29.68621,10970.0],[-79.21582,29.56901,10970.0]]},"properties":{"ef_share":0.0,"ef_tj":0.0}},{"type":"Feature","geometry":{"type":"LineString","coordinates":[[-79.21582,29.56901,10970.0],[-79.24563,29.4517,10970.0]]},"properties":{"ef_share":0.0,"ef_tj":0.0}},{"type":"Feature","geometry":{"type":"LineString","coordinates":[[-79.24563,29.4517,10970.0],[-79.27518,29.33534,10970.0]]},"properties":{"ef_share":0.0,"ef_tj":0.0}},{"type":"Feature","geometry":{"type":"LineString","coordinates":[[-79.27518,29.33534,10970.0],[-79.30459,29.21917,10900.0]]},"properties":{"ef_share":0.0,"ef_tj":0.0}},{"type":"Feature","geometry":{"type":"LineString","coordinates":[[-79.30459,29.21917,10900.0],[-79.33398,29.10286,10540.0]]},"properties":{"ef_share":0.0,"ef_tj":0.0}},{"type":"Feature","geometry":{"type":"LineString","coordinates":[[-79.33398,29.10286,10540.0],[-79.36346,28.98576,10160.0]]},"properties":{"ef_share":0.0,"ef_tj":0.0}},{"type":"Feature","geometry":{"type":"LineString","coordinates":[[-79.36346,28.98576,10160.0],[-79.39283,28.86839,9840.0]]},"properties":{"ef_share":0.0,"ef_tj":0.0}},{"type":"Feature","geometry":{"type":"LineString","coordinates":[[-79.39283,28.86839,9840.0],[-79.42193,28.75208,9530.0]]},"properties":{"ef_share":0.0,"ef_tj":0.0}},{"type":"Feature","geometry":{"type":"LineString","coordinates":[[-79.42193,28.75208,9530.0],[-79.45097,28.636,9210.0]]},"properties":{"ef_share":0.0,"ef_tj":0.0}},{"type":"Feature","geometry":{"type":"LineString","coordinates":[[-79.45097,28.636,9210.0],[-79.47961,28.52085,8900.0]]},"properties":{"ef_share":0.0,"ef_tj":0.0}},{"type":"Feature","geometry":{"type":"LineString","coordinates":[[-79.47961,28.52085,8900.0],[-79.50754,28.4088,8070.0]]},"properties":{"ef_share":0.0,"ef_tj":0.0}},{"type":"Feature","geometry":{"type":"LineString","coordinates":[[-79.50754,28.4088,8070.0],[-79.5351,28.29804,7360.0]]},"properties":{"ef_share":0.0,"ef_tj":0.0}},{"type":"Feature","geometry":{"type":"LineString","coordinates":[[-79.5351,28.29804,7360.0],[-79.56518,28.188,7320.0]]},"properties":{"ef_share":0.0,"ef_tj":0.0}},{"type":"Feature","geometry":{"type":"LineString","coordinates":[[-79.56518,28.188,7320.0],[-79.59533,28.07777,7320.0]]},"properties":{"ef_share":0.0,"ef_tj":0.0}},{"type":"Feature","geometry":{"type":"LineString","coordinates":[[-79.59533,28.07777,7320.0],[-79.62543,27.96668,7230.0]]},"properties":{"ef_share":0.0,"ef_tj":0.0}},{"type":"Feature","geometry":{"type":"LineString","coordinates":[[-79.62543,27.96668,7230.0],[-79.65574,27.85455,6630.0]]},"properties":{"ef_share":0.0,"ef_tj":0.0}},{"type":"Feature","geometry":{"type":"LineString","coordinates":[[-79.65574,27.85455,6630.0],[-79.68539,27.74475,6030.0]]},"properties":{"ef_share":0.0,"ef_tj":0.0}},{"type":"Feature","geometry":{"type":"LineString","coordinates":[[-79.68539,27.74475,6030.0],[-79.71411,27.6378,5450.0]]},"properties":{"ef_share":0.0,"ef_tj":0.0}},{"type":"Feature","geometry":{"type":"LineString","coordinates":[[-79.71411,27.6378,5450.0],[-79.74231,27.53359,4780.0]]},"properties":{"ef_share":0.0,"ef_tj":0.0}},{"type":"Feature","geometry":{"type":"LineString","coordinates":[[-79.74231,27.53359,4780.0],[-79.76917,27.43353,4080.0]]},"properties":{"ef_share":0.0,"ef_tj":0.0}},{"type":"Feature","geometry":{"type":"LineString","coordinates":[[-79.76917,27.43353,4080.0],[-79.7952,27.33643,3420.0]]},"properties":{"ef_share":0.0,"ef_tj":0.0}},{"type":"Feature","geometry":{"type":"LineString","coordinates":[[-79.7952,27.33643,3420.0],[-79.8198,27.24433,3000.0]]},"properties":{"ef_share":0.0,"ef_tj":0.0}},{"type":"Feature","geometry":{"type":"LineString","coordinates":[[-79.8198,27.24433,3000.0],[-79.85271,27.16935,2790.0]]},"properties":{"ef_share":0.0,"ef_tj":0.0}},{"type":"Feature","geometry":{"type":"LineString","coordinates":[[-79.85271,27.16935,2790.0],[-79.89323,27.10212,2370.0]]},"properties":{"ef_share":0.0,"ef_tj":0.0}},{"type":"Feature","geometry":{"type":"LineString","coordinates":[[-79.89323,27.10212,2370.0],[-79.93253,27.0362,1970.0]]},"properties":{"ef_share":0.0,"ef_tj":0.0}},{"type":"Feature","geometry":{"type":"LineString","coordinates":[[-79.93253,27.0362,1970.0],[-79.97011,26.97282,1680.0]]},"properties":{"ef_share":0.0,"ef_tj":0.0}},{"type":"Feature","geometry":{"type":"LineString","coordinates":[[-79.97011,26.97282,1680.0],[-79.97427,26.91125,1250.0]]},"properties":{"ef_share":0.0,"ef_tj":0.0}},{"type":"Feature","geometry":{"type":"LineString","coordinates":[[-79.97427,26.91125,1250.0],[-79.961,26.8506,1040.0]]},"properties":{"ef_share":0.0,"ef_tj":0.0}},{"type":"Feature","geometry":{"type":"LineString","coordinates":[[-79.961,26.8506,1040.0],[-79.94491,26.79197,490.0]]},"properties":{"ef_share":0.0,"ef_tj":0.0}},{"type":"Feature","geometry":{"type":"LineString","coordinates":[[-79.94491,26.79197,490.0],[-79.9278,26.73708,380.0]]},"properties":{"ef_share":0.0,"ef_tj":0.0}},{"type":"Feature","geometry":{"type":"LineString","coordinates":[[-79.9278,26.73708,380.0],[-79.92771,26.69277,380.0]]},"properties":{"ef_share":0.0,"ef_tj":0.0}},{"type":"Feature","geometry":{"type":"LineString","coordinates":[[-79.92771,26.69277,380.0],[-79.96877,26.67646,380.0]]},"properties":{"ef_share":0.0,"ef_tj":0.0}}]}