{"type":"FeatureCollection","properties":{"icao24":"aa3410","registration":"N757AF","owner_label":"Donald Trump","combined_co2e_central":35384.5,"fuel_co2_kg":35384.5,"contrail_co2e_central":0.0,"tier":"high"},"features":[{"type":"Feature","geometry":{"type":"LineString","coordinates":[[-73.90209,40.82032,880.0],[-73.93989,40.87325,2000.0]]},"properties":{"ef_share":0.0,"ef_tj":0.0}},{"type":"Feature","geometry":{"type":"LineString","coordinates":[[-73.93989,40.87325,2000.0],[-73.99518,40.83312,3050.0]]},"properties":{"ef_share":0.0,"ef_tj":0.0}},{"type":"Feature","geometry":{"type":"LineString","coordinates":[[-73.99518,40.83312,3050.0],[-74.03093,40.75938,3610.0]]},"properties":{"ef_share":0.0,"ef_tj":0.0}},{"type":"Feature","geometry":{"type":"LineString","coordinates":[[-74.03093,40.75938,3610.0],[-74.08077,40.68187,3610.0]]},"properties":{"ef_share":0.0,"ef_tj":0.0}},{"type":"Feature","geometry":{"type":"LineString","coordinates":[[-74.08077,40.68187,3610.0],[-74.15572,40.61714,3720.0]]},"properties":{"ef_share":0.0,"ef_tj":0.0}},{"type":"Feature","geometry":{"type":"LineString","coordinates":[[-74.15572,40.61714,3720.0],[-74.18136,40.5259,4710.0]]},"properties":{"ef_share":0.0,"ef_tj":0.0}},{"type":"Feature","geometry":{"type":"LineString","coordinates":[[-74.18136,40.5259,4710.0],[-74.19387,40.42655,5130.0]]},"properties":{"ef_share":0.0,"ef_tj":0.0}},{"type":"Feature","geometry":{"type":"LineString","coordinates":[[-74.19387,40.42655,5130.0],[-74.20757,40.32636,5140.0]]},"properties":{"ef_share":0.0,"ef_tj":0.0}},{"type":"Feature","geometry":{"type":"LineString","coordinates":[[-74.20757,40.32636,5140.0],[-74.22148,40.22604,5130.0]]},"properties":{"ef_share":0.0,"ef_tj":0.0}},{"type":"Feature","geometry":{"type":"LineString","coordinates":[[-74.22148,40.22604,5130.0],[-74.23506,40.12627,5510.0]]},"properties":{"ef_share":0.0,"ef_tj":0.0}},{"type":"Feature","geometry":{"type":"LineString","coordinates":[[-74.23506,40.12627,5510.0],[-74.25031,40.02523,6290.0]]},"properties":{"ef_share":0.0,"ef_tj":0.0}},{"type":"Feature","geometry":{"type":"LineString","coordinates":[[-74.25031,40.02523,6290.0],[-74.31542,39.93911,7030.0]]},"properties":{"ef_share":0.0,"ef_tj":0.0}},{"type":"Feature","geometry":{"type":"LineString","coordinates":[[-74.31542,39.93911,7030.0],[-74.39435,39.85656,7700.0]]},"properties":{"ef_share":0.0,"ef_tj":0.0}},{"type":"Feature","geometry":{"type":"LineString","coordinates":[[-74.39435,39.85656,7700.0],[-74.48122,39.77954,8370.0]]},"properties":{"ef_share":0.0,"ef_tj":0.0}},{"type":"Feature","geometry":{"type":"LineString","coordinates":[[-74.48122,39.77954,8370.0],[-74.57737,39.70744,8950.0]]},"properties":{"ef_share":0.0,"ef_tj":0.0}},{"type":"Feature","geometry":{"type":"LineString","coordinates":[[-74.57737,39.70744,8950.0],[-74.6734,39.63482,9680.0]]},"properties":{"ef_share":0.0,"ef_tj":0.0}},{"type":"Feature","geometry":{"type":"LineString","coordinates":[[-74.6734,39.63482,9680.0],[-74.76706,39.5637,10300.0]]},"properties":{"ef_share":0.0,"ef_tj":0.0}},{"type":"Feature","geometry":{"type":"LineString","coordinates":[[-74.76706,39.5637,10300.0],[-74.86066,39.49244,10740.0]]},"properties":{"ef_share":0.0,"ef_tj":0.0}},{"type":"Feature","geometry":{"type":"LineString","coordinates":[[-74.86066,39.49244,10740.0],[-74.95544,39.41996,11230.0]]},"properties":{"ef_share":0.0,"ef_tj":0.0}},{"type":"Feature","geometry":{"type":"LineString","coordinates":[[-74.95544,39.41996,11230.0],[-75.05125,39.34653,11570.0]]},"properties":{"ef_share":0.0,"ef_tj":0.0}},{"type":"Feature","geometry":{"type":"LineString","coordinates":[[-75.05125,39.34653,11570.0],[-75.14768,39.27177,11610.0]]},"properties":{"ef_share":0.0,"ef_tj":0.0}},{"type":"Feature","geometry":{"type":"LineString","coordinates":[[-75.14768,39.27177,11610.0],[-75.24287,39.19515,11610.0]]},"properties":{"ef_share":0.0,"ef_tj":0.0}},{"type":"Feature","geometry":{"type":"LineString","coordinates":[[-75.24287,39.19515,11610.0],[-75.33857,39.11865,11600.0]]},"properties":{"ef_share":0.0,"ef_tj":0.0}},{"type":"Feature","geometry":{"type":"LineString","coordinates":[[-75.33857,39.11865,11600.0],[-75.429,39.03768,11610.0]]},"properties":{"ef_share":0.0,"ef_tj":0.0}},{"type":"Feature","geometry":{"type":"LineString","coordinates":[[-75.429,39.03768,11610.0],[-75.45459,38.92466,11610.0]]},"properties":{"ef_share":0.0,"ef_tj":0.0}},{"type":"Feature","geometry":{"type":"LineString","coordinates":[[-75.45459,38.92466,11610.0],[-75.46981,38.80839,11610.0]]},"properties":{"ef_share":0.0,"ef_tj":0.0}},{"type":"Feature","geometry":{"type":"LineString","coordinates":[[-75.46981,38.80839,11610.0],[-75.48565,38.69239,11610.0]]},"properties":{"ef_share":0.0,"ef_tj":0.0}},{"type":"Feature","geometry":{"type":"LineString","coordinates":[[-75.48565,38.69239,11610.0],[-75.50157,38.57647,11610.0]]},"properties":{"ef_share":0.0,"ef_tj":0.0}},{"type":"Feature","geometry":{"type":"LineString","coordinates":[[-75.50157,38.57647,11610.0],[-75.5174,38.46011,11610.0]]},"properties":{"ef_share":0.0,"ef_tj":0.0}},{"type":"Feature","geometry":{"type":"LineString","coordinates":[[-75.5174,38.46011,11610.0],[-75.53825,38.34544,11600.0]]},"properties":{"ef_share":0.0,"ef_tj":0.0}},{"type":"Feature","geometry":{"type":"LineString","coordinates":[[-75.53825,38.34544,11600.0],[-75.60944,38.25192,11610.0]]},"properties":{"ef_share":0.0,"ef_tj":0.0}},{"type":"Feature","geometry":{"type":"LineString","coordinates":[[-75.60944,38.25192,11610.0],[-75.68739,38.16264,11610.0]]},"properties":{"ef_share":0.0,"ef_tj":0.0}},{"type":"Feature","geometry":{"type":"LineString","coordinates":[[-75.68739,38.16264,11610.0],[-75.76477,38.07351,11610.0]]},"properties":{"ef_share":0.0,"ef_tj":0.0}},{"type":"Feature","geometry":{"type":"LineString","coordinates":[[-75.76477,38.07351,11610.0],[-75.84159,37.98466,11610.0]]},"properties":{"ef_share":0.0,"ef_tj":0.0}},{"type":"Feature","geometry":{"type":"LineString","coordinates":[[-75.84159,37.98466,11610.0],[-75.9183,37.89566,11610.0]]},"properties":{"ef_share":0.0,"ef_tj":0.0}},{"type":"Feature","geometry":{"type":"LineString","coordinates":[[-75.9183,37.89566,11610.0],[-75.99452,37.80701,11610.0]]},"properties":{"ef_share":0.0,"ef_tj":0.0}},{"type":"Feature","geometry":{"type":"LineString","coordinates":[[-75.99452,37.80701,11610.0],[-76.07065,37.71824,11610.0]]},"properties":{"ef_share":0.0,"ef_tj":0.0}},{"type":"Feature","geometry":{"type":"LineString","coordinates":[[-76.07065,37.71824,11610.0],[-76.14648,37.6293,11610.0]]},"properties":{"ef_share":0.0,"ef_tj":0.0}},{"type":"Feature","geometry":{"type":"LineString","coordinates":[[-76.14648,37.6293,11610.0],[-76.21495,37.53363,11600.0]]},"properties":{"ef_share":0.0,"ef_tj":0.0}},{"type":"Feature","geometry":{"type":"LineString","coordinates":[[-76.21495,37.53363,11600.0],[-76.27934,37.43615,11610.0]]},"properties":{"ef_share":0.0,"ef_tj":0.0}},{"type":"Feature","geometry":{"type":"LineString","coordinates":[[-76.27934,37.43615,11610.0],[-76.34386,37.33883,11600.0]]},"properties":{"ef_share":0.0,"ef_tj":0.0}},{"type":"Feature","geometry":{"type":"LineString","coordinates":[[-76.34386,37.33883,11600.0],[-76.4081,37.24177,11610.0]]},"properties":{"ef_share":0.0,"ef_tj":0.0}},{"type":"Feature","geometry":{"type":"LineString","coordinates":[[-76.4081,37.24177,11610.0],[-76.47205,37.14476,11610.0]]},"properties":{"ef_share":0.0,"ef_tj":0.0}},{"type":"Feature","geometry":{"type":"LineString","coordinates":[[-76.47205,37.14476,11610.0],[-76.5356,37.04797,11610.0]]},"properties":{"ef_share":0.0,"ef_tj":0.0}},{"type":"Feature","geometry":{"type":"LineString","coordinates":[[-76.5356,37.04797,11610.0],[-76.59893,36.95138,11610.0]]},"properties":{"ef_share":0.0,"ef_tj":0.0}},{"type":"Feature","geometry":{"type":"LineString","coordinates":[[-76.59893,36.95138,11610.0],[-76.66258,36.85392,11610.0]]},"properties":{"ef_share":0.0,"ef_tj":0.0}},{"type":"Feature","geometry":{"type":"LineString","coordinates":[[-76.66258,36.85392,11610.0],[-76.72587,36.75672,11610.0]]},"properties":{"ef_share":0.0,"ef_tj":0.0}},{"type":"Feature","geometry":{"type":"LineString","coordinates":[[-76.72587,36.75672,11610.0],[-76.78905,36.65947,11610.0]]},"properties":{"ef_share":0.0,"ef_tj":0.0}},{"type":"Feature","geometry":{"type":"LineString","coordinates":[[-76.78905,36.65947,11610.0],[-76.85197,36.56235,11610.0]]},"properties":{"ef_share":0.0,"ef_tj":0.0}},{"type":"Feature","geometry":{"type":"LineString","coordinates":[[-76.85197,36.56235,11610.0],[-76.9152,36.46444,11610.0]]},"properties":{"ef_share":0.0,"ef_tj":0.0}},{"type":"Feature","geometry":{"type":"LineString","coordinates":[[-76.9152,36.46444,11610.0],[-76.97827,36.36646,11610.0]]},"properties":{"ef_share":0.0,"ef_tj":0.0}},{"type":"Feature","geometry":{"type":"LineString","coordinates":[[-76.97827,36.36646,11610.0],[-77.04127,36.26829,11610.0]]},"properties":{"ef_share":0.0,"ef_tj":0.0}},{"type":"Feature","geometry":{"type":"LineString","coordinates":[[-77.04127,36.26829,11610.0],[-77.10413,36.17007,11610.0]]},"properties":{"ef_share":0.0,"ef_tj":0.0}},{"type":"Feature","geometry":{"type":"LineString","coordinates":[[-77.10413,36.17007,11610.0],[-77.15803,36.068,11600.0]]},"properties":{"ef_share":0.0,"ef_tj":0.0}},{"type":"Feature","geometry":{"type":"LineString","coordinates":[[-77.15803,36.068,11600.0],[-77.13074,35.94926,11600.0]]},"properties":{"ef_share":0.0,"ef_tj":0.0}},{"type":"Feature","geometry":{"type":"LineString","coordinates":[[-77.13074,35.94926,11600.0],[-77.03056,35.84207,11610.0]]},"properties":{"ef_share":0.0,"ef_tj":0.0}},{"type":"Feature","geometry":{"type":"LineString","coordinates":[[-77.03056,35.84207,11610.0],[-76.92853,35.73556,11600.0]]},"properties":{"ef_share":0.0,"ef_tj":0.0}},{"type":"Feature","geometry":{"type":"LineString","coordinates":[[-76.92853,35.73556,11600.0],[-76.89159,35.61794,11600.0]]},"properties":{"ef_share":0.0,"ef_tj":0.0}},{"type":"Feature","geometry":{"type":"LineString","coordinates":[[-76.89159,35.61794,11600.0],[-76.93563,35.51659,11610.0]]},"properties":{"ef_share":0.0,"ef_tj":0.0}},{"type":"Feature","geometry":{"type":"LineString","coordinates":[[-76.93563,35.51659,11610.0],[-77.0204,35.44166,11600.0]]},"properties":{"ef_share":0.0,"ef_tj":0.0}},{"type":"Feature","geometry":{"type":"LineString","coordinates":[[-77.0204,35.44166,11600.0],[-77.10794,35.36688,11610.0]]},"properties":{"ef_share":0.0,"ef_tj":0.0}},{"type":"Feature","geometry":{"type":"LineString","coordinates":[[-77.10794,35.36688,11610.0],[-77.19649,35.29057,11610.0]]},"properties":{"ef_share":0.0,"ef_tj":0.0}},{"type":"Feature","geometry":{"type":"LineString","coordinates":[[-77.19649,35.29057,11610.0],[-77.28499,35.21417,11610.0]]},"properties":{"ef_share":0.0,"ef_tj":0.0}},{"type":"Feature","geometry":{"type":"LineString","coordinates":[[-77.28499,35.21417,11610.0],[-77.37344,35.13777,11610.0]]},"properties":{"ef_share":0.0,"ef_tj":0.0}},{"type":"Feature","geometry":{"type":"LineString","coordinates":[[-77.37344,35.13777,11610.0],[-77.46153,35.06145,11610.0]]},"properties":{"ef_share":0.0,"ef_tj":0.0}},{"type":"Feature","geometry":{"type":"LineString","coordinates":[[-77.46153,35.06145,11610.0],[-77.54946,34.98508,11610.0]]},"properties":{"ef_share":0.0,"ef_tj":0.0}},{"type":"Feature","geometry":{"type":"LineString","coordinates":[[-77.54946,34.98508,11610.0],[-77.63753,34.90839,11610.0]]},"properties":{"ef_share":0.0,"ef_tj":0.0}},{"type":"Feature","geometry":{"type":"LineString","coordinates":[[-77.63753,34.90839,11610.0],[-77.72528,34.83174,11610.0]]},"properties":{"ef_share":0.0,"ef_tj":0.0}},{"type":"Feature","geometry":{"type":"LineString","coordinates":[[-77.72528,34.83174,11610.0],[-77.81236,34.7555,11610.0]]},"properties":{"ef_share":0.0,"ef_tj":0.0}},{"type":"Feature","geometry":{"type":"LineString","coordinates":[[-77.81236,34.7555,11610.0],[-77.89881,34.67952,11610.0]]},"properties":{"ef_share":0.0,"ef_tj":0.0}},{"type":"Feature","geometry":{"type":"LineString","coordinates":[[-77.89881,34.67952,11610.0],[-77.98476,34.60386,11610.0]]},"properties":{"ef_share":0.0,"ef_tj":0.0}},{"type":"Feature","geometry":{"type":"LineString","coordinates":[[-77.98476,34.60386,11610.0],[-78.07056,34.52826,11610.0]]},"properties":{"ef_share":0.0,"ef_tj":0.0}},{"type":"Feature","geometry":{"type":"LineString","coordinates":[[-78.07056,34.52826,11610.0],[-78.15593,34.4527,11610.0]]},"properties":{"ef_share":0.0,"ef_tj":0.0}},{"type":"Feature","geometry":{"type":"LineString","coordinates":[[-78.15593,34.4527,11610.0],[-78.24106,34.377,11610.0]]},"properties":{"ef_share":0.0,"ef_tj":0.0}},{"type":"Feature","geometry":{"type":"LineString","coordinates":[[-78.24106,34.377,11610.0],[-78.32624,34.30128,11610.0]]},"properties":{"ef_share":0.0,"ef_tj":0.0}},{"type":"Feature","geometry":{"type":"LineString","coordinates":[[-78.32624,34.30128,11610.0],[-78.41134,34.22544,11610.0]]},"properties":{"ef_share":0.0,"ef_tj":0.0}},{"type":"Feature","geometry":{"type":"LineString","coordinates":[[-78.41134,34.22544,11610.0],[-78.49646,34.14932,11610.0]]},"properties":{"ef_share":0.0,"ef_tj":0.0}},{"type":"Feature","geometry":{"type":"LineString","coordinates":[[-78.49646,34.14932,11610.0],[-78.58138,34.07316,11610.0]]},"properties":{"ef_share":0.0,"ef_tj":0.0}},{"type":"Feature","geometry":{"type":"LineString","coordinates":[[-78.58138,34.07316,11610.0],[-78.66628,33.99686,11610.0]]},"properties":{"ef_share":0.0,"ef_tj":0.0}},{"type":"Feature","geometry":{"type":"LineString","coordinates":[[-78.66628,33.99686,11610.0],[-78.751,33.92051,11610.0]]},"properties":{"ef_share":0.0,"ef_tj":0.0}},{"type":"Feature","geometry":{"type":"LineString","coordinates":[[-78.751,33.92051,11610.0],[-78.83598,33.84369,11610.0]]},"properties":{"ef_share":0.0,"ef_tj":0.0}},{"type":"Feature","geometry":{"type":"LineString","coordinates":[[-78.83598,33.84369,11610.0],[-78.92052,33.76717,11610.0]]},"properties":{"ef_share":0.0,"ef_tj":0.0}},{"type":"Feature","geometry":{"type":"LineString","coordinates":[[-78.92052,33.76717,11610.0],[-79.00577,33.68976,11610.0]]},"properties":{"ef_share":0.0,"ef_tj":0.0}},{"type":"Feature","geometry":{"type":"LineString","coordinates":[[-79.00577,33.68976,11610.0],[-79.09094,33.61223,11610.0]]},"properties":{"ef_share":0.0,"ef_tj":0.0}},{"type":"Feature","geometry":{"type":"LineString","coordinates":[[-79.09094,33.61223,11610.0],[-79.17611,33.53444,11610.0]]},"properties":{"ef_share":0.0,"ef_tj":0.0}},{"type":"Feature","geometry":{"type":"LineString","coordinates":[[-79.17611,33.53444,11610.0],[-79.26134,33.45649,11610.0]]},"properties":{"ef_share":0.0,"ef_tj":0.0}},{"type":"Feature","geometry":{"type":"LineString","coordinates":[[-79.26134,33.45649,11610.0],[-79.34644,33.37836,11610.0]]},"properties":{"ef_share":0.0,"ef_tj":0.0}},{"type":"Feature","geometry":{"type":"LineString","coordinates":[[-79.34644,33.37836,11610.0],[-79.43151,33.3001,11610.0]]},"properties":{"ef_share":0.0,"ef_tj":0.0}},{"type":"Feature","geometry":{"type":"LineString","coordinates":[[-79.43151,33.3001,11610.0],[-79.51649,33.22174,11610.0]]},"properties":{"ef_share":0.0,"ef_tj":0.0}},{"type":"Feature","geometry":{"type":"LineString","coordinates":[[-79.51649,33.22174,11610.0],[-79.6018,33.14294,11610.0]]},"properties":{"ef_share":0.0,"ef_tj":0.0}},{"type":"Feature","geometry":{"type":"LineString","coordinates":[[-79.6018,33.14294,11610.0],[-79.68689,33.06402,11610.0]]},"properties":{"ef_share":0.0,"ef_tj":0.0}},{"type":"Feature","geometry":{"type":"LineString","coordinates":[[-79.68689,33.06402,11610.0],[-79.77224,32.98477,11610.0]]},"properties":{"ef_share":0.0,"ef_tj":0.0}},{"type":"Feature","geometry":{"type":"LineString","coordinates":[[-79.77224,32.98477,11610.0],[-79.8573,32.90552,11610.0]]},"properties":{"ef_share":0.0,"ef_tj":0.0}},{"type":"Feature","geometry":{"type":"LineString","coordinates":[[-79.8573,32.90552,11610.0],[-79.9427,32.82578,11610.0]]},"properties":{"ef_share":0.0,"ef_tj":0.0}},{"type":"Feature","geometry":{"type":"LineString","coordinates":[[-79.9427,32.82578,11610.0],[-80.02801,32.74587,11610.0]]},"properties":{"ef_share":0.0,"ef_tj":0.0}},{"type":"Feature","geometry":{"type":"LineString","coordinates":[[-80.02801,32.74587,11610.0],[-80.11346,32.66564,11610.0]]},"properties":{"ef_share":0.0,"ef_tj":0.0}},{"type":"Feature","geometry":{"type":"LineString","coordinates":[[-80.11346,32.66564,11610.0],[-80.19884,32.58536,11610.0]]},"properties":{"ef_share":0.0,"ef_tj":0.0}},{"type":"Feature","geometry":{"type":"LineString","coordinates":[[-80.19884,32.58536,11610.0],[-80.27995,32.50092,11610.0]]},"properties":{"ef_share":0.0,"ef_tj":0.0}},{"type":"Feature","geometry":{"type":"LineString","coordinates":[[-80.27995,32.50092,11610.0],[-80.34419,32.40115,11610.0]]},"properties":{"ef_share":0.0,"ef_tj":0.0}},{"type":"Feature","geometry":{"type":"LineString","coordinates":[[-80.34419,32.40115,11610.0],[-80.4074,32.30013,11610.0]]},"properties":{"ef_share":0.0,"ef_tj":0.0}},{"type":"Feature","geometry":{"type":"LineString","coordinates":[[-80.4074,32.30013,11610.0],[-80.47067,32.19981,11610.0]]},"properties":{"ef_share":0.0,"ef_tj":0.0}},{"type":"Feature","geometry":{"type":"LineString","coordinates":[[-80.47067,32.19981,11610.0],[-80.52882,32.09571,11610.0]]},"properties":{"ef_share":0.0,"ef_tj":0.0}},{"type":"Feature","geometry":{"type":"LineString","coordinates":[[-80.52882,32.09571,11610.0],[-80.57167,31.98225,11610.0]]},"properties":{"ef_share":0.0,"ef_tj":0.0}},{"type":"Feature","geometry":{"type":"LineString","coordinates":[[-80.57167,31.98225,11610.0],[-80.61314,31.86752,11610.0]]},"properties":{"ef_share":0.0,"ef_tj":0.0}},{"type":"Feature","geometry":{"type":"LineString","coordinates":[[-80.61314,31.86752,11610.0],[-80.65615,31.75363,11610.0]]},"properties":{"ef_share":0.0,"ef_tj":0.0}},{"type":"Feature","geometry":{"type":"LineString","coordinates":[[-80.65615,31.75363,11610.0],[-80.69924,31.63956,11610.0]]},"properties":{"ef_share":0.0,"ef_tj":0.0}},{"type":"Feature","geometry":{"type":"LineString","coordinates":[[-80.69924,31.63956,11610.0],[-80.7422,31.52482,11610.0]]},"properties":{"ef_share":0.0,"ef_tj":0.0}},{"type":"Feature","geometry":{"type":"LineString","coordinates":[[-80.7422,31.52482,11610.0],[-80.78503,31.40988,11610.0]]},"properties":{"ef_share":0.0,"ef_tj":0.0}},{"type":"Feature","geometry":{"type":"LineString","coordinates":[[-80.78503,31.40988,11610.0],[-80.82762,31.29509,11610.0]]},"properties":{"ef_share":0.0,"ef_tj":0.0}},{"type":"Feature","geometry":{"type":"LineString","coordinates":[[-80.82762,31.29509,11610.0],[-80.87068,31.17889,11610.0]]},"properties":{"ef_share":0.0,"ef_tj":0.0}},{"type":"Feature","geometry":{"type":"LineString","coordinates":[[-80.87068,31.17889,11610.0],[-80.91336,31.06348,11610.0]]},"properties":{"ef_share":0.0,"ef_tj":0.0}},{"type":"Feature","geometry":{"type":"LineString","coordinates":[[-80.91336,31.06348,11610.0],[-80.95611,30.94756,11610.0]]},"properties":{"ef_share":0.0,"ef_tj":0.0}},{"type":"Feature","geometry":{"type":"LineString","coordinates":[[-80.95611,30.94756,11610.0],[-80.99895,30.83113,11610.0]]},"properties":{"ef_share":0.0,"ef_tj":0.0}},{"type":"Feature","geometry":{"type":"LineString","coordinates":[[-80.99895,30.83113,11610.0],[-81.0417,30.7146,11610.0]]},"properties":{"ef_share":0.0,"ef_tj":0.0}},{"type":"Feature","geometry":{"type":"LineString","coordinates":[[-81.0417,30.7146,11610.0],[-81.07506,30.594,11610.0]]},"properties":{"ef_share":0.0,"ef_tj":0.0}},{"type":"Feature","geometry":{"type":"LineString","coordinates":[[-81.07506,30.594,11610.0],[-81.08185,30.465,11610.0]]},"properties":{"ef_share":0.0,"ef_tj":0.0}},{"type":"Feature","geometry":{"type":"LineString","coordinates":[[-81.08185,30.465,11610.0],[-81.08703,30.3362,11560.0]]},"properties":{"ef_share":0.0,"ef_tj":0.0}},{"type":"Feature","geometry":{"type":"LineString","coordinates":[[-81.08703,30.3362,11560.0],[-81.09293,30.20753,11300.0]]},"properties":{"ef_share":0.0,"ef_tj":0.0}},{"type":"Feature","geometry":{"type":"LineString","coordinates":[[-81.09293,30.20753,11300.0],[-81.09894,30.0778,11130.0]]},"properties":{"ef_share":0.0,"ef_tj":0.0}},{"type":"Feature","geometry":{"type":"LineString","coordinates":[[-81.09894,30.0778,11130.0],[-81.10489,29.94692,10990.0]]},"properties":{"ef_share":0.0,"ef_tj":0.0}},{"type":"Feature","geometry":{"type":"LineString","coordinates":[[-81.10489,29.94692,10990.0],[-81.1107,29.81658,10990.0]]},"properties":{"ef_share":0.0,"ef_tj":0.0}},{"type":"Feature","geometry":{"type":"LineString","coordinates":[[-81.1107,29.81658,10990.0],[-81.11657,29.68654,10990.0]]},"properties":{"ef_share":0.0,"ef_tj":0.0}},{"type":"Feature","geometry":{"type":"LineString","coordinates":[[-81.11657,29.68654,10990.0],[-81.12242,29.55682,10990.0]]},"properties":{"ef_share":0.0,"ef_tj":0.0}},{"type":"Feature","geometry":{"type":"LineString","coordinates":[[-81.12242,29.55682,10990.0],[-81.12823,29.42714,10990.0]]},"properties":{"ef_share":0.0,"ef_tj":0.0}},{"type":"Feature","geometry":{"type":"LineString","coordinates":[[-81.12823,29.42714,10990.0],[-81.12785,29.29615,10990.0]]},"properties":{"ef_share":0.0,"ef_tj":0.0}},{"type":"Feature","geometry":{"type":"LineString","coordinates":[[-81.12785,29.29615,10990.0],[-81.08119,29.16429,10990.0]]},"properties":{"ef_share":0.0,"ef_tj":0.0}},{"type":"Feature","geometry":{"type":"LineString","coordinates":[[-81.08119,29.16429,10990.0],[-81.02647,29.03348,10990.0]]},"properties":{"ef_share":0.0,"ef_tj":0.0}},{"type":"Feature","geometry":{"type":"LineString","coordinates":[[-81.02647,29.03348,10990.0],[-80.97247,28.90194,10990.0]]},"properties":{"ef_share":0.0,"ef_tj":0.0}},{"type":"Feature","geometry":{"type":"LineString","coordinates":[[-80.97247,28.90194,10990.0],[-80.91901,28.77021,10990.0]]},"properties":{"ef_share":0.0,"ef_tj":0.0}},{"type":"Feature","geometry":{"type":"LineString","coordinates":[[-80.91901,28.77021,10990.0],[-80.86622,28.63963,10900.0]]},"properties":{"ef_share":0.0,"ef_tj":0.0}},{"type":"Feature","geometry":{"type":"LineString","coordinates":[[-80.86622,28.63963,10900.0],[-80.81368,28.50919,10550.0]]},"properties":{"ef_share":0.0,"ef_tj":0.0}},{"type":"Feature","geometry":{"type":"LineString","coordinates":[[-80.81368,28.50919,10550.0],[-80.76106,28.37852,10170.0]]},"properties":{"ef_share":0.0,"ef_tj":0.0}},{"type":"Feature","geometry":{"type":"LineString","coordinates":[[-80.76106,28.37852,10170.0],[-80.70912,28.24937,9690.0]]},"properties":{"ef_share":0.0,"ef_tj":0.0}},{"type":"Feature","geometry":{"type":"LineString","coordinates":[[-80.70912,28.24937,9690.0],[-80.65907,28.12437,8900.0]]},"properties":{"ef_share":0.0,"ef_tj":0.0}},{"type":"Feature","geometry":{"type":"LineString","coordinates":[[-80.65907,28.12437,8900.0],[-80.60775,27.99591,7770.0]]},"properties":{"ef_share":0.0,"ef_tj":0.0}},{"type":"Feature","geometry":{"type":"LineString","coordinates":[[-80.60775,27.99591,7770.0],[-80.55766,27.87075,6980.0]]},"properties":{"ef_share":0.0,"ef_tj":0.0}},{"type":"Feature","geometry":{"type":"LineString","coordinates":[[-80.55766,27.87075,6980.0],[-80.50899,27.75122,6230.0]]},"properties":{"ef_share":0.0,"ef_tj":0.0}},{"type":"Feature","geometry":{"type":"LineString","coordinates":[[-80.50899,27.75122,6230.0],[-80.438,27.64673,5500.0]]},"properties":{"ef_share":0.0,"ef_tj":0.0}},{"type":"Feature","geometry":{"type":"LineString","coordinates":[[-80.438,27.64673,5500.0],[-80.36199,27.55105,4700.0]]},"properties":{"ef_share":0.0,"ef_tj":0.0}},{"type":"Feature","geometry":{"type":"LineString","coordinates":[[-80.36199,27.55105,4700.0],[-80.28884,27.45797,3970.0]]},"properties":{"ef_share":0.0,"ef_tj":0.0}},{"type":"Feature","geometry":{"type":"LineString","coordinates":[[-80.28884,27.45797,3970.0],[-80.21909,27.36869,3260.0]]},"properties":{"ef_share":0.0,"ef_tj":0.0}},{"type":"Feature","geometry":{"type":"LineString","coordinates":[[-80.21909,27.36869,3260.0],[-80.15558,27.28718,3040.0]]},"properties":{"ef_share":0.0,"ef_tj":0.0}},{"type":"Feature","geometry":{"type":"LineString","coordinates":[[-80.15558,27.28718,3040.0],[-80.11036,27.21317,2870.0]]},"properties":{"ef_share":0.0,"ef_tj":0.0}},{"type":"Feature","geometry":{"type":"LineString","coordinates":[[-80.11036,27.21317,2870.0],[-80.07546,27.14057,2450.0]]},"properties":{"ef_share":0.0,"ef_tj":0.0}},{"type":"Feature","geometry":{"type":"LineString","coordinates":[[-80.07546,27.14057,2450.0],[-80.03942,27.06779,1970.0]]},"properties":{"ef_share":0.0,"ef_tj":0.0}},{"type":"Feature","geometry":{"type":"LineString","coordinates":[[-80.03942,27.06779,1970.0],[-80.00346,26.99513,1560.0]]},"properties":{"ef_share":0.0,"ef_tj":0.0}},{"type":"Feature","geometry":{"type":"LineString","coordinates":[[-80.00346,26.99513,1560.0],[-80.0073,26.92265,1170.0]]},"properties":{"ef_share":0.0,"ef_tj":0.0}},{"type":"Feature","geometry":{"type":"LineString","coordinates":[[-80.0073,26.92265,1170.0],[-80.05978,26.86226,1130.0]]},"properties":{"ef_share":0.0,"ef_tj":0.0}},{"type":"Feature","geometry":{"type":"LineString","coordinates":[[-80.05978,26.86226,1130.0],[-80.10977,26.8104,1140.0]]},"properties":{"ef_share":0.0,"ef_tj":0.0}},{"type":"Feature","geometry":{"type":"LineString","coordinates":[[-80.10977,26.8104,1140.0],[-80.18023,26.80112,1130.0]]},"properties":{"ef_share":0.0,"ef_tj":0.0}},{"type":"Feature","geometry":{"type":"LineString","coordinates":[[-80.18023,26.80112,1130.0],[-80.2502,26.79249,1100.0]]},"properties":{"ef_share":0.0,"ef_tj":0.0}},{"type":"Feature","geometry":{"type":"LineString","coordinates":[[-80.2502,26.79249,1100.0],[-80.29292,26.74142,780.0]]},"properties":{"ef_share":0.0,"ef_tj":0.0}},{"type":"Feature","geometry":{"type":"LineString","coordinates":[[-80.29292,26.74142,780.0],[-80.27796,26.69269,520.0]]},"properties":{"ef_share":0.0,"ef_tj":0.0}}]}