{"type":"FeatureCollection","properties":{"icao24":"aa3410","registration":"N757AF","owner_label":"Donald Trump","combined_co2e_central":127963.8,"fuel_co2_kg":37795.3,"contrail_co2e_central":90168.5,"tier":"high"},"features":[{"type":"Feature","geometry":{"type":"LineString","coordinates":[[-73.89636,40.80741,710.0],[-73.91769,40.8666,1660.0]]},"properties":{"ef_share":0.0,"ef_tj":0.0}},{"type":"Feature","geometry":{"type":"LineString","coordinates":[[-73.91769,40.8666,1660.0],[-73.96605,40.90559,2640.0]]},"properties":{"ef_share":0.0,"ef_tj":0.0}},{"type":"Feature","geometry":{"type":"LineString","coordinates":[[-73.96605,40.90559,2640.0],[-74.00672,40.84985,3460.0]]},"properties":{"ef_share":0.0,"ef_tj":0.0}},{"type":"Feature","geometry":{"type":"LineString","coordinates":[[-74.00672,40.84985,3460.0],[-74.04234,40.77047,3690.0]]},"properties":{"ef_share":0.0,"ef_tj":0.0}},{"type":"Feature","geometry":{"type":"LineString","coordinates":[[-74.04234,40.77047,3690.0],[-74.08211,40.68447,3680.0]]},"properties":{"ef_share":0.0,"ef_tj":0.0}},{"type":"Feature","geometry":{"type":"LineString","coordinates":[[-74.08211,40.68447,3680.0],[-74.12039,40.59801,3990.0]]},"properties":{"ef_share":0.0,"ef_tj":0.0}},{"type":"Feature","geometry":{"type":"LineString","coordinates":[[-74.12039,40.59801,3990.0],[-74.14494,40.50999,5060.0]]},"properties":{"ef_share":0.0,"ef_tj":0.0}},{"type":"Feature","geometry":{"type":"LineString","coordinates":[[-74.14494,40.50999,5060.0],[-74.16411,40.41996,5210.0]]},"properties":{"ef_share":0.0,"ef_tj":0.0}},{"type":"Feature","geometry":{"type":"LineString","coordinates":[[-74.16411,40.41996,5210.0],[-74.18299,40.32954,6040.0]]},"properties":{"ef_share":0.0,"ef_tj":0.0}},{"type":"Feature","geometry":{"type":"LineString","coordinates":[[-74.18299,40.32954,6040.0],[-74.20255,40.23744,6790.0]]},"properties":{"ef_share":0.0,"ef_tj":0.0}},{"type":"Feature","geometry":{"type":"LineString","coordinates":[[-74.20255,40.23744,6790.0],[-74.23128,40.14582,7320.0]]},"properties":{"ef_share":0.0,"ef_tj":0.0}},{"type":"Feature","geometry":{"type":"LineString","coordinates":[[-74.23128,40.14582,7320.0],[-74.29728,40.07249,7320.0]]},"properties":{"ef_share":0.0,"ef_tj":0.0}},{"type":"Feature","geometry":{"type":"LineString","coordinates":[[-74.29728,40.07249,7320.0],[-74.37083,40.00439,7790.0]]},"properties":{"ef_share":0.0,"ef_tj":0.0}},{"type":"Feature","geometry":{"type":"LineString","coordinates":[[-74.37083,40.00439,7790.0],[-74.4457,39.93399,8370.0]]},"properties":{"ef_share":0.0,"ef_tj":0.0}},{"type":"Feature","geometry":{"type":"LineString","coordinates":[[-74.4457,39.93399,8370.0],[-74.52245,39.86161,8870.0]]},"properties":{"ef_share":0.0,"ef_tj":0.0}},{"type":"Feature","geometry":{"type":"LineString","coordinates":[[-74.52245,39.86161,8870.0],[-74.59961,39.78859,9610.0]]},"properties":{"ef_share":0.0,"ef_tj":0.0}},{"type":"Feature","geometry":{"type":"LineString","coordinates":[[-74.59961,39.78859,9610.0],[-74.67071,39.7214,10350.0]]},"properties":{"ef_share":0.0,"ef_tj":0.0}},{"type":"Feature","geometry":{"type":"LineString","coordinates":[[-74.67071,39.7214,10350.0],[-74.73975,39.65586,10870.0]]},"properties":{"ef_share":0.0,"ef_tj":0.0}},{"type":"Feature","geometry":{"type":"LineString","coordinates":[[-74.73975,39.65586,10870.0],[-74.80756,39.59134,11210.0]]},"properties":{"ef_share":0.237,"ef_tj":10.623317}},{"type":"Feature","geometry":{"type":"LineString","coordinates":[[-74.80756,39.59134,11210.0],[-74.87442,39.52752,11560.0]]},"properties":{"ef_share":0.625,"ef_tj":27.995376}},{"type":"Feature","geometry":{"type":"LineString","coordinates":[[-74.87442,39.52752,11560.0],[-74.94043,39.46438,11610.0]]},"properties":{"ef_share":0.913,"ef_tj":40.851903}},{"type":"Feature","geometry":{"type":"LineString","coordinates":[[-74.94043,39.46438,11610.0],[-75.00604,39.40146,11610.0]]},"properties":{"ef_share":0.81,"ef_tj":36.259252}},{"type":"Feature","geometry":{"type":"LineString","coordinates":[[-75.00604,39.40146,11610.0],[-75.07288,39.33722,11610.0]]},"properties":{"ef_share":0.976,"ef_tj":43.688909}},{"type":"Feature","geometry":{"type":"LineString","coordinates":[[-75.07288,39.33722,11610.0],[-75.1434,39.27466,11610.0]]},"properties":{"ef_share":1.0,"ef_tj":44.764345}},{"type":"Feature","geometry":{"type":"LineString","coordinates":[[-75.1434,39.27466,11610.0],[-75.21861,39.21476,11610.0]]},"properties":{"ef_share":0.997,"ef_tj":44.623313}},{"type":"Feature","geometry":{"type":"LineString","coordinates":[[-75.21861,39.21476,11610.0],[-75.29388,39.15451,11610.0]]},"properties":{"ef_share":0.064,"ef_tj":2.847482}},{"type":"Feature","geometry":{"type":"LineString","coordinates":[[-75.29388,39.15451,11610.0],[-75.36894,39.09427,11610.0]]},"properties":{"ef_share":0.054,"ef_tj":2.423374}},{"type":"Feature","geometry":{"type":"LineString","coordinates":[[-75.36894,39.09427,11610.0],[-75.43714,39.02901,11600.0]]},"properties":{"ef_share":0.478,"ef_tj":21.417063}},{"type":"Feature","geometry":{"type":"LineString","coordinates":[[-75.43714,39.02901,11600.0],[-75.45272,38.9364,11610.0]]},"properties":{"ef_share":0.411,"ef_tj":18.387215}},{"type":"Feature","geometry":{"type":"LineString","coordinates":[[-75.45272,38.9364,11610.0],[-75.46513,38.84192,11610.0]]},"properties":{"ef_share":0.37,"ef_tj":16.581428}},{"type":"Feature","geometry":{"type":"LineString","coordinates":[[-75.46513,38.84192,11610.0],[-75.47842,38.74656,11610.0]]},"properties":{"ef_share":0.076,"ef_tj":3.417568}},{"type":"Feature","geometry":{"type":"LineString","coordinates":[[-75.47842,38.74656,11610.0],[-75.49152,38.65049,11610.0]]},"properties":{"ef_share":0.068,"ef_tj":3.02209}},{"type":"Feature","geometry":{"type":"LineString","coordinates":[[-75.49152,38.65049,11610.0],[-75.50432,38.55666,11940.0]]},"properties":{"ef_share":0.0,"ef_tj":0.0}},{"type":"Feature","geometry":{"type":"LineString","coordinates":[[-75.50432,38.55666,11940.0],[-75.51712,38.4627,12150.0]]},"properties":{"ef_share":0.0,"ef_tj":0.0}},{"type":"Feature","geometry":{"type":"LineString","coordinates":[[-75.51712,38.4627,12150.0],[-75.53002,38.36704,12210.0]]},"properties":{"ef_share":0.0,"ef_tj":0.0}},{"type":"Feature","geometry":{"type":"LineString","coordinates":[[-75.53002,38.36704,12210.0],[-75.57781,38.28811,12210.0]]},"properties":{"ef_share":0.0,"ef_tj":0.0}},{"type":"Feature","geometry":{"type":"LineString","coordinates":[[-75.57781,38.28811,12210.0],[-75.64,38.21698,12210.0]]},"properties":{"ef_share":0.0,"ef_tj":0.0}},{"type":"Feature","geometry":{"type":"LineString","coordinates":[[-75.64,38.21698,12210.0],[-75.70251,38.14512,12210.0]]},"properties":{"ef_share":0.0,"ef_tj":0.0}},{"type":"Feature","geometry":{"type":"LineString","coordinates":[[-75.70251,38.14512,12210.0],[-75.76519,38.07283,12210.0]]},"properties":{"ef_share":0.0,"ef_tj":0.0}},{"type":"Feature","geometry":{"type":"LineString","coordinates":[[-75.76519,38.07283,12210.0],[-75.82828,37.99991,12210.0]]},"properties":{"ef_share":0.0,"ef_tj":0.0}},{"type":"Feature","geometry":{"type":"LineString","coordinates":[[-75.82828,37.99991,12210.0],[-75.89145,37.92663,12210.0]]},"properties":{"ef_share":0.0,"ef_tj":0.0}},{"type":"Feature","geometry":{"type":"LineString","coordinates":[[-75.89145,37.92663,12210.0],[-75.95472,37.85311,12210.0]]},"properties":{"ef_share":0.0,"ef_tj":0.0}},{"type":"Feature","geometry":{"type":"LineString","coordinates":[[-75.95472,37.85311,12210.0],[-76.01807,37.77933,12210.0]]},"properties":{"ef_share":0.0,"ef_tj":0.0}},{"type":"Feature","geometry":{"type":"LineString","coordinates":[[-76.01807,37.77933,12210.0],[-76.08156,37.70521,12210.0]]},"properties":{"ef_share":0.0,"ef_tj":0.0}},{"type":"Feature","geometry":{"type":"LineString","coordinates":[[-76.08156,37.70521,12210.0],[-76.14555,37.63018,12210.0]]},"properties":{"ef_share":0.0,"ef_tj":0.0}},{"type":"Feature","geometry":{"type":"LineString","coordinates":[[-76.14555,37.63018,12210.0],[-76.19245,37.5442,12210.0]]},"properties":{"ef_share":0.0,"ef_tj":0.0}},{"type":"Feature","geometry":{"type":"LineString","coordinates":[[-76.19245,37.5442,12210.0],[-76.22977,37.45236,12210.0]]},"properties":{"ef_share":0.0,"ef_tj":0.0}},{"type":"Feature","geometry":{"type":"LineString","coordinates":[[-76.22977,37.45236,12210.0],[-76.26781,37.36053,12210.0]]},"properties":{"ef_share":0.0,"ef_tj":0.0}},{"type":"Feature","geometry":{"type":"LineString","coordinates":[[-76.26781,37.36053,12210.0],[-76.30593,37.26852,12210.0]]},"properties":{"ef_share":0.0,"ef_tj":0.0}},{"type":"Feature","geometry":{"type":"LineString","coordinates":[[-76.30593,37.26852,12210.0],[-76.34397,37.17636,12210.0]]},"properties":{"ef_share":0.0,"ef_tj":0.0}},{"type":"Feature","geometry":{"type":"LineString","coordinates":[[-76.34397,37.17636,12210.0],[-76.38177,37.08427,12210.0]]},"properties":{"ef_share":0.0,"ef_tj":0.0}},{"type":"Feature","geometry":{"type":"LineString","coordinates":[[-76.38177,37.08427,12210.0],[-76.41944,36.9924,12210.0]]},"properties":{"ef_share":0.0,"ef_tj":0.0}},{"type":"Feature","geometry":{"type":"LineString","coordinates":[[-76.41944,36.9924,12210.0],[-76.45707,36.9003,12210.0]]},"properties":{"ef_share":0.0,"ef_tj":0.0}},{"type":"Feature","geometry":{"type":"LineString","coordinates":[[-76.45707,36.9003,12210.0],[-76.49475,36.80795,12210.0]]},"properties":{"ef_share":0.0,"ef_tj":0.0}},{"type":"Feature","geometry":{"type":"LineString","coordinates":[[-76.49475,36.80795,12210.0],[-76.53255,36.71517,12210.0]]},"properties":{"ef_share":0.0,"ef_tj":0.0}},{"type":"Feature","geometry":{"type":"LineString","coordinates":[[-76.53255,36.71517,12210.0],[-76.5704,36.62178,12210.0]]},"properties":{"ef_share":0.0,"ef_tj":0.0}},{"type":"Feature","geometry":{"type":"LineString","coordinates":[[-76.5704,36.62178,12210.0],[-76.60837,36.52808,12210.0]]},"properties":{"ef_share":0.0,"ef_tj":0.0}},{"type":"Feature","geometry":{"type":"LineString","coordinates":[[-76.60837,36.52808,12210.0],[-76.64653,36.43346,12210.0]]},"properties":{"ef_share":0.0,"ef_tj":0.0}},{"type":"Feature","geometry":{"type":"LineString","coordinates":[[-76.64653,36.43346,12210.0],[-76.68485,36.33834,12210.0]]},"properties":{"ef_share":0.0,"ef_tj":0.0}},{"type":"Feature","geometry":{"type":"LineString","coordinates":[[-76.68485,36.33834,12210.0],[-76.72334,36.24257,12210.0]]},"properties":{"ef_share":0.0,"ef_tj":0.0}},{"type":"Feature","geometry":{"type":"LineString","coordinates":[[-76.72334,36.24257,12210.0],[-76.76182,36.14649,12210.0]]},"properties":{"ef_share":0.0,"ef_tj":0.0}},{"type":"Feature","geometry":{"type":"LineString","coordinates":[[-76.76182,36.14649,12210.0],[-76.80005,36.05074,12210.0]]},"properties":{"ef_share":0.0,"ef_tj":0.0}},{"type":"Feature","geometry":{"type":"LineString","coordinates":[[-76.80005,36.05074,12210.0],[-76.83819,35.95503,12210.0]]},"properties":{"ef_share":0.0,"ef_tj":0.0}},{"type":"Feature","geometry":{"type":"LineString","coordinates":[[-76.83819,35.95503,12210.0],[-76.88465,35.86348,12210.0]]},"properties":{"ef_share":0.0,"ef_tj":0.0}},{"type":"Feature","geometry":{"type":"LineString","coordinates":[[-76.88465,35.86348,12210.0],[-76.93908,35.77584,12210.0]]},"properties":{"ef_share":0.0,"ef_tj":0.0}},{"type":"Feature","geometry":{"type":"LineString","coordinates":[[-76.93908,35.77584,12210.0],[-76.99346,35.68749,12210.0]]},"properties":{"ef_share":0.0,"ef_tj":0.0}},{"type":"Feature","geometry":{"type":"LineString","coordinates":[[-76.99346,35.68749,12210.0],[-77.04789,35.59873,12210.0]]},"properties":{"ef_share":0.0,"ef_tj":0.0}},{"type":"Feature","geometry":{"type":"LineString","coordinates":[[-77.04789,35.59873,12210.0],[-77.10239,35.5095,12210.0]]},"properties":{"ef_share":0.0,"ef_tj":0.0}},{"type":"Feature","geometry":{"type":"LineString","coordinates":[[-77.10239,35.5095,12210.0],[-77.1572,35.41966,12210.0]]},"properties":{"ef_share":0.0,"ef_tj":0.0}},{"type":"Feature","geometry":{"type":"LineString","coordinates":[[-77.1572,35.41966,12210.0],[-77.2122,35.32928,12210.0]]},"properties":{"ef_share":0.0,"ef_tj":0.0}},{"type":"Feature","geometry":{"type":"LineString","coordinates":[[-77.2122,35.32928,12210.0],[-77.2673,35.23855,12210.0]]},"properties":{"ef_share":0.0,"ef_tj":0.0}},{"type":"Feature","geometry":{"type":"LineString","coordinates":[[-77.2673,35.23855,12210.0],[-77.32226,35.14775,12210.0]]},"properties":{"ef_share":0.0,"ef_tj":0.0}},{"type":"Feature","geometry":{"type":"LineString","coordinates":[[-77.32226,35.14775,12210.0],[-77.37099,35.05344,12210.0]]},"properties":{"ef_share":0.0,"ef_tj":0.0}},{"type":"Feature","geometry":{"type":"LineString","coordinates":[[-77.37099,35.05344,12210.0],[-77.40648,34.95242,12210.0]]},"properties":{"ef_share":0.0,"ef_tj":0.0}},{"type":"Feature","geometry":{"type":"LineString","coordinates":[[-77.40648,34.95242,12210.0],[-77.44299,34.85159,12210.0]]},"properties":{"ef_share":0.0,"ef_tj":0.0}},{"type":"Feature","geometry":{"type":"LineString","coordinates":[[-77.44299,34.85159,12210.0],[-77.48024,34.75152,12210.0]]},"properties":{"ef_share":0.0,"ef_tj":0.0}},{"type":"Feature","geometry":{"type":"LineString","coordinates":[[-77.48024,34.75152,12210.0],[-77.51732,34.65111,12210.0]]},"properties":{"ef_share":0.0,"ef_tj":0.0}},{"type":"Feature","geometry":{"type":"LineString","coordinates":[[-77.51732,34.65111,12210.0],[-77.55407,34.55047,12210.0]]},"properties":{"ef_share":0.0,"ef_tj":0.0}},{"type":"Feature","geometry":{"type":"LineString","coordinates":[[-77.55407,34.55047,12210.0],[-77.59097,34.44942,12210.0]]},"properties":{"ef_share":0.0,"ef_tj":0.0}},{"type":"Feature","geometry":{"type":"LineString","coordinates":[[-77.59097,34.44942,12210.0],[-77.62788,34.34817,12210.0]]},"properties":{"ef_share":0.0,"ef_tj":0.0}},{"type":"Feature","geometry":{"type":"LineString","coordinates":[[-77.62788,34.34817,12210.0],[-77.6647,34.24684,12210.0]]},"properties":{"ef_share":0.0,"ef_tj":0.0}},{"type":"Feature","geometry":{"type":"LineString","coordinates":[[-77.6647,34.24684,12210.0],[-77.7016,34.14494,12210.0]]},"properties":{"ef_share":0.0,"ef_tj":0.0}},{"type":"Feature","geometry":{"type":"LineString","coordinates":[[-77.7016,34.14494,12210.0],[-77.73861,34.04263,12210.0]]},"properties":{"ef_share":0.0,"ef_tj":0.0}},{"type":"Feature","geometry":{"type":"LineString","coordinates":[[-77.73861,34.04263,12210.0],[-77.77584,33.93935,12210.0]]},"properties":{"ef_share":0.0,"ef_tj":0.0}},{"type":"Feature","geometry":{"type":"LineString","coordinates":[[-77.77584,33.93935,12210.0],[-77.81328,33.8352,12210.0]]},"properties":{"ef_share":0.0,"ef_tj":0.0}},{"type":"Feature","geometry":{"type":"LineString","coordinates":[[-77.81328,33.8352,12210.0],[-77.85083,33.73057,12210.0]]},"properties":{"ef_share":0.0,"ef_tj":0.0}},{"type":"Feature","geometry":{"type":"LineString","coordinates":[[-77.85083,33.73057,12210.0],[-77.88846,33.62548,12210.0]]},"properties":{"ef_share":0.0,"ef_tj":0.0}},{"type":"Feature","geometry":{"type":"LineString","coordinates":[[-77.88846,33.62548,12210.0],[-77.92606,33.52001,12210.0]]},"properties":{"ef_share":0.0,"ef_tj":0.0}},{"type":"Feature","geometry":{"type":"LineString","coordinates":[[-77.92606,33.52001,12210.0],[-77.96368,33.41432,12210.0]]},"properties":{"ef_share":0.0,"ef_tj":0.0}},{"type":"Feature","geometry":{"type":"LineString","coordinates":[[-77.96368,33.41432,12210.0],[-78.00135,33.3083,12210.0]]},"properties":{"ef_share":0.0,"ef_tj":0.0}},{"type":"Feature","geometry":{"type":"LineString","coordinates":[[-78.00135,33.3083,12210.0],[-78.03907,33.20181,12210.0]]},"properties":{"ef_share":0.0,"ef_tj":0.0}},{"type":"Feature","geometry":{"type":"LineString","coordinates":[[-78.03907,33.20181,12210.0],[-78.07691,33.09471,12210.0]]},"properties":{"ef_share":0.0,"ef_tj":0.0}},{"type":"Feature","geometry":{"type":"LineString","coordinates":[[-78.07691,33.09471,12210.0],[-78.11477,32.98721,12210.0]]},"properties":{"ef_share":0.0,"ef_tj":0.0}},{"type":"Feature","geometry":{"type":"LineString","coordinates":[[-78.11477,32.98721,12210.0],[-78.15272,32.87917,12210.0]]},"properties":{"ef_share":0.0,"ef_tj":0.0}},{"type":"Feature","geometry":{"type":"LineString","coordinates":[[-78.15272,32.87917,12210.0],[-78.19051,32.77138,12210.0]]},"properties":{"ef_share":0.0,"ef_tj":0.0}},{"type":"Feature","geometry":{"type":"LineString","coordinates":[[-78.19051,32.77138,12210.0],[-78.2282,32.66369,12210.0]]},"properties":{"ef_share":0.0,"ef_tj":0.0}},{"type":"Feature","geometry":{"type":"LineString","coordinates":[[-78.2282,32.66369,12210.0],[-78.26607,32.55502,12210.0]]},"properties":{"ef_share":0.0,"ef_tj":0.0}},{"type":"Feature","geometry":{"type":"LineString","coordinates":[[-78.26607,32.55502,12210.0],[-78.30373,32.44678,12210.0]]},"properties":{"ef_share":0.0,"ef_tj":0.0}},{"type":"Feature","geometry":{"type":"LineString","coordinates":[[-78.30373,32.44678,12210.0],[-78.3416,32.33774,12210.0]]},"properties":{"ef_share":0.0,"ef_tj":0.0}},{"type":"Feature","geometry":{"type":"LineString","coordinates":[[-78.3416,32.33774,12210.0],[-78.37961,32.22788,12210.0]]},"properties":{"ef_share":0.0,"ef_tj":0.0}},{"type":"Feature","geometry":{"type":"LineString","coordinates":[[-78.37961,32.22788,12210.0],[-78.41784,32.11716,12210.0]]},"properties":{"ef_share":0.0,"ef_tj":0.0}},{"type":"Feature","geometry":{"type":"LineString","coordinates":[[-78.41784,32.11716,12210.0],[-78.45585,32.00672,12210.0]]},"properties":{"ef_share":0.0,"ef_tj":0.0}},{"type":"Feature","geometry":{"type":"LineString","coordinates":[[-78.45585,32.00672,12210.0],[-78.49404,31.89575,12210.0]]},"properties":{"ef_share":0.0,"ef_tj":0.0}},{"type":"Feature","geometry":{"type":"LineString","coordinates":[[-78.49404,31.89575,12210.0],[-78.53227,31.78414,12210.0]]},"properties":{"ef_share":0.0,"ef_tj":0.0}},{"type":"Feature","geometry":{"type":"LineString","coordinates":[[-78.53227,31.78414,12210.0],[-78.57026,31.67284,12210.0]]},"properties":{"ef_share":0.0,"ef_tj":0.0}},{"type":"Feature","geometry":{"type":"LineString","coordinates":[[-78.57026,31.67284,12210.0],[-78.60824,31.56142,12210.0]]},"properties":{"ef_share":0.0,"ef_tj":0.0}},{"type":"Feature","geometry":{"type":"LineString","coordinates":[[-78.60824,31.56142,12210.0],[-78.64633,31.4501,12210.0]]},"properties":{"ef_share":0.0,"ef_tj":0.0}},{"type":"Feature","geometry":{"type":"LineString","coordinates":[[-78.64633,31.4501,12210.0],[-78.68449,31.33882,12210.0]]},"properties":{"ef_share":0.0,"ef_tj":0.0}},{"type":"Feature","geometry":{"type":"LineString","coordinates":[[-78.68449,31.33882,12210.0],[-78.72228,31.2279,12210.0]]},"properties":{"ef_share":0.0,"ef_tj":0.0}},{"type":"Feature","geometry":{"type":"LineString","coordinates":[[-78.72228,31.2279,12210.0],[-78.75994,31.11706,12210.0]]},"properties":{"ef_share":0.0,"ef_tj":0.0}},{"type":"Feature","geometry":{"type":"LineString","coordinates":[[-78.75994,31.11706,12210.0],[-78.79734,31.00657,12210.0]]},"properties":{"ef_share":0.0,"ef_tj":0.0}},{"type":"Feature","geometry":{"type":"LineString","coordinates":[[-78.79734,31.00657,12210.0],[-78.83474,30.89608,12210.0]]},"properties":{"ef_share":0.0,"ef_tj":0.0}},{"type":"Feature","geometry":{"type":"LineString","coordinates":[[-78.83474,30.89608,12210.0],[-78.87214,30.78559,12210.0]]},"properties":{"ef_share":0.0,"ef_tj":0.0}},{"type":"Feature","geometry":{"type":"LineString","coordinates":[[-78.87214,30.78559,12210.0],[-78.90953,30.6751,12210.0]]},"properties":{"ef_share":0.0,"ef_tj":0.0}},{"type":"Feature","geometry":{"type":"LineString","coordinates":[[-78.90953,30.6751,12210.0],[-78.94686,30.56406,12210.0]]},"properties":{"ef_share":0.0,"ef_tj":0.0}},{"type":"Feature","geometry":{"type":"LineString","coordinates":[[-78.94686,30.56406,12210.0],[-78.98338,30.45277,12210.0]]},"properties":{"ef_share":0.0,"ef_tj":0.0}},{"type":"Feature","geometry":{"type":"LineString","coordinates":[[-78.98338,30.45277,12210.0],[-79.01611,30.34013,12210.0]]},"properties":{"ef_share":0.0,"ef_tj":0.0}},{"type":"Feature","geometry":{"type":"LineString","coordinates":[[-79.01611,30.34013,12210.0],[-79.04574,30.22638,12210.0]]},"properties":{"ef_share":0.0,"ef_tj":0.0}},{"type":"Feature","geometry":{"type":"LineString","coordinates":[[-79.04574,30.22638,12210.0],[-79.07519,30.11342,12210.0]]},"properties":{"ef_share":0.0,"ef_tj":0.0}},{"type":"Feature","geometry":{"type":"LineString","coordinates":[[-79.07519,30.11342,12210.0],[-79.10476,29.99995,12210.0]]},"properties":{"ef_share":0.0,"ef_tj":0.0}},{"type":"Feature","geometry":{"type":"LineString","coordinates":[[-79.10476,29.99995,12210.0],[-79.13426,29.88653,12210.0]]},"properties":{"ef_share":0.0,"ef_tj":0.0}},{"type":"Feature","geometry":{"type":"LineString","coordinates":[[-79.13426,29.88653,12210.0],[-79.16383,29.77199,12210.0]]},"properties":{"ef_share":0.0,"ef_tj":0.0}},{"type":"Feature","geometry":{"type":"LineString","coordinates":[[-79.16383,29.77199,12210.0],[-79.19322,29.65643,12210.0]]},"properties":{"ef_share":0.0,"ef_tj":0.0}},{"type":"Feature","geometry":{"type":"LineString","coordinates":[[-79.19322,29.65643,12210.0],[-79.22281,29.54005,12210.0]]},"properties":{"ef_share":0.0,"ef_tj":0.0}},{"type":"Feature","geometry":{"type":"LineString","coordinates":[[-79.22281,29.54005,12210.0],[-79.25271,29.42313,12210.0]]},"properties":{"ef_share":0.0,"ef_tj":0.0}},{"type":"Feature","geometry":{"type":"LineString","coordinates":[[-79.25271,29.42313,12210.0],[-79.2829,29.30667,12210.0]]},"properties":{"ef_share":0.0,"ef_tj":0.0}},{"type":"Feature","geometry":{"type":"LineString","coordinates":[[-79.2829,29.30667,12210.0],[-79.31342,29.18848,12210.0]]},"properties":{"ef_share":0.0,"ef_tj":0.0}},{"type":"Feature","geometry":{"type":"LineString","coordinates":[[-79.31342,29.18848,12210.0],[-79.3439,29.06979,12210.0]]},"properties":{"ef_share":0.0,"ef_tj":0.0}},{"type":"Feature","geometry":{"type":"LineString","coordinates":[[-79.3439,29.06979,12210.0],[-79.37443,28.95094,12210.0]]},"properties":{"ef_share":0.0,"ef_tj":0.0}},{"type":"Feature","geometry":{"type":"LineString","coordinates":[[-79.37443,28.95094,12210.0],[-79.3765,28.83003,12210.0]]},"properties":{"ef_share":0.0,"ef_tj":0.0}},{"type":"Feature","geometry":{"type":"LineString","coordinates":[[-79.3765,28.83003,12210.0],[-79.35675,28.70918,12210.0]]},"properties":{"ef_share":0.0,"ef_tj":0.0}},{"type":"Feature","geometry":{"type":"LineString","coordinates":[[-79.35675,28.70918,12210.0],[-79.3749,28.59184,12210.0]]},"properties":{"ef_share":0.0,"ef_tj":0.0}},{"type":"Feature","geometry":{"type":"LineString","coordinates":[[-79.3749,28.59184,12210.0],[-79.41933,28.48204,11880.0]]},"properties":{"ef_share":0.0,"ef_tj":0.0}},{"type":"Feature","geometry":{"type":"LineString","coordinates":[[-79.41933,28.48204,11880.0],[-79.46515,28.37052,11160.0]]},"properties":{"ef_share":0.0,"ef_tj":0.0}},{"type":"Feature","geometry":{"type":"LineString","coordinates":[[-79.46515,28.37052,11160.0],[-79.50904,28.2552,10360.0]]},"properties":{"ef_share":0.0,"ef_tj":0.0}},{"type":"Feature","geometry":{"type":"LineString","coordinates":[[-79.50904,28.2552,10360.0],[-79.54416,28.13465,9550.0]]},"properties":{"ef_share":0.0,"ef_tj":0.0}},{"type":"Feature","geometry":{"type":"LineString","coordinates":[[-79.54416,28.13465,9550.0],[-79.58111,28.01441,8690.0]]},"properties":{"ef_share":0.0,"ef_tj":0.0}},{"type":"Feature","geometry":{"type":"LineString","coordinates":[[-79.58111,28.01441,8690.0],[-79.61854,27.89439,8100.0]]},"properties":{"ef_share":0.0,"ef_tj":0.0}},{"type":"Feature","geometry":{"type":"LineString","coordinates":[[-79.61854,27.89439,8100.0],[-79.65364,27.78138,7510.0]]},"properties":{"ef_share":0.0,"ef_tj":0.0}},{"type":"Feature","geometry":{"type":"LineString","coordinates":[[-79.65364,27.78138,7510.0],[-79.68739,27.67204,6800.0]]},"properties":{"ef_share":0.0,"ef_tj":0.0}},{"type":"Feature","geometry":{"type":"LineString","coordinates":[[-79.68739,27.67204,6800.0],[-79.7191,27.56855,5770.0]]},"properties":{"ef_share":0.0,"ef_tj":0.0}},{"type":"Feature","geometry":{"type":"LineString","coordinates":[[-79.7191,27.56855,5770.0],[-79.74926,27.4697,4750.0]]},"properties":{"ef_share":0.0,"ef_tj":0.0}},{"type":"Feature","geometry":{"type":"LineString","coordinates":[[-79.74926,27.4697,4750.0],[-79.7783,27.37456,3580.0]]},"properties":{"ef_share":0.0,"ef_tj":0.0}},{"type":"Feature","geometry":{"type":"LineString","coordinates":[[-79.7783,27.37456,3580.0],[-79.80666,27.28208,2960.0]]},"properties":{"ef_share":0.0,"ef_tj":0.0}},{"type":"Feature","geometry":{"type":"LineString","coordinates":[[-79.80666,27.28208,2960.0],[-79.83277,27.20366,2800.0]]},"properties":{"ef_share":0.0,"ef_tj":0.0}},{"type":"Feature","geometry":{"type":"LineString","coordinates":[[-79.83277,27.20366,2800.0],[-79.87355,27.1341,2340.0]]},"properties":{"ef_share":0.0,"ef_tj":0.0}},{"type":"Feature","geometry":{"type":"LineString","coordinates":[[-79.87355,27.1341,2340.0],[-79.91513,27.0646,1870.0]]},"properties":{"ef_share":0.0,"ef_tj":0.0}},{"type":"Feature","geometry":{"type":"LineString","coordinates":[[-79.91513,27.0646,1870.0],[-79.95442,26.99836,1460.0]]},"properties":{"ef_share":0.0,"ef_tj":0.0}},{"type":"Feature","geometry":{"type":"LineString","coordinates":[[-79.95442,26.99836,1460.0],[-79.98995,26.94267,1140.0]]},"properties":{"ef_share":0.0,"ef_tj":0.0}},{"type":"Feature","geometry":{"type":"LineString","coordinates":[[-79.98995,26.94267,1140.0],[-80.03248,26.89323,1130.0]]},"properties":{"ef_share":0.0,"ef_tj":0.0}},{"type":"Feature","geometry":{"type":"LineString","coordinates":[[-80.03248,26.89323,1130.0],[-80.07509,26.84381,1130.0]]},"properties":{"ef_share":0.0,"ef_tj":0.0}},{"type":"Feature","geometry":{"type":"LineString","coordinates":[[-80.07509,26.84381,1130.0],[-80.12609,26.80507,1130.0]]},"properties":{"ef_share":0.0,"ef_tj":0.0}},{"type":"Feature","geometry":{"type":"LineString","coordinates":[[-80.12609,26.80507,1130.0],[-80.19477,26.80016,1130.0]]},"properties":{"ef_share":0.0,"ef_tj":0.0}},{"type":"Feature","geometry":{"type":"LineString","coordinates":[[-80.19477,26.80016,1130.0],[-80.26339,26.79479,1130.0]]},"properties":{"ef_share":0.0,"ef_tj":0.0}},{"type":"Feature","geometry":{"type":"LineString","coordinates":[[-80.26339,26.79479,1130.0],[-80.3246,26.77645,990.0]]},"properties":{"ef_share":0.0,"ef_tj":0.0}},{"type":"Feature","geometry":{"type":"LineString","coordinates":[[-80.3246,26.77645,990.0],[-80.32747,26.71728,650.0]]},"properties":{"ef_share":0.0,"ef_tj":0.0}},{"type":"Feature","geometry":{"type":"LineString","coordinates":[[-80.32747,26.71728,650.0],[-80.27362,26.69077,520.0]]},"properties":{"ef_share":0.0,"ef_tj":0.0}},{"type":"Feature","geometry":{"type":"LineString","coordinates":[[-80.27362,26.69077,520.0],[-80.2156,26.68779,480.0]]},"properties":{"ef_share":0.0,"ef_tj":0.0}}]}