{"type":"FeatureCollection","properties":{"icao24":"aa5bc4","registration":"N767CJ","owner_label":"Drake","combined_co2e_central":40753.2,"fuel_co2_kg":40771.3,"contrail_co2e_central":-18.1,"tier":"high"},"features":[{"type":"Feature","geometry":{"type":"LineString","coordinates":[[-80.04216,43.15774,1520.0],[-80.09508,43.10145,1490.0]]},"properties":{"ef_share":0.0,"ef_tj":0.0}},{"type":"Feature","geometry":{"type":"LineString","coordinates":[[-80.09508,43.10145,1490.0],[-80.09845,43.02272,1550.0]]},"properties":{"ef_share":0.0,"ef_tj":0.0}},{"type":"Feature","geometry":{"type":"LineString","coordinates":[[-80.09845,43.02272,1550.0],[-80.10248,42.94432,2890.0]]},"properties":{"ef_share":0.0,"ef_tj":0.0}},{"type":"Feature","geometry":{"type":"LineString","coordinates":[[-80.10248,42.94432,2890.0],[-80.10785,42.85493,3910.0]]},"properties":{"ef_share":0.0,"ef_tj":0.0}},{"type":"Feature","geometry":{"type":"LineString","coordinates":[[-80.10785,42.85493,3910.0],[-80.1133,42.75012,5190.0]]},"properties":{"ef_share":0.0,"ef_tj":0.0}},{"type":"Feature","geometry":{"type":"LineString","coordinates":[[-80.1133,42.75012,5190.0],[-80.11914,42.63703,6320.0]]},"properties":{"ef_share":0.0,"ef_tj":0.0}},{"type":"Feature","geometry":{"type":"LineString","coordinates":[[-80.11914,42.63703,6320.0],[-80.12524,42.51574,7300.0]]},"properties":{"ef_share":0.0,"ef_tj":0.0}},{"type":"Feature","geometry":{"type":"LineString","coordinates":[[-80.12524,42.51574,7300.0],[-80.13194,42.38939,8140.0]]},"properties":{"ef_share":0.0,"ef_tj":0.0}},{"type":"Feature","geometry":{"type":"LineString","coordinates":[[-80.13194,42.38939,8140.0],[-80.13863,42.25997,8710.0]]},"properties":{"ef_share":0.0,"ef_tj":0.0}},{"type":"Feature","geometry":{"type":"LineString","coordinates":[[-80.13863,42.25997,8710.0],[-80.14543,42.12757,9410.0]]},"properties":{"ef_share":0.0,"ef_tj":0.0}},{"type":"Feature","geometry":{"type":"LineString","coordinates":[[-80.14543,42.12757,9410.0],[-80.15217,41.99496,9530.0]]},"properties":{"ef_share":0.0,"ef_tj":0.0}},{"type":"Feature","geometry":{"type":"LineString","coordinates":[[-80.15217,41.99496,9530.0],[-80.15886,41.86541,10500.0]]},"properties":{"ef_share":0.0,"ef_tj":0.0}},{"type":"Feature","geometry":{"type":"LineString","coordinates":[[-80.15886,41.86541,10500.0],[-80.16534,41.73958,11290.0]]},"properties":{"ef_share":0.0,"ef_tj":0.0}},{"type":"Feature","geometry":{"type":"LineString","coordinates":[[-80.16534,41.73958,11290.0],[-80.17184,41.61422,11840.0]]},"properties":{"ef_share":0.0,"ef_tj":0.0}},{"type":"Feature","geometry":{"type":"LineString","coordinates":[[-80.17184,41.61422,11840.0],[-80.17804,41.48982,12190.0]]},"properties":{"ef_share":0.0,"ef_tj":0.0}},{"type":"Feature","geometry":{"type":"LineString","coordinates":[[-80.17804,41.48982,12190.0],[-80.18411,41.36815,12190.0]]},"properties":{"ef_share":0.0,"ef_tj":0.0}},{"type":"Feature","geometry":{"type":"LineString","coordinates":[[-80.18411,41.36815,12190.0],[-80.19026,41.24652,12200.0]]},"properties":{"ef_share":0.0,"ef_tj":0.0}},{"type":"Feature","geometry":{"type":"LineString","coordinates":[[-80.19026,41.24652,12200.0],[-80.1965,41.12405,12200.0]]},"properties":{"ef_share":0.0,"ef_tj":0.0}},{"type":"Feature","geometry":{"type":"LineString","coordinates":[[-80.1965,41.12405,12200.0],[-80.20263,41.00136,12200.0]]},"properties":{"ef_share":0.0,"ef_tj":0.0}},{"type":"Feature","geometry":{"type":"LineString","coordinates":[[-80.20263,41.00136,12200.0],[-80.20863,40.87847,12200.0]]},"properties":{"ef_share":0.0,"ef_tj":0.0}},{"type":"Feature","geometry":{"type":"LineString","coordinates":[[-80.20863,40.87847,12200.0],[-80.20424,40.75504,12190.0]]},"properties":{"ef_share":0.0,"ef_tj":0.0}},{"type":"Feature","geometry":{"type":"LineString","coordinates":[[-80.20424,40.75504,12190.0],[-80.19087,40.63151,12200.0]]},"properties":{"ef_share":0.0,"ef_tj":0.0}},{"type":"Feature","geometry":{"type":"LineString","coordinates":[[-80.19087,40.63151,12200.0],[-80.17734,40.50775,12190.0]]},"properties":{"ef_share":0.0,"ef_tj":0.0}},{"type":"Feature","geometry":{"type":"LineString","coordinates":[[-80.17734,40.50775,12190.0],[-80.1642,40.38349,12200.0]]},"properties":{"ef_share":0.0,"ef_tj":0.0}},{"type":"Feature","geometry":{"type":"LineString","coordinates":[[-80.1642,40.38349,12200.0],[-80.1618,40.25932,12190.0]]},"properties":{"ef_share":0.0,"ef_tj":0.0}},{"type":"Feature","geometry":{"type":"LineString","coordinates":[[-80.1618,40.25932,12190.0],[-80.17224,40.13561,12200.0]]},"properties":{"ef_share":0.0,"ef_tj":0.0}},{"type":"Feature","geometry":{"type":"LineString","coordinates":[[-80.17224,40.13561,12200.0],[-80.18417,40.01222,12190.0]]},"properties":{"ef_share":0.0,"ef_tj":0.0}},{"type":"Feature","geometry":{"type":"LineString","coordinates":[[-80.18417,40.01222,12190.0],[-80.19626,39.88913,12200.0]]},"properties":{"ef_share":0.0,"ef_tj":0.0}},{"type":"Feature","geometry":{"type":"LineString","coordinates":[[-80.19626,39.88913,12200.0],[-80.20814,39.76574,12190.0]]},"properties":{"ef_share":0.0,"ef_tj":0.0}},{"type":"Feature","geometry":{"type":"LineString","coordinates":[[-80.20814,39.76574,12190.0],[-80.21989,39.64268,12190.0]]},"properties":{"ef_share":0.0,"ef_tj":0.0}},{"type":"Feature","geometry":{"type":"LineString","coordinates":[[-80.21989,39.64268,12190.0],[-80.23175,39.51916,12190.0]]},"properties":{"ef_share":0.0,"ef_tj":0.0}},{"type":"Feature","geometry":{"type":"LineString","coordinates":[[-80.23175,39.51916,12190.0],[-80.2432,39.39486,12190.0]]},"properties":{"ef_share":0.0,"ef_tj":0.0}},{"type":"Feature","geometry":{"type":"LineString","coordinates":[[-80.2432,39.39486,12190.0],[-80.2548,39.27075,12200.0]]},"properties":{"ef_share":0.0,"ef_tj":0.0}},{"type":"Feature","geometry":{"type":"LineString","coordinates":[[-80.2548,39.27075,12200.0],[-80.26632,39.14593,12200.0]]},"properties":{"ef_share":0.0,"ef_tj":0.0}},{"type":"Feature","geometry":{"type":"LineString","coordinates":[[-80.26632,39.14593,12200.0],[-80.27769,39.02132,12200.0]]},"properties":{"ef_share":0.0,"ef_tj":0.0}},{"type":"Feature","geometry":{"type":"LineString","coordinates":[[-80.27769,39.02132,12200.0],[-80.28916,38.89681,12200.0]]},"properties":{"ef_share":0.0,"ef_tj":0.0}},{"type":"Feature","geometry":{"type":"LineString","coordinates":[[-80.28916,38.89681,12200.0],[-80.3005,38.77252,12190.0]]},"properties":{"ef_share":0.0,"ef_tj":0.0}},{"type":"Feature","geometry":{"type":"LineString","coordinates":[[-80.3005,38.77252,12190.0],[-80.31197,38.64798,12200.0]]},"properties":{"ef_share":0.0,"ef_tj":0.0}},{"type":"Feature","geometry":{"type":"LineString","coordinates":[[-80.31197,38.64798,12200.0],[-80.32328,38.52311,12190.0]]},"properties":{"ef_share":0.0,"ef_tj":0.0}},{"type":"Feature","geometry":{"type":"LineString","coordinates":[[-80.32328,38.52311,12190.0],[-80.33451,38.39834,12190.0]]},"properties":{"ef_share":0.0,"ef_tj":0.0}},{"type":"Feature","geometry":{"type":"LineString","coordinates":[[-80.33451,38.39834,12190.0],[-80.34581,38.27313,12190.0]]},"properties":{"ef_share":0.0,"ef_tj":0.0}},{"type":"Feature","geometry":{"type":"LineString","coordinates":[[-80.34581,38.27313,12190.0],[-80.3572,38.14717,12200.0]]},"properties":{"ef_share":0.0,"ef_tj":0.0}},{"type":"Feature","geometry":{"type":"LineString","coordinates":[[-80.3572,38.14717,12200.0],[-80.36834,38.02149,12190.0]]},"properties":{"ef_share":0.0,"ef_tj":0.0}},{"type":"Feature","geometry":{"type":"LineString","coordinates":[[-80.36834,38.02149,12190.0],[-80.37962,37.89518,12190.0]]},"properties":{"ef_share":0.0,"ef_tj":0.0}},{"type":"Feature","geometry":{"type":"LineString","coordinates":[[-80.37962,37.89518,12190.0],[-80.39088,37.76909,12190.0]]},"properties":{"ef_share":0.0,"ef_tj":0.0}},{"type":"Feature","geometry":{"type":"LineString","coordinates":[[-80.39088,37.76909,12190.0],[-80.40209,37.64312,12190.0]]},"properties":{"ef_share":0.0,"ef_tj":0.0}},{"type":"Feature","geometry":{"type":"LineString","coordinates":[[-80.40209,37.64312,12190.0],[-80.41312,37.51697,12200.0]]},"properties":{"ef_share":0.0,"ef_tj":0.0}},{"type":"Feature","geometry":{"type":"LineString","coordinates":[[-80.41312,37.51697,12200.0],[-80.42432,37.39007,12190.0]]},"properties":{"ef_share":0.0,"ef_tj":0.0}},{"type":"Feature","geometry":{"type":"LineString","coordinates":[[-80.42432,37.39007,12190.0],[-80.43546,37.26279,12190.0]]},"properties":{"ef_share":0.0,"ef_tj":0.0}},{"type":"Feature","geometry":{"type":"LineString","coordinates":[[-80.43546,37.26279,12190.0],[-80.44665,37.13536,12200.0]]},"properties":{"ef_share":0.0,"ef_tj":0.0}},{"type":"Feature","geometry":{"type":"LineString","coordinates":[[-80.44665,37.13536,12200.0],[-80.45767,37.00827,12190.0]]},"properties":{"ef_share":0.0,"ef_tj":0.0}},{"type":"Feature","geometry":{"type":"LineString","coordinates":[[-80.45767,37.00827,12190.0],[-80.4687,36.88133,12190.0]]},"properties":{"ef_share":0.0,"ef_tj":0.0}},{"type":"Feature","geometry":{"type":"LineString","coordinates":[[-80.4687,36.88133,12190.0],[-80.4797,36.75431,12200.0]]},"properties":{"ef_share":-0.652,"ef_tj":-0.006965}},{"type":"Feature","geometry":{"type":"LineString","coordinates":[[-80.4797,36.75431,12200.0],[-80.4907,36.62679,12200.0]]},"properties":{"ef_share":-1.0,"ef_tj":-0.010677}},{"type":"Feature","geometry":{"type":"LineString","coordinates":[[-80.4907,36.62679,12200.0],[-80.50168,36.49933,12200.0]]},"properties":{"ef_share":-0.937,"ef_tj":-0.010009}},{"type":"Feature","geometry":{"type":"LineString","coordinates":[[-80.50168,36.49933,12200.0],[-80.51265,36.37072,12200.0]]},"properties":{"ef_share":-0.857,"ef_tj":-0.009151}},{"type":"Feature","geometry":{"type":"LineString","coordinates":[[-80.51265,36.37072,12200.0],[-80.52363,36.24227,12190.0]]},"properties":{"ef_share":-0.762,"ef_tj":-0.008139}},{"type":"Feature","geometry":{"type":"LineString","coordinates":[[-80.52363,36.24227,12190.0],[-80.53452,36.11398,12190.0]]},"properties":{"ef_share":-0.713,"ef_tj":-0.007613}},{"type":"Feature","geometry":{"type":"LineString","coordinates":[[-80.53452,36.11398,12190.0],[-80.54547,35.98491,12190.0]]},"properties":{"ef_share":-0.601,"ef_tj":-0.006417}},{"type":"Feature","geometry":{"type":"LineString","coordinates":[[-80.54547,35.98491,12190.0],[-80.55641,35.85578,12200.0]]},"properties":{"ef_share":-0.435,"ef_tj":-0.004643}},{"type":"Feature","geometry":{"type":"LineString","coordinates":[[-80.55641,35.85578,12200.0],[-80.56725,35.72648,12200.0]]},"properties":{"ef_share":0.0,"ef_tj":0.0}},{"type":"Feature","geometry":{"type":"LineString","coordinates":[[-80.56725,35.72648,12200.0],[-80.5782,35.59648,12200.0]]},"properties":{"ef_share":0.0,"ef_tj":0.0}},{"type":"Feature","geometry":{"type":"LineString","coordinates":[[-80.5782,35.59648,12200.0],[-80.58902,35.46632,12190.0]]},"properties":{"ef_share":0.0,"ef_tj":0.0}},{"type":"Feature","geometry":{"type":"LineString","coordinates":[[-80.58902,35.46632,12190.0],[-80.60004,35.33584,12190.0]]},"properties":{"ef_share":0.0,"ef_tj":0.0}},{"type":"Feature","geometry":{"type":"LineString","coordinates":[[-80.60004,35.33584,12190.0],[-80.61093,35.20464,12190.0]]},"properties":{"ef_share":0.0,"ef_tj":0.0}},{"type":"Feature","geometry":{"type":"LineString","coordinates":[[-80.61093,35.20464,12190.0],[-80.62177,35.07351,12200.0]]},"properties":{"ef_share":0.0,"ef_tj":0.0}},{"type":"Feature","geometry":{"type":"LineString","coordinates":[[-80.62177,35.07351,12200.0],[-80.63264,34.94161,12190.0]]},"properties":{"ef_share":0.0,"ef_tj":0.0}},{"type":"Feature","geometry":{"type":"LineString","coordinates":[[-80.63264,34.94161,12190.0],[-80.6436,34.8098,12200.0]]},"properties":{"ef_share":0.0,"ef_tj":0.0}},{"type":"Feature","geometry":{"type":"LineString","coordinates":[[-80.6436,34.8098,12200.0],[-80.65436,34.67781,12200.0]]},"properties":{"ef_share":0.0,"ef_tj":0.0}},{"type":"Feature","geometry":{"type":"LineString","coordinates":[[-80.65436,34.67781,12200.0],[-80.66931,34.54544,12200.0]]},"properties":{"ef_share":0.0,"ef_tj":0.0}},{"type":"Feature","geometry":{"type":"LineString","coordinates":[[-80.66931,34.54544,12200.0],[-80.68742,34.41313,12200.0]]},"properties":{"ef_share":0.0,"ef_tj":0.0}},{"type":"Feature","geometry":{"type":"LineString","coordinates":[[-80.68742,34.41313,12200.0],[-80.70461,34.2803,12190.0]]},"properties":{"ef_share":0.0,"ef_tj":0.0}},{"type":"Feature","geometry":{"type":"LineString","coordinates":[[-80.70461,34.2803,12190.0],[-80.72143,34.14671,12190.0]]},"properties":{"ef_share":0.0,"ef_tj":0.0}},{"type":"Feature","geometry":{"type":"LineString","coordinates":[[-80.72143,34.14671,12190.0],[-80.73838,34.01324,12190.0]]},"properties":{"ef_share":0.0,"ef_tj":0.0}},{"type":"Feature","geometry":{"type":"LineString","coordinates":[[-80.73838,34.01324,12190.0],[-80.75528,33.87971,12200.0]]},"properties":{"ef_share":0.0,"ef_tj":0.0}},{"type":"Feature","geometry":{"type":"LineString","coordinates":[[-80.75528,33.87971,12200.0],[-80.7723,33.74615,12190.0]]},"properties":{"ef_share":0.0,"ef_tj":0.0}},{"type":"Feature","geometry":{"type":"LineString","coordinates":[[-80.7723,33.74615,12190.0],[-80.78907,33.61379,12190.0]]},"properties":{"ef_share":0.0,"ef_tj":0.0}},{"type":"Feature","geometry":{"type":"LineString","coordinates":[[-80.78907,33.61379,12190.0],[-80.80558,33.48209,12190.0]]},"properties":{"ef_share":0.0,"ef_tj":0.0}},{"type":"Feature","geometry":{"type":"LineString","coordinates":[[-80.80558,33.48209,12190.0],[-80.82203,33.35128,12200.0]]},"properties":{"ef_share":0.0,"ef_tj":0.0}},{"type":"Feature","geometry":{"type":"LineString","coordinates":[[-80.82203,33.35128,12200.0],[-80.8385,33.2205,12190.0]]},"properties":{"ef_share":0.0,"ef_tj":0.0}},{"type":"Feature","geometry":{"type":"LineString","coordinates":[[-80.8385,33.2205,12190.0],[-80.85478,33.09056,12200.0]]},"properties":{"ef_share":0.0,"ef_tj":0.0}},{"type":"Feature","geometry":{"type":"LineString","coordinates":[[-80.85478,33.09056,12200.0],[-80.87087,32.96105,12190.0]]},"properties":{"ef_share":0.0,"ef_tj":0.0}},{"type":"Feature","geometry":{"type":"LineString","coordinates":[[-80.87087,32.96105,12190.0],[-80.88693,32.83221,12190.0]]},"properties":{"ef_share":0.0,"ef_tj":0.0}},{"type":"Feature","geometry":{"type":"LineString","coordinates":[[-80.88693,32.83221,12190.0],[-80.90278,32.70352,12190.0]]},"properties":{"ef_share":0.0,"ef_tj":0.0}},{"type":"Feature","geometry":{"type":"LineString","coordinates":[[-80.90278,32.70352,12190.0],[-80.9188,32.57461,12190.0]]},"properties":{"ef_share":0.0,"ef_tj":0.0}},{"type":"Feature","geometry":{"type":"LineString","coordinates":[[-80.9188,32.57461,12190.0],[-80.93467,32.44592,12190.0]]},"properties":{"ef_share":0.0,"ef_tj":0.0}},{"type":"Feature","geometry":{"type":"LineString","coordinates":[[-80.93467,32.44592,12190.0],[-80.95049,32.31658,12190.0]]},"properties":{"ef_share":0.0,"ef_tj":0.0}},{"type":"Feature","geometry":{"type":"LineString","coordinates":[[-80.95049,32.31658,12190.0],[-80.9663,32.18738,12200.0]]},"properties":{"ef_share":0.0,"ef_tj":0.0}},{"type":"Feature","geometry":{"type":"LineString","coordinates":[[-80.9663,32.18738,12200.0],[-80.98219,32.05771,12190.0]]},"properties":{"ef_share":0.0,"ef_tj":0.0}},{"type":"Feature","geometry":{"type":"LineString","coordinates":[[-80.98219,32.05771,12190.0],[-80.99794,31.92866,12190.0]]},"properties":{"ef_share":0.0,"ef_tj":0.0}},{"type":"Feature","geometry":{"type":"LineString","coordinates":[[-80.99794,31.92866,12190.0],[-81.01347,31.79996,12200.0]]},"properties":{"ef_share":0.0,"ef_tj":0.0}},{"type":"Feature","geometry":{"type":"LineString","coordinates":[[-81.01347,31.79996,12200.0],[-81.0291,31.67123,12200.0]]},"properties":{"ef_share":0.0,"ef_tj":0.0}},{"type":"Feature","geometry":{"type":"LineString","coordinates":[[-81.0291,31.67123,12200.0],[-81.04094,31.54234,12190.0]]},"properties":{"ef_share":0.0,"ef_tj":0.0}},{"type":"Feature","geometry":{"type":"LineString","coordinates":[[-81.04094,31.54234,12190.0],[-81.04589,31.41399,12200.0]]},"properties":{"ef_share":0.0,"ef_tj":0.0}},{"type":"Feature","geometry":{"type":"LineString","coordinates":[[-81.04589,31.41399,12200.0],[-81.05027,31.28514,12190.0]]},"properties":{"ef_share":0.0,"ef_tj":0.0}},{"type":"Feature","geometry":{"type":"LineString","coordinates":[[-81.05027,31.28514,12190.0],[-81.0548,31.15598,12190.0]]},"properties":{"ef_share":0.0,"ef_tj":0.0}},{"type":"Feature","geometry":{"type":"LineString","coordinates":[[-81.0548,31.15598,12190.0],[-81.05952,31.02635,12190.0]]},"properties":{"ef_share":0.0,"ef_tj":0.0}},{"type":"Feature","geometry":{"type":"LineString","coordinates":[[-81.05952,31.02635,12190.0],[-81.06421,30.89652,12190.0]]},"properties":{"ef_share":0.0,"ef_tj":0.0}},{"type":"Feature","geometry":{"type":"LineString","coordinates":[[-81.06421,30.89652,12190.0],[-81.06894,30.76555,12190.0]]},"properties":{"ef_share":0.0,"ef_tj":0.0}},{"type":"Feature","geometry":{"type":"LineString","coordinates":[[-81.06894,30.76555,12190.0],[-81.07358,30.63475,12200.0]]},"properties":{"ef_share":0.0,"ef_tj":0.0}},{"type":"Feature","geometry":{"type":"LineString","coordinates":[[-81.07358,30.63475,12200.0],[-81.07297,30.50363,12190.0]]},"properties":{"ef_share":0.0,"ef_tj":0.0}},{"type":"Feature","geometry":{"type":"LineString","coordinates":[[-81.07297,30.50363,12190.0],[-81.03771,30.37871,12200.0]]},"properties":{"ef_share":0.0,"ef_tj":0.0}},{"type":"Feature","geometry":{"type":"LineString","coordinates":[[-81.03771,30.37871,12200.0],[-80.99705,30.25456,12190.0]]},"properties":{"ef_share":0.0,"ef_tj":0.0}},{"type":"Feature","geometry":{"type":"LineString","coordinates":[[-80.99705,30.25456,12190.0],[-80.95689,30.13009,12190.0]]},"properties":{"ef_share":0.0,"ef_tj":0.0}},{"type":"Feature","geometry":{"type":"LineString","coordinates":[[-80.95689,30.13009,12190.0],[-80.91725,30.00575,12200.0]]},"properties":{"ef_share":0.0,"ef_tj":0.0}},{"type":"Feature","geometry":{"type":"LineString","coordinates":[[-80.91725,30.00575,12200.0],[-80.87773,29.88106,12190.0]]},"properties":{"ef_share":0.0,"ef_tj":0.0}},{"type":"Feature","geometry":{"type":"LineString","coordinates":[[-80.87773,29.88106,12190.0],[-80.83801,29.7559,12190.0]]},"properties":{"ef_share":0.0,"ef_tj":0.0}},{"type":"Feature","geometry":{"type":"LineString","coordinates":[[-80.83801,29.7559,12190.0],[-80.79826,29.63015,12190.0]]},"properties":{"ef_share":0.0,"ef_tj":0.0}},{"type":"Feature","geometry":{"type":"LineString","coordinates":[[-80.79826,29.63015,12190.0],[-80.75822,29.50361,12200.0]]},"properties":{"ef_share":0.0,"ef_tj":0.0}},{"type":"Feature","geometry":{"type":"LineString","coordinates":[[-80.75822,29.50361,12200.0],[-80.71835,29.37653,12190.0]]},"properties":{"ef_share":0.0,"ef_tj":0.0}},{"type":"Feature","geometry":{"type":"LineString","coordinates":[[-80.71835,29.37653,12190.0],[-80.67797,29.24804,12200.0]]},"properties":{"ef_share":0.0,"ef_tj":0.0}},{"type":"Feature","geometry":{"type":"LineString","coordinates":[[-80.67797,29.24804,12200.0],[-80.63767,29.11952,12190.0]]},"properties":{"ef_share":0.0,"ef_tj":0.0}},{"type":"Feature","geometry":{"type":"LineString","coordinates":[[-80.63767,29.11952,12190.0],[-80.5973,28.99028,12190.0]]},"properties":{"ef_share":0.0,"ef_tj":0.0}},{"type":"Feature","geometry":{"type":"LineString","coordinates":[[-80.5973,28.99028,12190.0],[-80.55683,28.86089,12190.0]]},"properties":{"ef_share":0.0,"ef_tj":0.0}},{"type":"Feature","geometry":{"type":"LineString","coordinates":[[-80.55683,28.86089,12190.0],[-80.47872,28.74849,11840.0]]},"properties":{"ef_share":0.0,"ef_tj":0.0}},{"type":"Feature","geometry":{"type":"LineString","coordinates":[[-80.47872,28.74849,11840.0],[-80.36011,28.66242,11380.0]]},"properties":{"ef_share":0.0,"ef_tj":0.0}},{"type":"Feature","geometry":{"type":"LineString","coordinates":[[-80.36011,28.66242,11380.0],[-80.24059,28.5759,11020.0]]},"properties":{"ef_share":0.0,"ef_tj":0.0}},{"type":"Feature","geometry":{"type":"LineString","coordinates":[[-80.24059,28.5759,11020.0],[-80.12492,28.48615,10710.0]]},"properties":{"ef_share":0.0,"ef_tj":0.0}},{"type":"Feature","geometry":{"type":"LineString","coordinates":[[-80.12492,28.48615,10710.0],[-80.05015,28.36778,10390.0]]},"properties":{"ef_share":0.0,"ef_tj":0.0}},{"type":"Feature","geometry":{"type":"LineString","coordinates":[[-80.05015,28.36778,10390.0],[-79.98671,28.24427,10370.0]]},"properties":{"ef_share":0.0,"ef_tj":0.0}},{"type":"Feature","geometry":{"type":"LineString","coordinates":[[-79.98671,28.24427,10370.0],[-79.92393,28.12221,10360.0]]},"properties":{"ef_share":0.0,"ef_tj":0.0}},{"type":"Feature","geometry":{"type":"LineString","coordinates":[[-79.92393,28.12221,10360.0],[-79.86155,28.00123,10270.0]]},"properties":{"ef_share":0.0,"ef_tj":0.0}},{"type":"Feature","geometry":{"type":"LineString","coordinates":[[-79.86155,28.00123,10270.0],[-79.79916,27.88325,9730.0]]},"properties":{"ef_share":0.0,"ef_tj":0.0}},{"type":"Feature","geometry":{"type":"LineString","coordinates":[[-79.79916,27.88325,9730.0],[-79.70029,27.79369,9170.0]]},"properties":{"ef_share":0.0,"ef_tj":0.0}},{"type":"Feature","geometry":{"type":"LineString","coordinates":[[-79.70029,27.79369,9170.0],[-79.59837,27.70394,9140.0]]},"properties":{"ef_share":0.0,"ef_tj":0.0}},{"type":"Feature","geometry":{"type":"LineString","coordinates":[[-79.59837,27.70394,9140.0],[-79.58419,27.57305,9140.0]]},"properties":{"ef_share":0.0,"ef_tj":0.0}},{"type":"Feature","geometry":{"type":"LineString","coordinates":[[-79.58419,27.57305,9140.0],[-79.58419,27.44172,9130.0]]},"properties":{"ef_share":0.0,"ef_tj":0.0}},{"type":"Feature","geometry":{"type":"LineString","coordinates":[[-79.58419,27.44172,9130.0],[-79.59229,27.32375,8770.0]]},"properties":{"ef_share":0.0,"ef_tj":0.0}},{"type":"Feature","geometry":{"type":"LineString","coordinates":[[-79.59229,27.32375,8770.0],[-79.62428,27.21517,8080.0]]},"properties":{"ef_share":0.0,"ef_tj":0.0}},{"type":"Feature","geometry":{"type":"LineString","coordinates":[[-79.62428,27.21517,8080.0],[-79.658,27.10855,7470.0]]},"properties":{"ef_share":0.0,"ef_tj":0.0}},{"type":"Feature","geometry":{"type":"LineString","coordinates":[[-79.658,27.10855,7470.0],[-79.68937,27.00566,7320.0]]},"properties":{"ef_share":0.0,"ef_tj":0.0}},{"type":"Feature","geometry":{"type":"LineString","coordinates":[[-79.68937,27.00566,7320.0],[-79.72144,26.90113,7230.0]]},"properties":{"ef_share":0.0,"ef_tj":0.0}},{"type":"Feature","geometry":{"type":"LineString","coordinates":[[-79.72144,26.90113,7230.0],[-79.75206,26.80063,6580.0]]},"properties":{"ef_share":0.0,"ef_tj":0.0}},{"type":"Feature","geometry":{"type":"LineString","coordinates":[[-79.75206,26.80063,6580.0],[-79.78882,26.70501,5760.0]]},"properties":{"ef_share":0.0,"ef_tj":0.0}},{"type":"Feature","geometry":{"type":"LineString","coordinates":[[-79.78882,26.70501,5760.0],[-79.84273,26.62126,4710.0]]},"properties":{"ef_share":0.0,"ef_tj":0.0}},{"type":"Feature","geometry":{"type":"LineString","coordinates":[[-79.84273,26.62126,4710.0],[-79.89467,26.54211,3730.0]]},"properties":{"ef_share":0.0,"ef_tj":0.0}},{"type":"Feature","geometry":{"type":"LineString","coordinates":[[-79.89467,26.54211,3730.0],[-79.94424,26.46898,3100.0]]},"properties":{"ef_share":0.0,"ef_tj":0.0}},{"type":"Feature","geometry":{"type":"LineString","coordinates":[[-79.94424,26.46898,3100.0],[-79.98129,26.39453,2650.0]]},"properties":{"ef_share":0.0,"ef_tj":0.0}},{"type":"Feature","geometry":{"type":"LineString","coordinates":[[-79.98129,26.39453,2650.0],[-79.98989,26.31541,2220.0]]},"properties":{"ef_share":0.0,"ef_tj":0.0}},{"type":"Feature","geometry":{"type":"LineString","coordinates":[[-79.98989,26.31541,2220.0],[-80.01318,26.24117,1810.0]]},"properties":{"ef_share":0.0,"ef_tj":0.0}},{"type":"Feature","geometry":{"type":"LineString","coordinates":[[-80.01318,26.24117,1810.0],[-80.06331,26.17883,1780.0]]},"properties":{"ef_share":0.0,"ef_tj":0.0}},{"type":"Feature","geometry":{"type":"LineString","coordinates":[[-80.06331,26.17883,1780.0],[-80.14692,26.15292,1780.0]]},"properties":{"ef_share":0.0,"ef_tj":0.0}},{"type":"Feature","geometry":{"type":"LineString","coordinates":[[-80.14692,26.15292,1780.0],[-80.22382,26.1503,1530.0]]},"properties":{"ef_share":0.0,"ef_tj":0.0}},{"type":"Feature","geometry":{"type":"LineString","coordinates":[[-80.22382,26.1503,1530.0],[-80.29813,26.1508,1120.0]]},"properties":{"ef_share":0.0,"ef_tj":0.0}},{"type":"Feature","geometry":{"type":"LineString","coordinates":[[-80.29813,26.1508,1120.0],[-80.33902,26.11387,790.0]]},"properties":{"ef_share":0.0,"ef_tj":0.0}},{"type":"Feature","geometry":{"type":"LineString","coordinates":[[-80.33902,26.11387,790.0],[-80.30319,26.07723,560.0]]},"properties":{"ef_share":0.0,"ef_tj":0.0}},{"type":"Feature","geometry":{"type":"LineString","coordinates":[[-80.30319,26.07723,560.0],[-80.24818,26.06634,440.0]]},"properties":{"ef_share":0.0,"ef_tj":0.0}},{"type":"Feature","geometry":{"type":"LineString","coordinates":[[-80.24818,26.06634,440.0],[-80.20318,26.06623,210.0]]},"properties":{"ef_share":0.0,"ef_tj":0.0}},{"type":"Feature","geometry":{"type":"LineString","coordinates":[[-80.20318,26.06623,210.0],[-80.1649,26.06604,10.0]]},"properties":{"ef_share":0.0,"ef_tj":0.0}}]}