{"type":"FeatureCollection","properties":{"icao24":"aa5bc4","registration":"N767CJ","owner_label":"Drake","combined_co2e_central":34304.9,"fuel_co2_kg":44590.9,"contrail_co2e_central":-10286.0,"tier":"high"},"features":[{"type":"Feature","geometry":{"type":"LineString","coordinates":[[-79.99091,43.17528,1200.0],[-80.07152,43.14344,2020.0]]},"properties":{"ef_share":0.0,"ef_tj":0.0}},{"type":"Feature","geometry":{"type":"LineString","coordinates":[[-80.07152,43.14344,2020.0],[-80.15498,43.09963,3310.0]]},"properties":{"ef_share":0.0,"ef_tj":0.0}},{"type":"Feature","geometry":{"type":"LineString","coordinates":[[-80.15498,43.09963,3310.0],[-80.25385,43.04748,3900.0]]},"properties":{"ef_share":0.0,"ef_tj":0.0}},{"type":"Feature","geometry":{"type":"LineString","coordinates":[[-80.25385,43.04748,3900.0],[-80.36722,42.98711,5050.0]]},"properties":{"ef_share":0.0,"ef_tj":0.0}},{"type":"Feature","geometry":{"type":"LineString","coordinates":[[-80.36722,42.98711,5050.0],[-80.48493,42.92446,6130.0]]},"properties":{"ef_share":0.0,"ef_tj":0.0}},{"type":"Feature","geometry":{"type":"LineString","coordinates":[[-80.48493,42.92446,6130.0],[-80.6044,42.86067,7170.0]]},"properties":{"ef_share":0.0,"ef_tj":0.0}},{"type":"Feature","geometry":{"type":"LineString","coordinates":[[-80.6044,42.86067,7170.0],[-80.72353,42.79682,8230.0]]},"properties":{"ef_share":0.0,"ef_tj":0.0}},{"type":"Feature","geometry":{"type":"LineString","coordinates":[[-80.72353,42.79682,8230.0],[-80.84163,42.73341,8870.0]]},"properties":{"ef_share":0.0,"ef_tj":0.0}},{"type":"Feature","geometry":{"type":"LineString","coordinates":[[-80.84163,42.73341,8870.0],[-80.93216,42.64842,9600.0]]},"properties":{"ef_share":0.0,"ef_tj":0.0}},{"type":"Feature","geometry":{"type":"LineString","coordinates":[[-80.93216,42.64842,9600.0],[-80.99964,42.54995,10250.0]]},"properties":{"ef_share":0.0,"ef_tj":0.0}},{"type":"Feature","geometry":{"type":"LineString","coordinates":[[-80.99964,42.54995,10250.0],[-81.06702,42.45135,10760.0]]},"properties":{"ef_share":0.0,"ef_tj":0.0}},{"type":"Feature","geometry":{"type":"LineString","coordinates":[[-81.06702,42.45135,10760.0],[-81.13626,42.35085,10970.0]]},"properties":{"ef_share":0.0,"ef_tj":0.0}},{"type":"Feature","geometry":{"type":"LineString","coordinates":[[-81.13626,42.35085,10970.0],[-81.20807,42.24613,10970.0]]},"properties":{"ef_share":0.0,"ef_tj":0.0}},{"type":"Feature","geometry":{"type":"LineString","coordinates":[[-81.20807,42.24613,10970.0],[-81.28096,42.13892,10970.0]]},"properties":{"ef_share":0.0,"ef_tj":0.0}},{"type":"Feature","geometry":{"type":"LineString","coordinates":[[-81.28096,42.13892,10970.0],[-81.35393,42.03165,10980.0]]},"properties":{"ef_share":0.0,"ef_tj":0.0}},{"type":"Feature","geometry":{"type":"LineString","coordinates":[[-81.35393,42.03165,10980.0],[-81.42707,41.92364,10980.0]]},"properties":{"ef_share":0.0,"ef_tj":0.0}},{"type":"Feature","geometry":{"type":"LineString","coordinates":[[-81.42707,41.92364,10980.0],[-81.50007,41.81512,10970.0]]},"properties":{"ef_share":0.0,"ef_tj":0.0}},{"type":"Feature","geometry":{"type":"LineString","coordinates":[[-81.50007,41.81512,10970.0],[-81.57261,41.7072,10970.0]]},"properties":{"ef_share":0.0,"ef_tj":0.0}},{"type":"Feature","geometry":{"type":"LineString","coordinates":[[-81.57261,41.7072,10970.0],[-81.64576,41.59973,10980.0]]},"properties":{"ef_share":0.0,"ef_tj":0.0}},{"type":"Feature","geometry":{"type":"LineString","coordinates":[[-81.64576,41.59973,10980.0],[-81.73224,41.50177,10970.0]]},"properties":{"ef_share":0.0,"ef_tj":0.0}},{"type":"Feature","geometry":{"type":"LineString","coordinates":[[-81.73224,41.50177,10970.0],[-81.82709,41.41116,10970.0]]},"properties":{"ef_share":0.0,"ef_tj":0.0}},{"type":"Feature","geometry":{"type":"LineString","coordinates":[[-81.82709,41.41116,10970.0],[-81.92111,41.3195,10970.0]]},"properties":{"ef_share":0.0,"ef_tj":0.0}},{"type":"Feature","geometry":{"type":"LineString","coordinates":[[-81.92111,41.3195,10970.0],[-82.0149,41.22653,10970.0]]},"properties":{"ef_share":0.0,"ef_tj":0.0}},{"type":"Feature","geometry":{"type":"LineString","coordinates":[[-82.0149,41.22653,10970.0],[-82.10939,41.13303,10970.0]]},"properties":{"ef_share":0.0,"ef_tj":0.0}},{"type":"Feature","geometry":{"type":"LineString","coordinates":[[-82.10939,41.13303,10970.0],[-82.20431,41.03906,10970.0]]},"properties":{"ef_share":0.0,"ef_tj":0.0}},{"type":"Feature","geometry":{"type":"LineString","coordinates":[[-82.20431,41.03906,10970.0],[-82.29959,40.94428,10970.0]]},"properties":{"ef_share":0.0,"ef_tj":0.0}},{"type":"Feature","geometry":{"type":"LineString","coordinates":[[-82.29959,40.94428,10970.0],[-82.39485,40.84919,10970.0]]},"properties":{"ef_share":0.0,"ef_tj":0.0}},{"type":"Feature","geometry":{"type":"LineString","coordinates":[[-82.39485,40.84919,10970.0],[-82.48983,40.75383,10970.0]]},"properties":{"ef_share":0.0,"ef_tj":0.0}},{"type":"Feature","geometry":{"type":"LineString","coordinates":[[-82.48983,40.75383,10970.0],[-82.58432,40.65896,10970.0]]},"properties":{"ef_share":0.0,"ef_tj":0.0}},{"type":"Feature","geometry":{"type":"LineString","coordinates":[[-82.58432,40.65896,10970.0],[-82.67874,40.56332,10980.0]]},"properties":{"ef_share":0.0,"ef_tj":0.0}},{"type":"Feature","geometry":{"type":"LineString","coordinates":[[-82.67874,40.56332,10980.0],[-82.77314,40.46787,10970.0]]},"properties":{"ef_share":0.0,"ef_tj":0.0}},{"type":"Feature","geometry":{"type":"LineString","coordinates":[[-82.77314,40.46787,10970.0],[-82.86766,40.37178,10970.0]]},"properties":{"ef_share":0.0,"ef_tj":0.0}},{"type":"Feature","geometry":{"type":"LineString","coordinates":[[-82.86766,40.37178,10970.0],[-82.96185,40.27506,10970.0]]},"properties":{"ef_share":0.0,"ef_tj":0.0}},{"type":"Feature","geometry":{"type":"LineString","coordinates":[[-82.96185,40.27506,10970.0],[-83.0562,40.17717,10970.0]]},"properties":{"ef_share":0.0,"ef_tj":0.0}},{"type":"Feature","geometry":{"type":"LineString","coordinates":[[-83.0562,40.17717,10970.0],[-83.15072,40.07891,10980.0]]},"properties":{"ef_share":0.0,"ef_tj":0.0}},{"type":"Feature","geometry":{"type":"LineString","coordinates":[[-83.15072,40.07891,10980.0],[-83.24484,39.98068,10980.0]]},"properties":{"ef_share":0.0,"ef_tj":0.0}},{"type":"Feature","geometry":{"type":"LineString","coordinates":[[-83.24484,39.98068,10980.0],[-83.33874,39.8824,10970.0]]},"properties":{"ef_share":0.0,"ef_tj":0.0}},{"type":"Feature","geometry":{"type":"LineString","coordinates":[[-83.33874,39.8824,10970.0],[-83.43217,39.78421,10980.0]]},"properties":{"ef_share":0.0,"ef_tj":0.0}},{"type":"Feature","geometry":{"type":"LineString","coordinates":[[-83.43217,39.78421,10980.0],[-83.52508,39.68621,10980.0]]},"properties":{"ef_share":0.0,"ef_tj":0.0}},{"type":"Feature","geometry":{"type":"LineString","coordinates":[[-83.52508,39.68621,10980.0],[-83.61774,39.58816,10970.0]]},"properties":{"ef_share":0.0,"ef_tj":0.0}},{"type":"Feature","geometry":{"type":"LineString","coordinates":[[-83.61774,39.58816,10970.0],[-83.71008,39.49004,10970.0]]},"properties":{"ef_share":0.0,"ef_tj":0.0}},{"type":"Feature","geometry":{"type":"LineString","coordinates":[[-83.71008,39.49004,10970.0],[-83.8023,39.39178,10970.0]]},"properties":{"ef_share":0.0,"ef_tj":0.0}},{"type":"Feature","geometry":{"type":"LineString","coordinates":[[-83.8023,39.39178,10970.0],[-83.89386,39.29384,10970.0]]},"properties":{"ef_share":0.0,"ef_tj":0.0}},{"type":"Feature","geometry":{"type":"LineString","coordinates":[[-83.89386,39.29384,10970.0],[-83.98505,39.19592,10980.0]]},"properties":{"ef_share":0.0,"ef_tj":0.0}},{"type":"Feature","geometry":{"type":"LineString","coordinates":[[-83.98505,39.19592,10980.0],[-84.076,39.09806,10970.0]]},"properties":{"ef_share":0.0,"ef_tj":0.0}},{"type":"Feature","geometry":{"type":"LineString","coordinates":[[-84.076,39.09806,10970.0],[-84.16717,38.99936,10970.0]]},"properties":{"ef_share":0.0,"ef_tj":0.0}},{"type":"Feature","geometry":{"type":"LineString","coordinates":[[-84.16717,38.99936,10970.0],[-84.25817,38.90052,10970.0]]},"properties":{"ef_share":0.0,"ef_tj":0.0}},{"type":"Feature","geometry":{"type":"LineString","coordinates":[[-84.25817,38.90052,10970.0],[-84.34947,38.80128,10980.0]]},"properties":{"ef_share":0.0,"ef_tj":0.0}},{"type":"Feature","geometry":{"type":"LineString","coordinates":[[-84.34947,38.80128,10980.0],[-84.44051,38.70169,10970.0]]},"properties":{"ef_share":0.0,"ef_tj":0.0}},{"type":"Feature","geometry":{"type":"LineString","coordinates":[[-84.44051,38.70169,10970.0],[-84.53135,38.60202,10980.0]]},"properties":{"ef_share":0.0,"ef_tj":0.0}},{"type":"Feature","geometry":{"type":"LineString","coordinates":[[-84.53135,38.60202,10980.0],[-84.62279,38.50163,10980.0]]},"properties":{"ef_share":0.0,"ef_tj":0.0}},{"type":"Feature","geometry":{"type":"LineString","coordinates":[[-84.62279,38.50163,10980.0],[-84.71419,38.40061,10970.0]]},"properties":{"ef_share":0.0,"ef_tj":0.0}},{"type":"Feature","geometry":{"type":"LineString","coordinates":[[-84.71419,38.40061,10970.0],[-84.80588,38.29888,10970.0]]},"properties":{"ef_share":0.0,"ef_tj":0.0}},{"type":"Feature","geometry":{"type":"LineString","coordinates":[[-84.80588,38.29888,10970.0],[-84.89769,38.19695,10970.0]]},"properties":{"ef_share":0.0,"ef_tj":0.0}},{"type":"Feature","geometry":{"type":"LineString","coordinates":[[-84.89769,38.19695,10970.0],[-84.98915,38.09478,10980.0]]},"properties":{"ef_share":0.0,"ef_tj":0.0}},{"type":"Feature","geometry":{"type":"LineString","coordinates":[[-84.98915,38.09478,10980.0],[-85.08014,37.99288,10970.0]]},"properties":{"ef_share":0.0,"ef_tj":0.0}},{"type":"Feature","geometry":{"type":"LineString","coordinates":[[-85.08014,37.99288,10970.0],[-85.17045,37.89139,10970.0]]},"properties":{"ef_share":0.0,"ef_tj":0.0}},{"type":"Feature","geometry":{"type":"LineString","coordinates":[[-85.17045,37.89139,10970.0],[-85.26072,37.78963,10980.0]]},"properties":{"ef_share":0.0,"ef_tj":0.0}},{"type":"Feature","geometry":{"type":"LineString","coordinates":[[-85.26072,37.78963,10980.0],[-85.35089,37.68764,10970.0]]},"properties":{"ef_share":0.0,"ef_tj":0.0}},{"type":"Feature","geometry":{"type":"LineString","coordinates":[[-85.35089,37.68764,10970.0],[-85.44085,37.58552,10970.0]]},"properties":{"ef_share":0.0,"ef_tj":0.0}},{"type":"Feature","geometry":{"type":"LineString","coordinates":[[-85.44085,37.58552,10970.0],[-85.53072,37.48304,10980.0]]},"properties":{"ef_share":0.0,"ef_tj":0.0}},{"type":"Feature","geometry":{"type":"LineString","coordinates":[[-85.53072,37.48304,10980.0],[-85.62101,37.37979,10970.0]]},"properties":{"ef_share":0.0,"ef_tj":0.0}},{"type":"Feature","geometry":{"type":"LineString","coordinates":[[-85.62101,37.37979,10970.0],[-85.711,37.27655,10980.0]]},"properties":{"ef_share":0.0,"ef_tj":0.0}},{"type":"Feature","geometry":{"type":"LineString","coordinates":[[-85.711,37.27655,10980.0],[-85.80119,37.17268,11190.0]]},"properties":{"ef_share":0.0,"ef_tj":0.0}},{"type":"Feature","geometry":{"type":"LineString","coordinates":[[-85.80119,37.17268,11190.0],[-85.89043,37.06955,11580.0]]},"properties":{"ef_share":0.0,"ef_tj":0.0}},{"type":"Feature","geometry":{"type":"LineString","coordinates":[[-85.89043,37.06955,11580.0],[-85.97823,36.96798,11580.0]]},"properties":{"ef_share":0.0,"ef_tj":0.0}},{"type":"Feature","geometry":{"type":"LineString","coordinates":[[-85.97823,36.96798,11580.0],[-86.06545,36.86655,11590.0]]},"properties":{"ef_share":-0.121,"ef_tj":-0.360099}},{"type":"Feature","geometry":{"type":"LineString","coordinates":[[-86.06545,36.86655,11590.0],[-86.15328,36.76416,11590.0]]},"properties":{"ef_share":-0.222,"ef_tj":-0.659723}},{"type":"Feature","geometry":{"type":"LineString","coordinates":[[-86.15328,36.76416,11590.0],[-86.24103,36.6615,11580.0]]},"properties":{"ef_share":-0.252,"ef_tj":-0.749267}},{"type":"Feature","geometry":{"type":"LineString","coordinates":[[-86.24103,36.6615,11580.0],[-86.32805,36.55918,11580.0]]},"properties":{"ef_share":-0.25,"ef_tj":-0.740867}},{"type":"Feature","geometry":{"type":"LineString","coordinates":[[-86.32805,36.55918,11580.0],[-86.41547,36.45617,11580.0]]},"properties":{"ef_share":-0.18,"ef_tj":-0.533343}},{"type":"Feature","geometry":{"type":"LineString","coordinates":[[-86.41547,36.45617,11580.0],[-86.50277,36.35302,11580.0]]},"properties":{"ef_share":-0.129,"ef_tj":-0.3826}},{"type":"Feature","geometry":{"type":"LineString","coordinates":[[-86.50277,36.35302,11580.0],[-86.59033,36.24916,11580.0]]},"properties":{"ef_share":-0.178,"ef_tj":-0.52719}},{"type":"Feature","geometry":{"type":"LineString","coordinates":[[-86.59033,36.24916,11580.0],[-86.67885,36.14588,11580.0]]},"properties":{"ef_share":-0.448,"ef_tj":-1.331418}},{"type":"Feature","geometry":{"type":"LineString","coordinates":[[-86.67885,36.14588,11580.0],[-86.78323,36.05275,11590.0]]},"properties":{"ef_share":-0.632,"ef_tj":-1.874882}},{"type":"Feature","geometry":{"type":"LineString","coordinates":[[-86.78323,36.05275,11590.0],[-86.89032,35.96232,11590.0]]},"properties":{"ef_share":-0.596,"ef_tj":-1.769258}},{"type":"Feature","geometry":{"type":"LineString","coordinates":[[-86.89032,35.96232,11590.0],[-86.9981,35.87044,11580.0]]},"properties":{"ef_share":-0.709,"ef_tj":-2.104145}},{"type":"Feature","geometry":{"type":"LineString","coordinates":[[-86.9981,35.87044,11580.0],[-87.10639,35.77746,11580.0]]},"properties":{"ef_share":-0.783,"ef_tj":-2.325642}},{"type":"Feature","geometry":{"type":"LineString","coordinates":[[-87.10639,35.77746,11580.0],[-87.21501,35.68407,11580.0]]},"properties":{"ef_share":-0.816,"ef_tj":-2.423657}},{"type":"Feature","geometry":{"type":"LineString","coordinates":[[-87.21501,35.68407,11580.0],[-87.32379,35.59031,11590.0]]},"properties":{"ef_share":-0.759,"ef_tj":-2.253629}},{"type":"Feature","geometry":{"type":"LineString","coordinates":[[-87.32379,35.59031,11590.0],[-87.43432,35.49713,11580.0]]},"properties":{"ef_share":-0.87,"ef_tj":-2.583907}},{"type":"Feature","geometry":{"type":"LineString","coordinates":[[-87.43432,35.49713,11580.0],[-87.56106,35.42143,11580.0]]},"properties":{"ef_share":-0.713,"ef_tj":-2.117012}},{"type":"Feature","geometry":{"type":"LineString","coordinates":[[-87.56106,35.42143,11580.0],[-87.68485,35.34316,11580.0]]},"properties":{"ef_share":-0.001,"ef_tj":-0.002887}},{"type":"Feature","geometry":{"type":"LineString","coordinates":[[-87.68485,35.34316,11580.0],[-87.80829,35.26241,11580.0]]},"properties":{"ef_share":-0.001,"ef_tj":-0.0019}},{"type":"Feature","geometry":{"type":"LineString","coordinates":[[-87.80829,35.26241,11580.0],[-87.93121,35.18195,11580.0]]},"properties":{"ef_share":-0.001,"ef_tj":-0.001644}},{"type":"Feature","geometry":{"type":"LineString","coordinates":[[-87.93121,35.18195,11580.0],[-88.0541,35.10173,11590.0]]},"properties":{"ef_share":-0.001,"ef_tj":-0.002094}},{"type":"Feature","geometry":{"type":"LineString","coordinates":[[-88.0541,35.10173,11590.0],[-88.17775,35.02252,11580.0]]},"properties":{"ef_share":-0.001,"ef_tj":-0.002002}},{"type":"Feature","geometry":{"type":"LineString","coordinates":[[-88.17775,35.02252,11580.0],[-88.30139,34.9441,11580.0]]},"properties":{"ef_share":-0.001,"ef_tj":-0.002087}},{"type":"Feature","geometry":{"type":"LineString","coordinates":[[-88.30139,34.9441,11580.0],[-88.42492,34.86504,11580.0]]},"properties":{"ef_share":-0.001,"ef_tj":-0.002745}},{"type":"Feature","geometry":{"type":"LineString","coordinates":[[-88.42492,34.86504,11580.0],[-88.54774,34.78622,11580.0]]},"properties":{"ef_share":-0.708,"ef_tj":-2.10296}},{"type":"Feature","geometry":{"type":"LineString","coordinates":[[-88.54774,34.78622,11580.0],[-88.66934,34.70787,11580.0]]},"properties":{"ef_share":-0.849,"ef_tj":-2.520613}},{"type":"Feature","geometry":{"type":"LineString","coordinates":[[-88.66934,34.70787,11580.0],[-88.79103,34.62925,11580.0]]},"properties":{"ef_share":-1.0,"ef_tj":-2.968776}},{"type":"Feature","geometry":{"type":"LineString","coordinates":[[-88.79103,34.62925,11580.0],[-88.91206,34.55074,11580.0]]},"properties":{"ef_share":-0.854,"ef_tj":-2.536531}},{"type":"Feature","geometry":{"type":"LineString","coordinates":[[-88.91206,34.55074,11580.0],[-89.03295,34.47208,11590.0]]},"properties":{"ef_share":-0.88,"ef_tj":-2.613963}},{"type":"Feature","geometry":{"type":"LineString","coordinates":[[-89.03295,34.47208,11590.0],[-89.15377,34.3932,11580.0]]},"properties":{"ef_share":-0.186,"ef_tj":-0.550769}},{"type":"Feature","geometry":{"type":"LineString","coordinates":[[-89.15377,34.3932,11580.0],[-89.27474,34.31397,11580.0]]},"properties":{"ef_share":-0.024,"ef_tj":-0.070496}},{"type":"Feature","geometry":{"type":"LineString","coordinates":[[-89.27474,34.31397,11580.0],[-89.39579,34.23444,11580.0]]},"properties":{"ef_share":-0.003,"ef_tj":-0.01037}},{"type":"Feature","geometry":{"type":"LineString","coordinates":[[-89.39579,34.23444,11580.0],[-89.51683,34.15458,11580.0]]},"properties":{"ef_share":-0.003,"ef_tj":-0.010304}},{"type":"Feature","geometry":{"type":"LineString","coordinates":[[-89.51683,34.15458,11580.0],[-89.63791,34.07449,11590.0]]},"properties":{"ef_share":-0.003,"ef_tj":-0.008733}},{"type":"Feature","geometry":{"type":"LineString","coordinates":[[-89.63791,34.07449,11590.0],[-89.75923,33.99387,11580.0]]},"properties":{"ef_share":-0.002,"ef_tj":-0.005139}},{"type":"Feature","geometry":{"type":"LineString","coordinates":[[-89.75923,33.99387,11580.0],[-89.87995,33.91344,11580.0]]},"properties":{"ef_share":0.0,"ef_tj":0.0}},{"type":"Feature","geometry":{"type":"LineString","coordinates":[[-89.87995,33.91344,11580.0],[-90.00042,33.83297,11580.0]]},"properties":{"ef_share":0.0,"ef_tj":0.0}},{"type":"Feature","geometry":{"type":"LineString","coordinates":[[-90.00042,33.83297,11580.0],[-90.12059,33.75236,11590.0]]},"properties":{"ef_share":0.0,"ef_tj":0.0}},{"type":"Feature","geometry":{"type":"LineString","coordinates":[[-90.12059,33.75236,11590.0],[-90.24089,33.67139,11580.0]]},"properties":{"ef_share":0.0,"ef_tj":0.0}},{"type":"Feature","geometry":{"type":"LineString","coordinates":[[-90.24089,33.67139,11580.0],[-90.36057,33.59055,11580.0]]},"properties":{"ef_share":0.0,"ef_tj":0.0}},{"type":"Feature","geometry":{"type":"LineString","coordinates":[[-90.36057,33.59055,11580.0],[-90.48049,33.5093,11580.0]]},"properties":{"ef_share":0.0,"ef_tj":0.0}},{"type":"Feature","geometry":{"type":"LineString","coordinates":[[-90.48049,33.5093,11580.0],[-90.60009,33.42805,11580.0]]},"properties":{"ef_share":0.0,"ef_tj":0.0}},{"type":"Feature","geometry":{"type":"LineString","coordinates":[[-90.60009,33.42805,11580.0],[-90.71975,33.34639,11580.0]]},"properties":{"ef_share":0.0,"ef_tj":0.0}},{"type":"Feature","geometry":{"type":"LineString","coordinates":[[-90.71975,33.34639,11580.0],[-90.83907,33.26479,11590.0]]},"properties":{"ef_share":0.0,"ef_tj":0.0}},{"type":"Feature","geometry":{"type":"LineString","coordinates":[[-90.83907,33.26479,11590.0],[-90.95825,33.183,11510.0]]},"properties":{"ef_share":0.0,"ef_tj":0.0}},{"type":"Feature","geometry":{"type":"LineString","coordinates":[[-90.95825,33.183,11510.0],[-91.07712,33.10123,11090.0]]},"properties":{"ef_share":0.0,"ef_tj":0.0}},{"type":"Feature","geometry":{"type":"LineString","coordinates":[[-91.07712,33.10123,11090.0],[-91.1951,33.01952,10970.0]]},"properties":{"ef_share":0.0,"ef_tj":0.0}},{"type":"Feature","geometry":{"type":"LineString","coordinates":[[-91.1951,33.01952,10970.0],[-91.31341,32.9375,10980.0]]},"properties":{"ef_share":0.0,"ef_tj":0.0}},{"type":"Feature","geometry":{"type":"LineString","coordinates":[[-91.31341,32.9375,10980.0],[-91.43245,32.85496,10970.0]]},"properties":{"ef_share":0.0,"ef_tj":0.0}},{"type":"Feature","geometry":{"type":"LineString","coordinates":[[-91.43245,32.85496,10970.0],[-91.55225,32.77124,10980.0]]},"properties":{"ef_share":0.0,"ef_tj":0.0}},{"type":"Feature","geometry":{"type":"LineString","coordinates":[[-91.55225,32.77124,10980.0],[-91.67208,32.68714,10970.0]]},"properties":{"ef_share":0.0,"ef_tj":0.0}},{"type":"Feature","geometry":{"type":"LineString","coordinates":[[-91.67208,32.68714,10970.0],[-91.7927,32.60265,10970.0]]},"properties":{"ef_share":0.0,"ef_tj":0.0}},{"type":"Feature","geometry":{"type":"LineString","coordinates":[[-91.7927,32.60265,10970.0],[-91.91212,32.51842,10970.0]]},"properties":{"ef_share":0.0,"ef_tj":0.0}},{"type":"Feature","geometry":{"type":"LineString","coordinates":[[-91.91212,32.51842,10970.0],[-92.03187,32.43387,10970.0]]},"properties":{"ef_share":0.0,"ef_tj":0.0}},{"type":"Feature","geometry":{"type":"LineString","coordinates":[[-92.03187,32.43387,10970.0],[-92.15093,32.34946,10980.0]]},"properties":{"ef_share":0.0,"ef_tj":0.0}},{"type":"Feature","geometry":{"type":"LineString","coordinates":[[-92.15093,32.34946,10980.0],[-92.26985,32.2649,10970.0]]},"properties":{"ef_share":0.0,"ef_tj":0.0}},{"type":"Feature","geometry":{"type":"LineString","coordinates":[[-92.26985,32.2649,10970.0],[-92.38662,32.18144,10970.0]]},"properties":{"ef_share":0.0,"ef_tj":0.0}},{"type":"Feature","geometry":{"type":"LineString","coordinates":[[-92.38662,32.18144,10970.0],[-92.50208,32.0989,10970.0]]},"properties":{"ef_share":0.0,"ef_tj":0.0}},{"type":"Feature","geometry":{"type":"LineString","coordinates":[[-92.50208,32.0989,10970.0],[-92.6163,32.01672,10970.0]]},"properties":{"ef_share":0.0,"ef_tj":0.0}},{"type":"Feature","geometry":{"type":"LineString","coordinates":[[-92.6163,32.01672,10970.0],[-92.72224,31.92706,10980.0]]},"properties":{"ef_share":0.0,"ef_tj":0.0}},{"type":"Feature","geometry":{"type":"LineString","coordinates":[[-92.72224,31.92706,10980.0],[-92.81808,31.8284,10970.0]]},"properties":{"ef_share":0.0,"ef_tj":0.0}},{"type":"Feature","geometry":{"type":"LineString","coordinates":[[-92.81808,31.8284,10970.0],[-92.9125,31.73035,10970.0]]},"properties":{"ef_share":0.0,"ef_tj":0.0}},{"type":"Feature","geometry":{"type":"LineString","coordinates":[[-92.9125,31.73035,10970.0],[-93.00569,31.6336,10970.0]]},"properties":{"ef_share":0.0,"ef_tj":0.0}},{"type":"Feature","geometry":{"type":"LineString","coordinates":[[-93.00569,31.6336,10970.0],[-93.09797,31.53769,10970.0]]},"properties":{"ef_share":0.0,"ef_tj":0.0}},{"type":"Feature","geometry":{"type":"LineString","coordinates":[[-93.09797,31.53769,10970.0],[-93.18947,31.44265,10970.0]]},"properties":{"ef_share":0.0,"ef_tj":0.0}},{"type":"Feature","geometry":{"type":"LineString","coordinates":[[-93.18947,31.44265,10970.0],[-93.28005,31.348,10970.0]]},"properties":{"ef_share":0.0,"ef_tj":0.0}},{"type":"Feature","geometry":{"type":"LineString","coordinates":[[-93.28005,31.348,10970.0],[-93.36994,31.25382,10970.0]]},"properties":{"ef_share":0.0,"ef_tj":0.0}},{"type":"Feature","geometry":{"type":"LineString","coordinates":[[-93.36994,31.25382,10970.0],[-93.45959,31.15962,10970.0]]},"properties":{"ef_share":0.0,"ef_tj":0.0}},{"type":"Feature","geometry":{"type":"LineString","coordinates":[[-93.45959,31.15962,10970.0],[-93.54825,31.06629,10970.0]]},"properties":{"ef_share":0.0,"ef_tj":0.0}},{"type":"Feature","geometry":{"type":"LineString","coordinates":[[-93.54825,31.06629,10970.0],[-93.63663,30.97299,10970.0]]},"properties":{"ef_share":0.0,"ef_tj":0.0}},{"type":"Feature","geometry":{"type":"LineString","coordinates":[[-93.63663,30.97299,10970.0],[-93.72457,30.87986,10970.0]]},"properties":{"ef_share":0.0,"ef_tj":0.0}},{"type":"Feature","geometry":{"type":"LineString","coordinates":[[-93.72457,30.87986,10970.0],[-93.81133,30.78779,10950.0]]},"properties":{"ef_share":0.0,"ef_tj":0.0}},{"type":"Feature","geometry":{"type":"LineString","coordinates":[[-93.81133,30.78779,10950.0],[-93.89802,30.69558,10450.0]]},"properties":{"ef_share":0.0,"ef_tj":0.0}},{"type":"Feature","geometry":{"type":"LineString","coordinates":[[-93.89802,30.69558,10450.0],[-93.9896,30.59696,9920.0]]},"properties":{"ef_share":0.0,"ef_tj":0.0}},{"type":"Feature","geometry":{"type":"LineString","coordinates":[[-93.9896,30.59696,9920.0],[-94.07867,30.50199,9530.0]]},"properties":{"ef_share":0.0,"ef_tj":0.0}},{"type":"Feature","geometry":{"type":"LineString","coordinates":[[-94.07867,30.50199,9530.0],[-94.16549,30.40902,8750.0]]},"properties":{"ef_share":0.0,"ef_tj":0.0}},{"type":"Feature","geometry":{"type":"LineString","coordinates":[[-94.16549,30.40902,8750.0],[-94.25075,30.31777,8220.0]]},"properties":{"ef_share":0.0,"ef_tj":0.0}},{"type":"Feature","geometry":{"type":"LineString","coordinates":[[-94.25075,30.31777,8220.0],[-94.34157,30.23413,7680.0]]},"properties":{"ef_share":0.0,"ef_tj":0.0}},{"type":"Feature","geometry":{"type":"LineString","coordinates":[[-94.34157,30.23413,7680.0],[-94.46411,30.19591,6940.0]]},"properties":{"ef_share":0.0,"ef_tj":0.0}},{"type":"Feature","geometry":{"type":"LineString","coordinates":[[-94.46411,30.19591,6940.0],[-94.587,30.1632,6210.0]]},"properties":{"ef_share":0.0,"ef_tj":0.0}},{"type":"Feature","geometry":{"type":"LineString","coordinates":[[-94.587,30.1632,6210.0],[-94.70648,30.13111,5520.0]]},"properties":{"ef_share":0.0,"ef_tj":0.0}},{"type":"Feature","geometry":{"type":"LineString","coordinates":[[-94.70648,30.13111,5520.0],[-94.8186,30.10096,4870.0]]},"properties":{"ef_share":0.0,"ef_tj":0.0}},{"type":"Feature","geometry":{"type":"LineString","coordinates":[[-94.8186,30.10096,4870.0],[-94.92244,30.07271,4260.0]]},"properties":{"ef_share":0.0,"ef_tj":0.0}},{"type":"Feature","geometry":{"type":"LineString","coordinates":[[-94.92244,30.07271,4260.0],[-95.02835,30.04396,3940.0]]},"properties":{"ef_share":0.0,"ef_tj":0.0}},{"type":"Feature","geometry":{"type":"LineString","coordinates":[[-95.02835,30.04396,3940.0],[-95.12855,30.01605,3630.0]]},"properties":{"ef_share":0.0,"ef_tj":0.0}},{"type":"Feature","geometry":{"type":"LineString","coordinates":[[-95.12855,30.01605,3630.0],[-95.17424,29.95052,3240.0]]},"properties":{"ef_share":0.0,"ef_tj":0.0}},{"type":"Feature","geometry":{"type":"LineString","coordinates":[[-95.17424,29.95052,3240.0],[-95.1965,29.87477,2900.0]]},"properties":{"ef_share":0.0,"ef_tj":0.0}},{"type":"Feature","geometry":{"type":"LineString","coordinates":[[-95.1965,29.87477,2900.0],[-95.22035,29.80234,2480.0]]},"properties":{"ef_share":0.0,"ef_tj":0.0}},{"type":"Feature","geometry":{"type":"LineString","coordinates":[[-95.22035,29.80234,2480.0],[-95.29907,29.78719,2060.0]]},"properties":{"ef_share":0.0,"ef_tj":0.0}},{"type":"Feature","geometry":{"type":"LineString","coordinates":[[-95.29907,29.78719,2060.0],[-95.37387,29.82166,1610.0]]},"properties":{"ef_share":0.0,"ef_tj":0.0}},{"type":"Feature","geometry":{"type":"LineString","coordinates":[[-95.37387,29.82166,1610.0],[-95.42702,29.78609,1000.0]]},"properties":{"ef_share":0.0,"ef_tj":0.0}},{"type":"Feature","geometry":{"type":"LineString","coordinates":[[-95.42702,29.78609,1000.0],[-95.38429,29.73357,620.0]]},"properties":{"ef_share":0.0,"ef_tj":0.0}},{"type":"Feature","geometry":{"type":"LineString","coordinates":[[-95.38429,29.73357,620.0],[-95.34172,29.6982,440.0]]},"properties":{"ef_share":0.0,"ef_tj":0.0}},{"type":"Feature","geometry":{"type":"LineString","coordinates":[[-95.34172,29.6982,440.0],[-95.30914,29.67078,210.0]]},"properties":{"ef_share":0.0,"ef_tj":0.0}}]}