{"type":"FeatureCollection","properties":{"icao24":"aa5bc4","registration":"N767CJ","owner_label":"Drake","combined_co2e_central":34128.0,"fuel_co2_kg":34072.5,"contrail_co2e_central":55.5,"tier":"high"},"features":[{"type":"Feature","geometry":{"type":"LineString","coordinates":[[-111.69455,34.90403,4330.0],[-111.58926,34.84149,5290.0]]},"properties":{"ef_share":0.0,"ef_tj":0.0}},{"type":"Feature","geometry":{"type":"LineString","coordinates":[[-111.58926,34.84149,5290.0],[-111.44288,34.80032,6310.0]]},"properties":{"ef_share":0.0,"ef_tj":0.0}},{"type":"Feature","geometry":{"type":"LineString","coordinates":[[-111.44288,34.80032,6310.0],[-111.28863,34.75312,7350.0]]},"properties":{"ef_share":0.0,"ef_tj":0.0}},{"type":"Feature","geometry":{"type":"LineString","coordinates":[[-111.28863,34.75312,7350.0],[-111.12861,34.70273,7680.0]]},"properties":{"ef_share":0.0,"ef_tj":0.0}},{"type":"Feature","geometry":{"type":"LineString","coordinates":[[-111.12861,34.70273,7680.0],[-110.96807,34.65201,8680.0]]},"properties":{"ef_share":0.0,"ef_tj":0.0}},{"type":"Feature","geometry":{"type":"LineString","coordinates":[[-110.96807,34.65201,8680.0],[-110.80323,34.59982,9630.0]]},"properties":{"ef_share":0.0,"ef_tj":0.0}},{"type":"Feature","geometry":{"type":"LineString","coordinates":[[-110.80323,34.59982,9630.0],[-110.63523,34.54652,10410.0]]},"properties":{"ef_share":1.0,"ef_tj":0.195053}},{"type":"Feature","geometry":{"type":"LineString","coordinates":[[-110.63523,34.54652,10410.0],[-110.46966,34.49382,11020.0]]},"properties":{"ef_share":0.0,"ef_tj":0.0}},{"type":"Feature","geometry":{"type":"LineString","coordinates":[[-110.46966,34.49382,11020.0],[-110.30032,34.43941,11680.0]]},"properties":{"ef_share":0.0,"ef_tj":0.0}},{"type":"Feature","geometry":{"type":"LineString","coordinates":[[-110.30032,34.43941,11680.0],[-110.13681,34.38659,11880.0]]},"properties":{"ef_share":0.0,"ef_tj":0.0}},{"type":"Feature","geometry":{"type":"LineString","coordinates":[[-110.13681,34.38659,11880.0],[-109.97474,34.334,11880.0]]},"properties":{"ef_share":0.0,"ef_tj":0.0}},{"type":"Feature","geometry":{"type":"LineString","coordinates":[[-109.97474,34.334,11880.0],[-109.81142,34.28071,11880.0]]},"properties":{"ef_share":0.0,"ef_tj":0.0}},{"type":"Feature","geometry":{"type":"LineString","coordinates":[[-109.81142,34.28071,11880.0],[-109.64917,34.22758,11880.0]]},"properties":{"ef_share":0.0,"ef_tj":0.0}},{"type":"Feature","geometry":{"type":"LineString","coordinates":[[-109.64917,34.22758,11880.0],[-109.48735,34.17427,11870.0]]},"properties":{"ef_share":0.0,"ef_tj":0.0}},{"type":"Feature","geometry":{"type":"LineString","coordinates":[[-109.48735,34.17427,11870.0],[-109.33108,34.12261,11880.0]]},"properties":{"ef_share":0.0,"ef_tj":0.0}},{"type":"Feature","geometry":{"type":"LineString","coordinates":[[-109.33108,34.12261,11880.0],[-109.16601,34.06753,11870.0]]},"properties":{"ef_share":0.0,"ef_tj":0.0}},{"type":"Feature","geometry":{"type":"LineString","coordinates":[[-109.16601,34.06753,11870.0],[-109.00489,34.01358,11880.0]]},"properties":{"ef_share":0.0,"ef_tj":0.0}},{"type":"Feature","geometry":{"type":"LineString","coordinates":[[-109.00489,34.01358,11880.0],[-108.84537,33.95984,11880.0]]},"properties":{"ef_share":0.0,"ef_tj":0.0}},{"type":"Feature","geometry":{"type":"LineString","coordinates":[[-108.84537,33.95984,11880.0],[-108.68476,33.90558,11870.0]]},"properties":{"ef_share":0.0,"ef_tj":0.0}},{"type":"Feature","geometry":{"type":"LineString","coordinates":[[-108.68476,33.90558,11870.0],[-108.5251,33.85138,11880.0]]},"properties":{"ef_share":0.0,"ef_tj":0.0}},{"type":"Feature","geometry":{"type":"LineString","coordinates":[[-108.5251,33.85138,11880.0],[-108.36651,33.79705,11880.0]]},"properties":{"ef_share":0.0,"ef_tj":0.0}},{"type":"Feature","geometry":{"type":"LineString","coordinates":[[-108.36651,33.79705,11880.0],[-108.2084,33.74287,11870.0]]},"properties":{"ef_share":0.0,"ef_tj":0.0}},{"type":"Feature","geometry":{"type":"LineString","coordinates":[[-108.2084,33.74287,11870.0],[-108.05042,33.68837,11880.0]]},"properties":{"ef_share":0.0,"ef_tj":0.0}},{"type":"Feature","geometry":{"type":"LineString","coordinates":[[-108.05042,33.68837,11880.0],[-107.89183,33.63322,11870.0]]},"properties":{"ef_share":0.0,"ef_tj":0.0}},{"type":"Feature","geometry":{"type":"LineString","coordinates":[[-107.89183,33.63322,11870.0],[-107.73338,33.57708,11870.0]]},"properties":{"ef_share":0.0,"ef_tj":0.0}},{"type":"Feature","geometry":{"type":"LineString","coordinates":[[-107.73338,33.57708,11870.0],[-107.57518,33.52074,11870.0]]},"properties":{"ef_share":0.0,"ef_tj":0.0}},{"type":"Feature","geometry":{"type":"LineString","coordinates":[[-107.57518,33.52074,11870.0],[-107.4166,33.46434,11880.0]]},"properties":{"ef_share":0.0,"ef_tj":0.0}},{"type":"Feature","geometry":{"type":"LineString","coordinates":[[-107.4166,33.46434,11880.0],[-107.25197,33.41882,11880.0]]},"properties":{"ef_share":0.0,"ef_tj":0.0}},{"type":"Feature","geometry":{"type":"LineString","coordinates":[[-107.25197,33.41882,11880.0],[-107.08449,33.37688,11880.0]]},"properties":{"ef_share":0.0,"ef_tj":0.0}},{"type":"Feature","geometry":{"type":"LineString","coordinates":[[-107.08449,33.37688,11880.0],[-106.91803,33.3331,11870.0]]},"properties":{"ef_share":0.0,"ef_tj":0.0}},{"type":"Feature","geometry":{"type":"LineString","coordinates":[[-106.91803,33.3331,11870.0],[-106.74937,33.29148,11880.0]]},"properties":{"ef_share":0.0,"ef_tj":0.0}},{"type":"Feature","geometry":{"type":"LineString","coordinates":[[-106.74937,33.29148,11880.0],[-106.57997,33.2496,11880.0]]},"properties":{"ef_share":0.0,"ef_tj":0.0}},{"type":"Feature","geometry":{"type":"LineString","coordinates":[[-106.57997,33.2496,11880.0],[-106.41047,33.2073,11880.0]]},"properties":{"ef_share":0.0,"ef_tj":0.0}},{"type":"Feature","geometry":{"type":"LineString","coordinates":[[-106.41047,33.2073,11880.0],[-106.2411,33.16482,11880.0]]},"properties":{"ef_share":0.0,"ef_tj":0.0}},{"type":"Feature","geometry":{"type":"LineString","coordinates":[[-106.2411,33.16482,11880.0],[-106.07206,33.12209,11870.0]]},"properties":{"ef_share":0.0,"ef_tj":0.0}},{"type":"Feature","geometry":{"type":"LineString","coordinates":[[-106.07206,33.12209,11870.0],[-105.90375,33.07928,11880.0]]},"properties":{"ef_share":0.0,"ef_tj":0.0}},{"type":"Feature","geometry":{"type":"LineString","coordinates":[[-105.90375,33.07928,11880.0],[-105.73622,33.03663,11880.0]]},"properties":{"ef_share":0.0,"ef_tj":0.0}},{"type":"Feature","geometry":{"type":"LineString","coordinates":[[-105.73622,33.03663,11880.0],[-105.56938,32.99371,11880.0]]},"properties":{"ef_share":0.0,"ef_tj":0.0}},{"type":"Feature","geometry":{"type":"LineString","coordinates":[[-105.56938,32.99371,11880.0],[-105.4018,32.95047,11870.0]]},"properties":{"ef_share":0.0,"ef_tj":0.0}},{"type":"Feature","geometry":{"type":"LineString","coordinates":[[-105.4018,32.95047,11870.0],[-105.23445,32.90687,11870.0]]},"properties":{"ef_share":0.0,"ef_tj":0.0}},{"type":"Feature","geometry":{"type":"LineString","coordinates":[[-105.23445,32.90687,11870.0],[-105.06776,32.86325,11880.0]]},"properties":{"ef_share":0.0,"ef_tj":0.0}},{"type":"Feature","geometry":{"type":"LineString","coordinates":[[-105.06776,32.86325,11880.0],[-104.90142,32.81951,11870.0]]},"properties":{"ef_share":0.0,"ef_tj":0.0}},{"type":"Feature","geometry":{"type":"LineString","coordinates":[[-104.90142,32.81951,11870.0],[-104.73417,32.77526,11880.0]]},"properties":{"ef_share":0.0,"ef_tj":0.0}},{"type":"Feature","geometry":{"type":"LineString","coordinates":[[-104.73417,32.77526,11880.0],[-104.56609,32.73047,11880.0]]},"properties":{"ef_share":0.0,"ef_tj":0.0}},{"type":"Feature","geometry":{"type":"LineString","coordinates":[[-104.56609,32.73047,11880.0],[-104.398,32.68534,11880.0]]},"properties":{"ef_share":0.0,"ef_tj":0.0}},{"type":"Feature","geometry":{"type":"LineString","coordinates":[[-104.398,32.68534,11880.0],[-104.22975,32.63992,11870.0]]},"properties":{"ef_share":0.0,"ef_tj":0.0}},{"type":"Feature","geometry":{"type":"LineString","coordinates":[[-104.22975,32.63992,11870.0],[-104.06256,32.59467,11870.0]]},"properties":{"ef_share":0.0,"ef_tj":0.0}},{"type":"Feature","geometry":{"type":"LineString","coordinates":[[-104.06256,32.59467,11870.0],[-103.89448,32.54888,11870.0]]},"properties":{"ef_share":0.0,"ef_tj":0.0}},{"type":"Feature","geometry":{"type":"LineString","coordinates":[[-103.89448,32.54888,11870.0],[-103.72758,32.50303,11870.0]]},"properties":{"ef_share":0.0,"ef_tj":0.0}},{"type":"Feature","geometry":{"type":"LineString","coordinates":[[-103.72758,32.50303,11870.0],[-103.55956,32.45662,11880.0]]},"properties":{"ef_share":0.0,"ef_tj":0.0}},{"type":"Feature","geometry":{"type":"LineString","coordinates":[[-103.55956,32.45662,11880.0],[-103.39175,32.40989,11880.0]]},"properties":{"ef_share":0.0,"ef_tj":0.0}},{"type":"Feature","geometry":{"type":"LineString","coordinates":[[-103.39175,32.40989,11880.0],[-103.22277,32.36282,11870.0]]},"properties":{"ef_share":0.0,"ef_tj":0.0}},{"type":"Feature","geometry":{"type":"LineString","coordinates":[[-103.22277,32.36282,11870.0],[-103.05442,32.31542,11870.0]]},"properties":{"ef_share":0.0,"ef_tj":0.0}},{"type":"Feature","geometry":{"type":"LineString","coordinates":[[-103.05442,32.31542,11870.0],[-102.88579,32.26787,11870.0]]},"properties":{"ef_share":0.0,"ef_tj":0.0}},{"type":"Feature","geometry":{"type":"LineString","coordinates":[[-102.88579,32.26787,11870.0],[-102.7166,32.21975,11870.0]]},"properties":{"ef_share":0.0,"ef_tj":0.0}},{"type":"Feature","geometry":{"type":"LineString","coordinates":[[-102.7166,32.21975,11870.0],[-102.54843,32.17177,11870.0]]},"properties":{"ef_share":0.0,"ef_tj":0.0}},{"type":"Feature","geometry":{"type":"LineString","coordinates":[[-102.54843,32.17177,11870.0],[-102.38083,32.12354,11870.0]]},"properties":{"ef_share":0.0,"ef_tj":0.0}},{"type":"Feature","geometry":{"type":"LineString","coordinates":[[-102.38083,32.12354,11870.0],[-102.21403,32.07533,11870.0]]},"properties":{"ef_share":0.0,"ef_tj":0.0}},{"type":"Feature","geometry":{"type":"LineString","coordinates":[[-102.21403,32.07533,11870.0],[-102.04663,32.02663,11880.0]]},"properties":{"ef_share":0.0,"ef_tj":0.0}},{"type":"Feature","geometry":{"type":"LineString","coordinates":[[-102.04663,32.02663,11880.0],[-101.87963,31.97778,11870.0]]},"properties":{"ef_share":0.0,"ef_tj":0.0}},{"type":"Feature","geometry":{"type":"LineString","coordinates":[[-101.87963,31.97778,11870.0],[-101.71277,31.92873,11880.0]]},"properties":{"ef_share":0.0,"ef_tj":0.0}},{"type":"Feature","geometry":{"type":"LineString","coordinates":[[-101.71277,31.92873,11880.0],[-101.54572,31.8793,11870.0]]},"properties":{"ef_share":0.0,"ef_tj":0.0}},{"type":"Feature","geometry":{"type":"LineString","coordinates":[[-101.54572,31.8793,11870.0],[-101.3785,31.82959,11870.0]]},"properties":{"ef_share":0.0,"ef_tj":0.0}},{"type":"Feature","geometry":{"type":"LineString","coordinates":[[-101.3785,31.82959,11870.0],[-101.21097,31.77954,11880.0]]},"properties":{"ef_share":0.0,"ef_tj":0.0}},{"type":"Feature","geometry":{"type":"LineString","coordinates":[[-101.21097,31.77954,11880.0],[-101.04387,31.72943,11850.0]]},"properties":{"ef_share":0.0,"ef_tj":0.0}},{"type":"Feature","geometry":{"type":"LineString","coordinates":[[-101.04387,31.72943,11850.0],[-100.87889,31.67942,11510.0]]},"properties":{"ef_share":0.0,"ef_tj":0.0}},{"type":"Feature","geometry":{"type":"LineString","coordinates":[[-100.87889,31.67942,11510.0],[-100.71107,31.63292,11260.0]]},"properties":{"ef_share":0.0,"ef_tj":0.0}},{"type":"Feature","geometry":{"type":"LineString","coordinates":[[-100.71107,31.63292,11260.0],[-100.52995,31.61227,11270.0]]},"properties":{"ef_share":0.0,"ef_tj":0.0}},{"type":"Feature","geometry":{"type":"LineString","coordinates":[[-100.52995,31.61227,11270.0],[-100.34701,31.59631,11260.0]]},"properties":{"ef_share":0.0,"ef_tj":0.0}},{"type":"Feature","geometry":{"type":"LineString","coordinates":[[-100.34701,31.59631,11260.0],[-100.16427,31.5802,11270.0]]},"properties":{"ef_share":0.0,"ef_tj":0.0}},{"type":"Feature","geometry":{"type":"LineString","coordinates":[[-100.16427,31.5802,11270.0],[-99.9814,31.56379,11260.0]]},"properties":{"ef_share":0.0,"ef_tj":0.0}},{"type":"Feature","geometry":{"type":"LineString","coordinates":[[-99.9814,31.56379,11260.0],[-99.7987,31.54707,11270.0]]},"properties":{"ef_share":0.0,"ef_tj":0.0}},{"type":"Feature","geometry":{"type":"LineString","coordinates":[[-99.7987,31.54707,11270.0],[-99.61598,31.52986,11260.0]]},"properties":{"ef_share":0.0,"ef_tj":0.0}},{"type":"Feature","geometry":{"type":"LineString","coordinates":[[-99.61598,31.52986,11260.0],[-99.43272,31.51242,11260.0]]},"properties":{"ef_share":0.0,"ef_tj":0.0}},{"type":"Feature","geometry":{"type":"LineString","coordinates":[[-99.43272,31.51242,11260.0],[-99.24932,31.49482,11260.0]]},"properties":{"ef_share":0.0,"ef_tj":0.0}},{"type":"Feature","geometry":{"type":"LineString","coordinates":[[-99.24932,31.49482,11260.0],[-99.06527,31.47674,11270.0]]},"properties":{"ef_share":0.0,"ef_tj":0.0}},{"type":"Feature","geometry":{"type":"LineString","coordinates":[[-99.06527,31.47674,11270.0],[-98.88128,31.45847,11260.0]]},"properties":{"ef_share":0.0,"ef_tj":0.0}},{"type":"Feature","geometry":{"type":"LineString","coordinates":[[-98.88128,31.45847,11260.0],[-98.69684,31.43992,11260.0]]},"properties":{"ef_share":0.0,"ef_tj":0.0}},{"type":"Feature","geometry":{"type":"LineString","coordinates":[[-98.69684,31.43992,11260.0],[-98.51361,31.42123,11260.0]]},"properties":{"ef_share":0.0,"ef_tj":0.0}},{"type":"Feature","geometry":{"type":"LineString","coordinates":[[-98.51361,31.42123,11260.0],[-98.33065,31.40143,11260.0]]},"properties":{"ef_share":0.0,"ef_tj":0.0}},{"type":"Feature","geometry":{"type":"LineString","coordinates":[[-98.33065,31.40143,11260.0],[-98.14842,31.37957,11260.0]]},"properties":{"ef_share":0.0,"ef_tj":0.0}},{"type":"Feature","geometry":{"type":"LineString","coordinates":[[-98.14842,31.37957,11260.0],[-97.96662,31.35765,11260.0]]},"properties":{"ef_share":0.0,"ef_tj":0.0}},{"type":"Feature","geometry":{"type":"LineString","coordinates":[[-97.96662,31.35765,11260.0],[-97.78476,31.33565,11260.0]]},"properties":{"ef_share":0.0,"ef_tj":0.0}},{"type":"Feature","geometry":{"type":"LineString","coordinates":[[-97.78476,31.33565,11260.0],[-97.60294,31.31355,11260.0]]},"properties":{"ef_share":0.0,"ef_tj":0.0}},{"type":"Feature","geometry":{"type":"LineString","coordinates":[[-97.60294,31.31355,11260.0],[-97.42082,31.29113,11260.0]]},"properties":{"ef_share":0.0,"ef_tj":0.0}},{"type":"Feature","geometry":{"type":"LineString","coordinates":[[-97.42082,31.29113,11260.0],[-97.23883,31.26836,11270.0]]},"properties":{"ef_share":0.0,"ef_tj":0.0}},{"type":"Feature","geometry":{"type":"LineString","coordinates":[[-97.23883,31.26836,11270.0],[-97.05741,31.24542,11260.0]]},"properties":{"ef_share":0.0,"ef_tj":0.0}},{"type":"Feature","geometry":{"type":"LineString","coordinates":[[-97.05741,31.24542,11260.0],[-96.87545,31.22194,11260.0]]},"properties":{"ef_share":0.0,"ef_tj":0.0}},{"type":"Feature","geometry":{"type":"LineString","coordinates":[[-96.87545,31.22194,11260.0],[-96.70906,31.17863,11140.0]]},"properties":{"ef_share":0.0,"ef_tj":0.0}},{"type":"Feature","geometry":{"type":"LineString","coordinates":[[-96.70906,31.17863,11140.0],[-96.62836,31.08321,10340.0]]},"properties":{"ef_share":0.0,"ef_tj":0.0}},{"type":"Feature","geometry":{"type":"LineString","coordinates":[[-96.62836,31.08321,10340.0],[-96.58169,30.97391,9310.0]]},"properties":{"ef_share":0.0,"ef_tj":0.0}},{"type":"Feature","geometry":{"type":"LineString","coordinates":[[-96.58169,30.97391,9310.0],[-96.53397,30.86541,8650.0]]},"properties":{"ef_share":0.0,"ef_tj":0.0}},{"type":"Feature","geometry":{"type":"LineString","coordinates":[[-96.53397,30.86541,8650.0],[-96.48871,30.76089,7880.0]]},"properties":{"ef_share":0.0,"ef_tj":0.0}},{"type":"Feature","geometry":{"type":"LineString","coordinates":[[-96.48871,30.76089,7880.0],[-96.44366,30.65791,7140.0]]},"properties":{"ef_share":0.0,"ef_tj":0.0}},{"type":"Feature","geometry":{"type":"LineString","coordinates":[[-96.44366,30.65791,7140.0],[-96.39483,30.55763,6450.0]]},"properties":{"ef_share":0.0,"ef_tj":0.0}},{"type":"Feature","geometry":{"type":"LineString","coordinates":[[-96.39483,30.55763,6450.0],[-96.34077,30.45881,5730.0]]},"properties":{"ef_share":0.0,"ef_tj":0.0}},{"type":"Feature","geometry":{"type":"LineString","coordinates":[[-96.34077,30.45881,5730.0],[-96.28626,30.35858,4980.0]]},"properties":{"ef_share":0.0,"ef_tj":0.0}},{"type":"Feature","geometry":{"type":"LineString","coordinates":[[-96.28626,30.35858,4980.0],[-96.23336,30.25724,4240.0]]},"properties":{"ef_share":0.0,"ef_tj":0.0}},{"type":"Feature","geometry":{"type":"LineString","coordinates":[[-96.23336,30.25724,4240.0],[-96.18167,30.15981,3610.0]]},"properties":{"ef_share":0.0,"ef_tj":0.0}},{"type":"Feature","geometry":{"type":"LineString","coordinates":[[-96.18167,30.15981,3610.0],[-96.13273,30.0687,3510.0]]},"properties":{"ef_share":0.0,"ef_tj":0.0}},{"type":"Feature","geometry":{"type":"LineString","coordinates":[[-96.13273,30.0687,3510.0],[-96.08208,29.97956,3430.0]]},"properties":{"ef_share":0.0,"ef_tj":0.0}},{"type":"Feature","geometry":{"type":"LineString","coordinates":[[-96.08208,29.97956,3430.0],[-96.03237,29.89314,3350.0]]},"properties":{"ef_share":0.0,"ef_tj":0.0}},{"type":"Feature","geometry":{"type":"LineString","coordinates":[[-96.03237,29.89314,3350.0],[-95.9829,29.80906,3230.0]]},"properties":{"ef_share":0.0,"ef_tj":0.0}},{"type":"Feature","geometry":{"type":"LineString","coordinates":[[-95.9829,29.80906,3230.0],[-95.93202,29.73185,3000.0]]},"properties":{"ef_share":0.0,"ef_tj":0.0}},{"type":"Feature","geometry":{"type":"LineString","coordinates":[[-95.93202,29.73185,3000.0],[-95.88574,29.66128,2800.0]]},"properties":{"ef_share":0.0,"ef_tj":0.0}},{"type":"Feature","geometry":{"type":"LineString","coordinates":[[-95.88574,29.66128,2800.0],[-95.82113,29.61063,2520.0]]},"properties":{"ef_share":0.0,"ef_tj":0.0}},{"type":"Feature","geometry":{"type":"LineString","coordinates":[[-95.82113,29.61063,2520.0],[-95.75832,29.56624,2250.0]]},"properties":{"ef_share":0.0,"ef_tj":0.0}},{"type":"Feature","geometry":{"type":"LineString","coordinates":[[-95.75832,29.56624,2250.0],[-95.69983,29.5236,1920.0]]},"properties":{"ef_share":0.0,"ef_tj":0.0}},{"type":"Feature","geometry":{"type":"LineString","coordinates":[[-95.69983,29.5236,1920.0],[-95.64526,29.48153,1660.0]]},"properties":{"ef_share":0.0,"ef_tj":0.0}},{"type":"Feature","geometry":{"type":"LineString","coordinates":[[-95.64526,29.48153,1660.0],[-95.57789,29.47234,1470.0]]},"properties":{"ef_share":0.0,"ef_tj":0.0}},{"type":"Feature","geometry":{"type":"LineString","coordinates":[[-95.57789,29.47234,1470.0],[-95.51086,29.47058,1300.0]]},"properties":{"ef_share":0.0,"ef_tj":0.0}},{"type":"Feature","geometry":{"type":"LineString","coordinates":[[-95.51086,29.47058,1300.0],[-95.4504,29.48892,1130.0]]},"properties":{"ef_share":0.0,"ef_tj":0.0}},{"type":"Feature","geometry":{"type":"LineString","coordinates":[[-95.4504,29.48892,1130.0],[-95.40964,29.52621,910.0]]},"properties":{"ef_share":0.0,"ef_tj":0.0}},{"type":"Feature","geometry":{"type":"LineString","coordinates":[[-95.40964,29.52621,910.0],[-95.37105,29.56125,620.0]]},"properties":{"ef_share":0.0,"ef_tj":0.0}},{"type":"Feature","geometry":{"type":"LineString","coordinates":[[-95.37105,29.56125,620.0],[-95.34042,29.58914,390.0]]},"properties":{"ef_share":0.0,"ef_tj":0.0}}]}