{"type":"FeatureCollection","properties":{"icao24":"aa5bc4","registration":"N767CJ","owner_label":"Drake","combined_co2e_central":44209.6,"fuel_co2_kg":42594.2,"contrail_co2e_central":1615.4,"tier":"high"},"features":[{"type":"Feature","geometry":{"type":"LineString","coordinates":[[-95.24173,29.62984,860.0],[-95.23112,29.69032,1620.0]]},"properties":{"ef_share":0.0,"ef_tj":0.0}},{"type":"Feature","geometry":{"type":"LineString","coordinates":[[-95.23112,29.69032,1620.0],[-95.27033,29.76508,2980.0]]},"properties":{"ef_share":0.0,"ef_tj":0.0}},{"type":"Feature","geometry":{"type":"LineString","coordinates":[[-95.27033,29.76508,2980.0],[-95.29358,29.85118,3820.0]]},"properties":{"ef_share":0.0,"ef_tj":0.0}},{"type":"Feature","geometry":{"type":"LineString","coordinates":[[-95.29358,29.85118,3820.0],[-95.26371,29.9518,4960.0]]},"properties":{"ef_share":0.0,"ef_tj":0.0}},{"type":"Feature","geometry":{"type":"LineString","coordinates":[[-95.26371,29.9518,4960.0],[-95.23187,30.05816,5990.0]]},"properties":{"ef_share":0.0,"ef_tj":0.0}},{"type":"Feature","geometry":{"type":"LineString","coordinates":[[-95.23187,30.05816,5990.0],[-95.19853,30.17104,6840.0]]},"properties":{"ef_share":0.0,"ef_tj":0.0}},{"type":"Feature","geometry":{"type":"LineString","coordinates":[[-95.19853,30.17104,6840.0],[-95.163,30.29074,7580.0]]},"properties":{"ef_share":0.0,"ef_tj":0.0}},{"type":"Feature","geometry":{"type":"LineString","coordinates":[[-95.163,30.29074,7580.0],[-95.12534,30.41694,8300.0]]},"properties":{"ef_share":0.0,"ef_tj":0.0}},{"type":"Feature","geometry":{"type":"LineString","coordinates":[[-95.12534,30.41694,8300.0],[-95.08539,30.54918,8860.0]]},"properties":{"ef_share":0.0,"ef_tj":0.0}},{"type":"Feature","geometry":{"type":"LineString","coordinates":[[-95.08539,30.54918,8860.0],[-95.01735,30.67907,9510.0]]},"properties":{"ef_share":0.0,"ef_tj":0.0}},{"type":"Feature","geometry":{"type":"LineString","coordinates":[[-95.01735,30.67907,9510.0],[-94.93695,30.80366,10220.0]]},"properties":{"ef_share":0.0,"ef_tj":0.0}},{"type":"Feature","geometry":{"type":"LineString","coordinates":[[-94.93695,30.80366,10220.0],[-94.8562,30.9278,10850.0]]},"properties":{"ef_share":0.0,"ef_tj":0.0}},{"type":"Feature","geometry":{"type":"LineString","coordinates":[[-94.8562,30.9278,10850.0],[-94.77608,31.05124,11290.0]]},"properties":{"ef_share":0.0,"ef_tj":0.0}},{"type":"Feature","geometry":{"type":"LineString","coordinates":[[-94.77608,31.05124,11290.0],[-94.69641,31.17398,11280.0]]},"properties":{"ef_share":0.0,"ef_tj":0.0}},{"type":"Feature","geometry":{"type":"LineString","coordinates":[[-94.69641,31.17398,11280.0],[-94.6167,31.29627,11280.0]]},"properties":{"ef_share":0.0,"ef_tj":0.0}},{"type":"Feature","geometry":{"type":"LineString","coordinates":[[-94.6167,31.29627,11280.0],[-94.53691,31.41826,11290.0]]},"properties":{"ef_share":0.0,"ef_tj":0.0}},{"type":"Feature","geometry":{"type":"LineString","coordinates":[[-94.53691,31.41826,11290.0],[-94.45522,31.541,11280.0]]},"properties":{"ef_share":0.0,"ef_tj":0.0}},{"type":"Feature","geometry":{"type":"LineString","coordinates":[[-94.45522,31.541,11280.0],[-94.37017,31.66178,11280.0]]},"properties":{"ef_share":0.0,"ef_tj":0.0}},{"type":"Feature","geometry":{"type":"LineString","coordinates":[[-94.37017,31.66178,11280.0],[-94.28477,31.7834,11280.0]]},"properties":{"ef_share":0.0,"ef_tj":0.0}},{"type":"Feature","geometry":{"type":"LineString","coordinates":[[-94.28477,31.7834,11280.0],[-94.19908,31.9059,11280.0]]},"properties":{"ef_share":0.0,"ef_tj":0.0}},{"type":"Feature","geometry":{"type":"LineString","coordinates":[[-94.19908,31.9059,11280.0],[-94.11237,32.02926,11280.0]]},"properties":{"ef_share":0.0,"ef_tj":0.0}},{"type":"Feature","geometry":{"type":"LineString","coordinates":[[-94.11237,32.02926,11280.0],[-94.02512,32.15299,11280.0]]},"properties":{"ef_share":0.0,"ef_tj":0.0}},{"type":"Feature","geometry":{"type":"LineString","coordinates":[[-94.02512,32.15299,11280.0],[-93.93765,32.27665,11280.0]]},"properties":{"ef_share":0.0,"ef_tj":0.0}},{"type":"Feature","geometry":{"type":"LineString","coordinates":[[-93.93765,32.27665,11280.0],[-93.84982,32.40041,11290.0]]},"properties":{"ef_share":0.0,"ef_tj":0.0}},{"type":"Feature","geometry":{"type":"LineString","coordinates":[[-93.84982,32.40041,11290.0],[-93.76152,32.52458,11330.0]]},"properties":{"ef_share":0.0,"ef_tj":0.0}},{"type":"Feature","geometry":{"type":"LineString","coordinates":[[-93.76152,32.52458,11330.0],[-93.67592,32.64398,11890.0]]},"properties":{"ef_share":0.0,"ef_tj":0.0}},{"type":"Feature","geometry":{"type":"LineString","coordinates":[[-93.67592,32.64398,11890.0],[-93.59492,32.75717,11890.0]]},"properties":{"ef_share":0.0,"ef_tj":0.0}},{"type":"Feature","geometry":{"type":"LineString","coordinates":[[-93.59492,32.75717,11890.0],[-93.51274,32.87128,11890.0]]},"properties":{"ef_share":0.0,"ef_tj":0.0}},{"type":"Feature","geometry":{"type":"LineString","coordinates":[[-93.51274,32.87128,11890.0],[-93.42832,32.98828,11890.0]]},"properties":{"ef_share":0.0,"ef_tj":0.0}},{"type":"Feature","geometry":{"type":"LineString","coordinates":[[-93.42832,32.98828,11890.0],[-93.34124,33.1088,11890.0]]},"properties":{"ef_share":0.0,"ef_tj":0.0}},{"type":"Feature","geometry":{"type":"LineString","coordinates":[[-93.34124,33.1088,11890.0],[-93.2534,33.22993,11890.0]]},"properties":{"ef_share":0.0,"ef_tj":0.0}},{"type":"Feature","geometry":{"type":"LineString","coordinates":[[-93.2534,33.22993,11890.0],[-93.16441,33.35211,11890.0]]},"properties":{"ef_share":0.0,"ef_tj":0.0}},{"type":"Feature","geometry":{"type":"LineString","coordinates":[[-93.16441,33.35211,11890.0],[-93.0759,33.47332,11890.0]]},"properties":{"ef_share":0.0,"ef_tj":0.0}},{"type":"Feature","geometry":{"type":"LineString","coordinates":[[-93.0759,33.47332,11890.0],[-92.98739,33.59429,11890.0]]},"properties":{"ef_share":0.0,"ef_tj":0.0}},{"type":"Feature","geometry":{"type":"LineString","coordinates":[[-92.98739,33.59429,11890.0],[-92.89837,33.7155,11890.0]]},"properties":{"ef_share":0.0,"ef_tj":0.0}},{"type":"Feature","geometry":{"type":"LineString","coordinates":[[-92.89837,33.7155,11890.0],[-92.81024,33.83468,11890.0]]},"properties":{"ef_share":0.0,"ef_tj":0.0}},{"type":"Feature","geometry":{"type":"LineString","coordinates":[[-92.81024,33.83468,11890.0],[-92.72177,33.95385,11890.0]]},"properties":{"ef_share":0.0,"ef_tj":0.0}},{"type":"Feature","geometry":{"type":"LineString","coordinates":[[-92.72177,33.95385,11890.0],[-92.6333,34.07303,11890.0]]},"properties":{"ef_share":0.0,"ef_tj":0.0}},{"type":"Feature","geometry":{"type":"LineString","coordinates":[[-92.6333,34.07303,11890.0],[-92.54483,34.1922,11890.0]]},"properties":{"ef_share":0.0,"ef_tj":0.0}},{"type":"Feature","geometry":{"type":"LineString","coordinates":[[-92.54483,34.1922,11890.0],[-92.45581,34.31122,11890.0]]},"properties":{"ef_share":0.0,"ef_tj":0.0}},{"type":"Feature","geometry":{"type":"LineString","coordinates":[[-92.45581,34.31122,11890.0],[-92.3664,34.43014,11890.0]]},"properties":{"ef_share":0.0,"ef_tj":0.0}},{"type":"Feature","geometry":{"type":"LineString","coordinates":[[-92.3664,34.43014,11890.0],[-92.27698,34.54906,11890.0]]},"properties":{"ef_share":0.0,"ef_tj":0.0}},{"type":"Feature","geometry":{"type":"LineString","coordinates":[[-92.27698,34.54906,11890.0],[-92.18757,34.66798,11890.0]]},"properties":{"ef_share":0.0,"ef_tj":0.0}},{"type":"Feature","geometry":{"type":"LineString","coordinates":[[-92.18757,34.66798,11890.0],[-92.09579,34.78482,11890.0]]},"properties":{"ef_share":0.0,"ef_tj":0.0}},{"type":"Feature","geometry":{"type":"LineString","coordinates":[[-92.09579,34.78482,11890.0],[-92.0026,34.90141,11890.0]]},"properties":{"ef_share":0.0,"ef_tj":0.0}},{"type":"Feature","geometry":{"type":"LineString","coordinates":[[-92.0026,34.90141,11890.0],[-91.91038,35.01706,11890.0]]},"properties":{"ef_share":0.0,"ef_tj":0.0}},{"type":"Feature","geometry":{"type":"LineString","coordinates":[[-91.91038,35.01706,11890.0],[-91.81706,35.13405,11890.0]]},"properties":{"ef_share":0.0,"ef_tj":0.0}},{"type":"Feature","geometry":{"type":"LineString","coordinates":[[-91.81706,35.13405,11890.0],[-91.72362,35.2508,11890.0]]},"properties":{"ef_share":0.0,"ef_tj":0.0}},{"type":"Feature","geometry":{"type":"LineString","coordinates":[[-91.72362,35.2508,11890.0],[-91.62991,35.36728,11890.0]]},"properties":{"ef_share":0.0,"ef_tj":0.0}},{"type":"Feature","geometry":{"type":"LineString","coordinates":[[-91.62991,35.36728,11890.0],[-91.53606,35.48342,11890.0]]},"properties":{"ef_share":0.0,"ef_tj":0.0}},{"type":"Feature","geometry":{"type":"LineString","coordinates":[[-91.53606,35.48342,11890.0],[-91.44197,35.59939,11890.0]]},"properties":{"ef_share":0.0,"ef_tj":0.0}},{"type":"Feature","geometry":{"type":"LineString","coordinates":[[-91.44197,35.59939,11890.0],[-91.34736,35.71553,11890.0]]},"properties":{"ef_share":0.0,"ef_tj":0.0}},{"type":"Feature","geometry":{"type":"LineString","coordinates":[[-91.34736,35.71553,11890.0],[-91.25274,35.83145,11890.0]]},"properties":{"ef_share":0.0,"ef_tj":0.0}},{"type":"Feature","geometry":{"type":"LineString","coordinates":[[-91.25274,35.83145,11890.0],[-91.15772,35.94746,11890.0]]},"properties":{"ef_share":0.0,"ef_tj":0.0}},{"type":"Feature","geometry":{"type":"LineString","coordinates":[[-91.15772,35.94746,11890.0],[-91.06288,36.06279,11890.0]]},"properties":{"ef_share":0.0,"ef_tj":0.0}},{"type":"Feature","geometry":{"type":"LineString","coordinates":[[-91.06288,36.06279,11890.0],[-90.96753,36.17829,11890.0]]},"properties":{"ef_share":0.0,"ef_tj":0.0}},{"type":"Feature","geometry":{"type":"LineString","coordinates":[[-90.96753,36.17829,11890.0],[-90.87186,36.29374,11890.0]]},"properties":{"ef_share":0.0,"ef_tj":0.0}},{"type":"Feature","geometry":{"type":"LineString","coordinates":[[-90.87186,36.29374,11890.0],[-90.77582,36.40929,11890.0]]},"properties":{"ef_share":0.0,"ef_tj":0.0}},{"type":"Feature","geometry":{"type":"LineString","coordinates":[[-90.77582,36.40929,11890.0],[-90.67968,36.52446,11890.0]]},"properties":{"ef_share":0.0,"ef_tj":0.0}},{"type":"Feature","geometry":{"type":"LineString","coordinates":[[-90.67968,36.52446,11890.0],[-90.58339,36.63956,11890.0]]},"properties":{"ef_share":0.0,"ef_tj":0.0}},{"type":"Feature","geometry":{"type":"LineString","coordinates":[[-90.58339,36.63956,11890.0],[-90.48644,36.75473,11890.0]]},"properties":{"ef_share":0.0,"ef_tj":0.0}},{"type":"Feature","geometry":{"type":"LineString","coordinates":[[-90.48644,36.75473,11890.0],[-90.38955,36.86965,11890.0]]},"properties":{"ef_share":0.0,"ef_tj":0.0}},{"type":"Feature","geometry":{"type":"LineString","coordinates":[[-90.38955,36.86965,11890.0],[-90.29234,36.98446,11890.0]]},"properties":{"ef_share":0.0,"ef_tj":0.0}},{"type":"Feature","geometry":{"type":"LineString","coordinates":[[-90.29234,36.98446,11890.0],[-90.19425,37.09977,11890.0]]},"properties":{"ef_share":0.0,"ef_tj":0.0}},{"type":"Feature","geometry":{"type":"LineString","coordinates":[[-90.19425,37.09977,11890.0],[-90.09627,37.2146,11890.0]]},"properties":{"ef_share":0.0,"ef_tj":0.0}},{"type":"Feature","geometry":{"type":"LineString","coordinates":[[-90.09627,37.2146,11890.0],[-89.99764,37.32989,11890.0]]},"properties":{"ef_share":0.0,"ef_tj":0.0}},{"type":"Feature","geometry":{"type":"LineString","coordinates":[[-89.99764,37.32989,11890.0],[-89.8985,37.44515,11890.0]]},"properties":{"ef_share":0.0,"ef_tj":0.0}},{"type":"Feature","geometry":{"type":"LineString","coordinates":[[-89.8985,37.44515,11890.0],[-89.79919,37.56025,11890.0]]},"properties":{"ef_share":0.0,"ef_tj":0.0}},{"type":"Feature","geometry":{"type":"LineString","coordinates":[[-89.79919,37.56025,11890.0],[-89.69928,37.67556,11890.0]]},"properties":{"ef_share":0.0,"ef_tj":0.0}},{"type":"Feature","geometry":{"type":"LineString","coordinates":[[-89.69928,37.67556,11890.0],[-89.59887,37.79097,11890.0]]},"properties":{"ef_share":0.0,"ef_tj":0.0}},{"type":"Feature","geometry":{"type":"LineString","coordinates":[[-89.59887,37.79097,11890.0],[-89.49804,37.90648,11890.0]]},"properties":{"ef_share":0.0,"ef_tj":0.0}},{"type":"Feature","geometry":{"type":"LineString","coordinates":[[-89.49804,37.90648,11890.0],[-89.39636,38.02256,11890.0]]},"properties":{"ef_share":0.0,"ef_tj":0.0}},{"type":"Feature","geometry":{"type":"LineString","coordinates":[[-89.39636,38.02256,11890.0],[-89.29435,38.13846,11890.0]]},"properties":{"ef_share":0.0,"ef_tj":0.0}},{"type":"Feature","geometry":{"type":"LineString","coordinates":[[-89.29435,38.13846,11890.0],[-89.19165,38.25478,11890.0]]},"properties":{"ef_share":0.0,"ef_tj":0.0}},{"type":"Feature","geometry":{"type":"LineString","coordinates":[[-89.19165,38.25478,11890.0],[-89.08857,38.37089,11890.0]]},"properties":{"ef_share":0.0,"ef_tj":0.0}},{"type":"Feature","geometry":{"type":"LineString","coordinates":[[-89.08857,38.37089,11890.0],[-88.98499,38.48724,11890.0]]},"properties":{"ef_share":0.0,"ef_tj":0.0}},{"type":"Feature","geometry":{"type":"LineString","coordinates":[[-88.98499,38.48724,11890.0],[-88.88105,38.60355,11890.0]]},"properties":{"ef_share":0.0,"ef_tj":0.0}},{"type":"Feature","geometry":{"type":"LineString","coordinates":[[-88.88105,38.60355,11890.0],[-88.77649,38.71999,11890.0]]},"properties":{"ef_share":0.0,"ef_tj":0.0}},{"type":"Feature","geometry":{"type":"LineString","coordinates":[[-88.77649,38.71999,11890.0],[-88.67138,38.83657,11890.0]]},"properties":{"ef_share":0.0,"ef_tj":0.0}},{"type":"Feature","geometry":{"type":"LineString","coordinates":[[-88.67138,38.83657,11890.0],[-88.56561,38.95364,11890.0]]},"properties":{"ef_share":0.0,"ef_tj":0.0}},{"type":"Feature","geometry":{"type":"LineString","coordinates":[[-88.56561,38.95364,11890.0],[-88.4592,39.07054,11890.0]]},"properties":{"ef_share":0.0,"ef_tj":0.0}},{"type":"Feature","geometry":{"type":"LineString","coordinates":[[-88.4592,39.07054,11890.0],[-88.35288,39.18702,11890.0]]},"properties":{"ef_share":0.0,"ef_tj":0.0}},{"type":"Feature","geometry":{"type":"LineString","coordinates":[[-88.35288,39.18702,11890.0],[-88.24707,39.30253,11890.0]]},"properties":{"ef_share":0.0,"ef_tj":0.0}},{"type":"Feature","geometry":{"type":"LineString","coordinates":[[-88.24707,39.30253,11890.0],[-88.14111,39.41779,11890.0]]},"properties":{"ef_share":0.0,"ef_tj":0.0}},{"type":"Feature","geometry":{"type":"LineString","coordinates":[[-88.14111,39.41779,11890.0],[-88.03533,39.53232,11890.0]]},"properties":{"ef_share":0.0,"ef_tj":0.0}},{"type":"Feature","geometry":{"type":"LineString","coordinates":[[-88.03533,39.53232,11890.0],[-87.92976,39.64603,11890.0]]},"properties":{"ef_share":0.0,"ef_tj":0.0}},{"type":"Feature","geometry":{"type":"LineString","coordinates":[[-87.92976,39.64603,11890.0],[-87.82437,39.75912,11890.0]]},"properties":{"ef_share":0.0,"ef_tj":0.0}},{"type":"Feature","geometry":{"type":"LineString","coordinates":[[-87.82437,39.75912,11890.0],[-87.7194,39.87149,11890.0]]},"properties":{"ef_share":0.0,"ef_tj":0.0}},{"type":"Feature","geometry":{"type":"LineString","coordinates":[[-87.7194,39.87149,11890.0],[-87.61409,39.98344,11890.0]]},"properties":{"ef_share":0.0,"ef_tj":0.0}},{"type":"Feature","geometry":{"type":"LineString","coordinates":[[-87.61409,39.98344,11890.0],[-87.50861,40.09533,11890.0]]},"properties":{"ef_share":0.0,"ef_tj":0.000239}},{"type":"Feature","geometry":{"type":"LineString","coordinates":[[-87.50861,40.09533,11890.0],[-87.40297,40.20676,11890.0]]},"properties":{"ef_share":0.0,"ef_tj":0.0}},{"type":"Feature","geometry":{"type":"LineString","coordinates":[[-87.40297,40.20676,11890.0],[-87.29781,40.31743,11890.0]]},"properties":{"ef_share":0.0,"ef_tj":0.0}},{"type":"Feature","geometry":{"type":"LineString","coordinates":[[-87.29781,40.31743,11890.0],[-87.19233,40.42781,11890.0]]},"properties":{"ef_share":0.0,"ef_tj":0.0}},{"type":"Feature","geometry":{"type":"LineString","coordinates":[[-87.19233,40.42781,11890.0],[-87.08644,40.53691,11890.0]]},"properties":{"ef_share":0.0,"ef_tj":0.0}},{"type":"Feature","geometry":{"type":"LineString","coordinates":[[-87.08644,40.53691,11890.0],[-86.96421,40.63552,11890.0]]},"properties":{"ef_share":0.0,"ef_tj":0.0}},{"type":"Feature","geometry":{"type":"LineString","coordinates":[[-86.96421,40.63552,11890.0],[-86.8369,40.73061,11890.0]]},"properties":{"ef_share":0.0,"ef_tj":0.0}},{"type":"Feature","geometry":{"type":"LineString","coordinates":[[-86.8369,40.73061,11890.0],[-86.70956,40.82533,11890.0]]},"properties":{"ef_share":0.0,"ef_tj":0.0}},{"type":"Feature","geometry":{"type":"LineString","coordinates":[[-86.70956,40.82533,11890.0],[-86.58212,40.91989,11890.0]]},"properties":{"ef_share":0.0,"ef_tj":0.0}},{"type":"Feature","geometry":{"type":"LineString","coordinates":[[-86.58212,40.91989,11890.0],[-86.45477,41.01395,11890.0]]},"properties":{"ef_share":0.0,"ef_tj":0.0}},{"type":"Feature","geometry":{"type":"LineString","coordinates":[[-86.45477,41.01395,11890.0],[-86.32779,41.1074,11890.0]]},"properties":{"ef_share":0.0,"ef_tj":0.0}},{"type":"Feature","geometry":{"type":"LineString","coordinates":[[-86.32779,41.1074,11890.0],[-86.20112,41.20028,11890.0]]},"properties":{"ef_share":0.0,"ef_tj":0.0}},{"type":"Feature","geometry":{"type":"LineString","coordinates":[[-86.20112,41.20028,11890.0],[-86.07449,41.2927,11890.0]]},"properties":{"ef_share":0.0,"ef_tj":0.0}},{"type":"Feature","geometry":{"type":"LineString","coordinates":[[-86.07449,41.2927,11890.0],[-85.94772,41.38466,11890.0]]},"properties":{"ef_share":0.0,"ef_tj":0.0}},{"type":"Feature","geometry":{"type":"LineString","coordinates":[[-85.94772,41.38466,11890.0],[-85.82086,41.47645,11890.0]]},"properties":{"ef_share":0.0,"ef_tj":0.0}},{"type":"Feature","geometry":{"type":"LineString","coordinates":[[-85.82086,41.47645,11890.0],[-85.69349,41.56818,11890.0]]},"properties":{"ef_share":0.0,"ef_tj":0.0}},{"type":"Feature","geometry":{"type":"LineString","coordinates":[[-85.69349,41.56818,11890.0],[-85.56601,41.65956,11890.0]]},"properties":{"ef_share":0.0,"ef_tj":0.0}},{"type":"Feature","geometry":{"type":"LineString","coordinates":[[-85.56601,41.65956,11890.0],[-85.43755,41.75119,11890.0]]},"properties":{"ef_share":0.0,"ef_tj":0.0}},{"type":"Feature","geometry":{"type":"LineString","coordinates":[[-85.43755,41.75119,11890.0],[-85.3088,41.84274,11890.0]]},"properties":{"ef_share":0.0,"ef_tj":0.0}},{"type":"Feature","geometry":{"type":"LineString","coordinates":[[-85.3088,41.84274,11890.0],[-85.17977,41.93399,11890.0]]},"properties":{"ef_share":0.002,"ef_tj":0.002919}},{"type":"Feature","geometry":{"type":"LineString","coordinates":[[-85.17977,41.93399,11890.0],[-85.04976,42.02555,11890.0]]},"properties":{"ef_share":0.088,"ef_tj":0.105485}},{"type":"Feature","geometry":{"type":"LineString","coordinates":[[-85.04976,42.02555,11890.0],[-84.9187,42.11742,11890.0]]},"properties":{"ef_share":0.339,"ef_tj":0.407929}},{"type":"Feature","geometry":{"type":"LineString","coordinates":[[-84.9187,42.11742,11890.0],[-84.7872,42.20922,11890.0]]},"properties":{"ef_share":0.411,"ef_tj":0.493793}},{"type":"Feature","geometry":{"type":"LineString","coordinates":[[-84.7872,42.20922,11890.0],[-84.65464,42.30128,11890.0]]},"properties":{"ef_share":0.745,"ef_tj":0.895019}},{"type":"Feature","geometry":{"type":"LineString","coordinates":[[-84.65464,42.30128,11890.0],[-84.52113,42.39362,11890.0]]},"properties":{"ef_share":1.0,"ef_tj":1.201747}},{"type":"Feature","geometry":{"type":"LineString","coordinates":[[-84.52113,42.39362,11890.0],[-84.38732,42.48571,11890.0]]},"properties":{"ef_share":0.709,"ef_tj":0.852441}},{"type":"Feature","geometry":{"type":"LineString","coordinates":[[-84.38732,42.48571,11890.0],[-84.24514,42.57112,11890.0]]},"properties":{"ef_share":0.624,"ef_tj":0.74977}},{"type":"Feature","geometry":{"type":"LineString","coordinates":[[-84.24514,42.57112,11890.0],[-84.06482,42.61002,11890.0]]},"properties":{"ef_share":0.35,"ef_tj":0.420031}},{"type":"Feature","geometry":{"type":"LineString","coordinates":[[-84.06482,42.61002,11890.0],[-83.87968,42.63794,11890.0]]},"properties":{"ef_share":0.261,"ef_tj":0.313154}},{"type":"Feature","geometry":{"type":"LineString","coordinates":[[-83.87968,42.63794,11890.0],[-83.69424,42.66519,11890.0]]},"properties":{"ef_share":0.084,"ef_tj":0.10116}},{"type":"Feature","geometry":{"type":"LineString","coordinates":[[-83.69424,42.66519,11890.0],[-83.51051,42.69179,11820.0]]},"properties":{"ef_share":0.056,"ef_tj":0.066851}},{"type":"Feature","geometry":{"type":"LineString","coordinates":[[-83.51051,42.69179,11820.0],[-83.32958,42.71778,11500.0]]},"properties":{"ef_share":0.056,"ef_tj":0.066952}},{"type":"Feature","geometry":{"type":"LineString","coordinates":[[-83.32958,42.71778,11500.0],[-83.1485,42.7436,11140.0]]},"properties":{"ef_share":0.0,"ef_tj":0.0}},{"type":"Feature","geometry":{"type":"LineString","coordinates":[[-83.1485,42.7436,11140.0],[-82.9725,42.76827,10780.0]]},"properties":{"ef_share":0.0,"ef_tj":0.0}},{"type":"Feature","geometry":{"type":"LineString","coordinates":[[-82.9725,42.76827,10780.0],[-82.80063,42.79203,10410.0]]},"properties":{"ef_share":0.0,"ef_tj":0.0}},{"type":"Feature","geometry":{"type":"LineString","coordinates":[[-82.80063,42.79203,10410.0],[-82.6344,42.81482,10050.0]]},"properties":{"ef_share":0.0,"ef_tj":0.0}},{"type":"Feature","geometry":{"type":"LineString","coordinates":[[-82.6344,42.81482,10050.0],[-82.46967,42.83718,9600.0]]},"properties":{"ef_share":0.0,"ef_tj":0.0}},{"type":"Feature","geometry":{"type":"LineString","coordinates":[[-82.46967,42.83718,9600.0],[-82.31164,42.85828,9150.0]]},"properties":{"ef_share":0.0,"ef_tj":0.0}},{"type":"Feature","geometry":{"type":"LineString","coordinates":[[-82.31164,42.85828,9150.0],[-82.1591,42.87863,8690.0]]},"properties":{"ef_share":0.0,"ef_tj":0.0}},{"type":"Feature","geometry":{"type":"LineString","coordinates":[[-82.1591,42.87863,8690.0],[-82.01155,42.90206,8240.0]]},"properties":{"ef_share":0.0,"ef_tj":0.0}},{"type":"Feature","geometry":{"type":"LineString","coordinates":[[-82.01155,42.90206,8240.0],[-81.86701,42.9283,7790.0]]},"properties":{"ef_share":0.0,"ef_tj":0.0}},{"type":"Feature","geometry":{"type":"LineString","coordinates":[[-81.86701,42.9283,7790.0],[-81.72429,42.95457,7330.0]]},"properties":{"ef_share":0.0,"ef_tj":0.0}},{"type":"Feature","geometry":{"type":"LineString","coordinates":[[-81.72429,42.95457,7330.0],[-81.58294,42.97991,6680.0]]},"properties":{"ef_share":0.0,"ef_tj":0.0}},{"type":"Feature","geometry":{"type":"LineString","coordinates":[[-81.58294,42.97991,6680.0],[-81.43755,43.00566,6150.0]]},"properties":{"ef_share":0.0,"ef_tj":0.0}},{"type":"Feature","geometry":{"type":"LineString","coordinates":[[-81.43755,43.00566,6150.0],[-81.29578,43.0305,5610.0]]},"properties":{"ef_share":0.0,"ef_tj":0.0}},{"type":"Feature","geometry":{"type":"LineString","coordinates":[[-81.29578,43.0305,5610.0],[-81.159,43.05442,5100.0]]},"properties":{"ef_share":0.0,"ef_tj":0.0}},{"type":"Feature","geometry":{"type":"LineString","coordinates":[[-81.159,43.05442,5100.0],[-81.02037,43.07839,4330.0]]},"properties":{"ef_share":0.0,"ef_tj":0.0}},{"type":"Feature","geometry":{"type":"LineString","coordinates":[[-81.02037,43.07839,4330.0],[-80.88237,43.10224,3760.0]]},"properties":{"ef_share":0.0,"ef_tj":0.0}},{"type":"Feature","geometry":{"type":"LineString","coordinates":[[-80.88237,43.10224,3760.0],[-80.7529,43.12434,3150.0]]},"properties":{"ef_share":0.0,"ef_tj":0.0}},{"type":"Feature","geometry":{"type":"LineString","coordinates":[[-80.7529,43.12434,3150.0],[-80.63757,43.14383,2560.0]]},"properties":{"ef_share":0.0,"ef_tj":0.0}},{"type":"Feature","geometry":{"type":"LineString","coordinates":[[-80.63757,43.14383,2560.0],[-80.52633,43.16258,1900.0]]},"properties":{"ef_share":0.0,"ef_tj":0.0}},{"type":"Feature","geometry":{"type":"LineString","coordinates":[[-80.52633,43.16258,1900.0],[-80.4231,43.17984,1560.0]]},"properties":{"ef_share":0.0,"ef_tj":0.0}},{"type":"Feature","geometry":{"type":"LineString","coordinates":[[-80.4231,43.17984,1560.0],[-80.32765,43.19579,1310.0]]},"properties":{"ef_share":0.0,"ef_tj":0.0}},{"type":"Feature","geometry":{"type":"LineString","coordinates":[[-80.32765,43.19579,1310.0],[-80.23874,43.21044,950.0]]},"properties":{"ef_share":0.0,"ef_tj":0.0}},{"type":"Feature","geometry":{"type":"LineString","coordinates":[[-80.23874,43.21044,950.0],[-80.15687,43.22352,880.0]]},"properties":{"ef_share":0.0,"ef_tj":0.0}},{"type":"Feature","geometry":{"type":"LineString","coordinates":[[-80.15687,43.22352,880.0],[-80.08467,43.21038,790.0]]},"properties":{"ef_share":0.0,"ef_tj":0.0}},{"type":"Feature","geometry":{"type":"LineString","coordinates":[[-80.08467,43.21038,790.0],[-80.02646,43.19722,550.0]]},"properties":{"ef_share":0.0,"ef_tj":0.0}},{"type":"Feature","geometry":{"type":"LineString","coordinates":[[-80.02646,43.19722,550.0],[-79.97193,43.18492,310.0]]},"properties":{"ef_share":0.0,"ef_tj":0.0}}]}