{"type":"FeatureCollection","properties":{"icao24":"ac39d6","registration":"N887WM","owner_label":"Bill Gates","combined_co2e_central":22738.1,"fuel_co2_kg":17180.6,"contrail_co2e_central":5557.5,"tier":"medium"},"features":[{"type":"Feature","geometry":{"type":"LineString","coordinates":[[-115.15665,36.09316,690.0],[-115.10736,36.13233,1760.0]]},"properties":{"ef_share":0.0,"ef_tj":0.0}},{"type":"Feature","geometry":{"type":"LineString","coordinates":[[-115.10736,36.13233,1760.0],[-115.01216,36.13901,2750.0]]},"properties":{"ef_share":0.0,"ef_tj":0.0}},{"type":"Feature","geometry":{"type":"LineString","coordinates":[[-115.01216,36.13901,2750.0],[-114.90604,36.15007,3890.0]]},"properties":{"ef_share":0.0,"ef_tj":0.0}},{"type":"Feature","geometry":{"type":"LineString","coordinates":[[-114.90604,36.15007,3890.0],[-114.79129,36.16024,4880.0]]},"properties":{"ef_share":0.0,"ef_tj":0.0}},{"type":"Feature","geometry":{"type":"LineString","coordinates":[[-114.79129,36.16024,4880.0],[-114.668,36.17102,5740.0]]},"properties":{"ef_share":0.0,"ef_tj":0.0}},{"type":"Feature","geometry":{"type":"LineString","coordinates":[[-114.668,36.17102,5740.0],[-114.52727,36.17889,6160.0]]},"properties":{"ef_share":0.0,"ef_tj":0.0}},{"type":"Feature","geometry":{"type":"LineString","coordinates":[[-114.52727,36.17889,6160.0],[-114.37381,36.18695,6980.0]]},"properties":{"ef_share":0.0,"ef_tj":0.0}},{"type":"Feature","geometry":{"type":"LineString","coordinates":[[-114.37381,36.18695,6980.0],[-114.2123,36.1979,7660.0]]},"properties":{"ef_share":0.0,"ef_tj":0.0}},{"type":"Feature","geometry":{"type":"LineString","coordinates":[[-114.2123,36.1979,7660.0],[-114.04419,36.21756,8360.0]]},"properties":{"ef_share":0.0,"ef_tj":0.0}},{"type":"Feature","geometry":{"type":"LineString","coordinates":[[-114.04419,36.21756,8360.0],[-113.87341,36.2378,9070.0]]},"properties":{"ef_share":0.0,"ef_tj":0.0}},{"type":"Feature","geometry":{"type":"LineString","coordinates":[[-113.87341,36.2378,9070.0],[-113.69666,36.25841,9650.0]]},"properties":{"ef_share":0.0,"ef_tj":0.0}},{"type":"Feature","geometry":{"type":"LineString","coordinates":[[-113.69666,36.25841,9650.0],[-113.51555,36.27919,10140.0]]},"properties":{"ef_share":0.685,"ef_tj":7.515046}},{"type":"Feature","geometry":{"type":"LineString","coordinates":[[-113.51555,36.27919,10140.0],[-113.32992,36.30028,10600.0]]},"properties":{"ef_share":0.004,"ef_tj":0.038495}},{"type":"Feature","geometry":{"type":"LineString","coordinates":[[-113.32992,36.30028,10600.0],[-113.1454,36.33997,11060.0]]},"properties":{"ef_share":0.0,"ef_tj":0.0}},{"type":"Feature","geometry":{"type":"LineString","coordinates":[[-113.1454,36.33997,11060.0],[-112.96707,36.40282,11470.0]]},"properties":{"ef_share":0.0,"ef_tj":0.0}},{"type":"Feature","geometry":{"type":"LineString","coordinates":[[-112.96707,36.40282,11470.0],[-112.78742,36.46569,11890.0]]},"properties":{"ef_share":0.0,"ef_tj":0.0}},{"type":"Feature","geometry":{"type":"LineString","coordinates":[[-112.78742,36.46569,11890.0],[-112.60956,36.52754,12330.0]]},"properties":{"ef_share":0.0,"ef_tj":0.0}},{"type":"Feature","geometry":{"type":"LineString","coordinates":[[-112.60956,36.52754,12330.0],[-112.42957,36.58976,12500.0]]},"properties":{"ef_share":0.0,"ef_tj":0.0}},{"type":"Feature","geometry":{"type":"LineString","coordinates":[[-112.42957,36.58976,12500.0],[-112.24499,36.65316,12500.0]]},"properties":{"ef_share":0.0,"ef_tj":0.0}},{"type":"Feature","geometry":{"type":"LineString","coordinates":[[-112.24499,36.65316,12500.0],[-112.06054,36.71616,12500.0]]},"properties":{"ef_share":0.0,"ef_tj":0.0}},{"type":"Feature","geometry":{"type":"LineString","coordinates":[[-112.06054,36.71616,12500.0],[-111.87474,36.77919,12500.0]]},"properties":{"ef_share":0.0,"ef_tj":0.0}},{"type":"Feature","geometry":{"type":"LineString","coordinates":[[-111.87474,36.77919,12500.0],[-111.68775,36.84131,12500.0]]},"properties":{"ef_share":0.0,"ef_tj":0.0}},{"type":"Feature","geometry":{"type":"LineString","coordinates":[[-111.68775,36.84131,12500.0],[-111.49554,36.89051,12500.0]]},"properties":{"ef_share":0.0,"ef_tj":0.0}},{"type":"Feature","geometry":{"type":"LineString","coordinates":[[-111.49554,36.89051,12500.0],[-111.30169,36.9353,12500.0]]},"properties":{"ef_share":0.0,"ef_tj":0.0}},{"type":"Feature","geometry":{"type":"LineString","coordinates":[[-111.30169,36.9353,12500.0],[-111.10633,36.98023,12500.0]]},"properties":{"ef_share":0.0,"ef_tj":0.0}},{"type":"Feature","geometry":{"type":"LineString","coordinates":[[-111.10633,36.98023,12500.0],[-110.91127,37.02468,12500.0]]},"properties":{"ef_share":0.0,"ef_tj":0.0}},{"type":"Feature","geometry":{"type":"LineString","coordinates":[[-110.91127,37.02468,12500.0],[-110.71661,37.06871,12500.0]]},"properties":{"ef_share":0.0,"ef_tj":0.0}},{"type":"Feature","geometry":{"type":"LineString","coordinates":[[-110.71661,37.06871,12500.0],[-110.52177,37.11205,12500.0]]},"properties":{"ef_share":0.0,"ef_tj":0.0}},{"type":"Feature","geometry":{"type":"LineString","coordinates":[[-110.52177,37.11205,12500.0],[-110.3262,37.15515,12500.0]]},"properties":{"ef_share":0.0,"ef_tj":0.0}},{"type":"Feature","geometry":{"type":"LineString","coordinates":[[-110.3262,37.15515,12500.0],[-110.13064,37.19825,12500.0]]},"properties":{"ef_share":0.0,"ef_tj":0.0}},{"type":"Feature","geometry":{"type":"LineString","coordinates":[[-110.13064,37.19825,12500.0],[-109.93508,37.24134,12500.0]]},"properties":{"ef_share":0.0,"ef_tj":0.0}},{"type":"Feature","geometry":{"type":"LineString","coordinates":[[-109.93508,37.24134,12500.0],[-109.73883,37.28412,12500.0]]},"properties":{"ef_share":0.0,"ef_tj":0.0}},{"type":"Feature","geometry":{"type":"LineString","coordinates":[[-109.73883,37.28412,12500.0],[-109.54228,37.3263,12500.0]]},"properties":{"ef_share":0.0,"ef_tj":0.0}},{"type":"Feature","geometry":{"type":"LineString","coordinates":[[-109.54228,37.3263,12500.0],[-109.3461,37.36805,12500.0]]},"properties":{"ef_share":0.0,"ef_tj":0.0}},{"type":"Feature","geometry":{"type":"LineString","coordinates":[[-109.3461,37.36805,12500.0],[-109.14857,37.40969,12500.0]]},"properties":{"ef_share":0.0,"ef_tj":0.0}},{"type":"Feature","geometry":{"type":"LineString","coordinates":[[-109.14857,37.40969,12500.0],[-108.95088,37.45102,12500.0]]},"properties":{"ef_share":0.0,"ef_tj":0.0}},{"type":"Feature","geometry":{"type":"LineString","coordinates":[[-108.95088,37.45102,12500.0],[-108.75264,37.49202,12500.0]]},"properties":{"ef_share":0.0,"ef_tj":0.0}},{"type":"Feature","geometry":{"type":"LineString","coordinates":[[-108.75264,37.49202,12500.0],[-108.55392,37.53281,12500.0]]},"properties":{"ef_share":0.0,"ef_tj":0.0}},{"type":"Feature","geometry":{"type":"LineString","coordinates":[[-108.55392,37.53281,12500.0],[-108.35521,37.57321,12500.0]]},"properties":{"ef_share":0.0,"ef_tj":0.0}},{"type":"Feature","geometry":{"type":"LineString","coordinates":[[-108.35521,37.57321,12500.0],[-108.15688,37.6131,12500.0]]},"properties":{"ef_share":0.0,"ef_tj":0.0}},{"type":"Feature","geometry":{"type":"LineString","coordinates":[[-108.15688,37.6131,12500.0],[-107.95789,37.65278,12500.0]]},"properties":{"ef_share":0.0,"ef_tj":0.0}},{"type":"Feature","geometry":{"type":"LineString","coordinates":[[-107.95789,37.65278,12500.0],[-107.75842,37.69218,12500.0]]},"properties":{"ef_share":0.0,"ef_tj":0.0}},{"type":"Feature","geometry":{"type":"LineString","coordinates":[[-107.75842,37.69218,12500.0],[-107.55837,37.73133,12500.0]]},"properties":{"ef_share":0.0,"ef_tj":0.0}},{"type":"Feature","geometry":{"type":"LineString","coordinates":[[-107.55837,37.73133,12500.0],[-107.35911,37.76989,12500.0]]},"properties":{"ef_share":0.0,"ef_tj":0.0}},{"type":"Feature","geometry":{"type":"LineString","coordinates":[[-107.35911,37.76989,12500.0],[-107.15977,37.80812,12500.0]]},"properties":{"ef_share":0.0,"ef_tj":0.0}},{"type":"Feature","geometry":{"type":"LineString","coordinates":[[-107.15977,37.80812,12500.0],[-106.961,37.84589,12500.0]]},"properties":{"ef_share":0.0,"ef_tj":0.0}},{"type":"Feature","geometry":{"type":"LineString","coordinates":[[-106.961,37.84589,12500.0],[-106.76189,37.88333,12500.0]]},"properties":{"ef_share":0.0,"ef_tj":0.0}},{"type":"Feature","geometry":{"type":"LineString","coordinates":[[-106.76189,37.88333,12500.0],[-106.56219,37.92051,12500.0]]},"properties":{"ef_share":0.0,"ef_tj":0.0}},{"type":"Feature","geometry":{"type":"LineString","coordinates":[[-106.56219,37.92051,12500.0],[-106.36173,37.95747,12500.0]]},"properties":{"ef_share":0.0,"ef_tj":0.0}},{"type":"Feature","geometry":{"type":"LineString","coordinates":[[-106.36173,37.95747,12500.0],[-106.16183,37.99393,12500.0]]},"properties":{"ef_share":0.0,"ef_tj":0.0}},{"type":"Feature","geometry":{"type":"LineString","coordinates":[[-106.16183,37.99393,12500.0],[-105.9613,38.03011,12500.0]]},"properties":{"ef_share":0.0,"ef_tj":0.0}},{"type":"Feature","geometry":{"type":"LineString","coordinates":[[-105.9613,38.03011,12500.0],[-105.76075,38.06593,12500.0]]},"properties":{"ef_share":0.0,"ef_tj":0.0}},{"type":"Feature","geometry":{"type":"LineString","coordinates":[[-105.76075,38.06593,12500.0],[-105.56169,38.1011,12500.0]]},"properties":{"ef_share":0.0,"ef_tj":0.0}},{"type":"Feature","geometry":{"type":"LineString","coordinates":[[-105.56169,38.1011,12500.0],[-105.36259,38.13594,12500.0]]},"properties":{"ef_share":0.0,"ef_tj":0.0}},{"type":"Feature","geometry":{"type":"LineString","coordinates":[[-105.36259,38.13594,12500.0],[-105.16145,38.17072,12500.0]]},"properties":{"ef_share":0.0,"ef_tj":0.0}},{"type":"Feature","geometry":{"type":"LineString","coordinates":[[-105.16145,38.17072,12500.0],[-104.9609,38.20499,12500.0]]},"properties":{"ef_share":0.0,"ef_tj":0.0}},{"type":"Feature","geometry":{"type":"LineString","coordinates":[[-104.9609,38.20499,12500.0],[-104.75958,38.23912,12500.0]]},"properties":{"ef_share":0.0,"ef_tj":0.0}},{"type":"Feature","geometry":{"type":"LineString","coordinates":[[-104.75958,38.23912,12500.0],[-104.55726,38.27293,12500.0]]},"properties":{"ef_share":0.0,"ef_tj":0.0}},{"type":"Feature","geometry":{"type":"LineString","coordinates":[[-104.55726,38.27293,12500.0],[-104.35254,38.28979,12500.0]]},"properties":{"ef_share":0.0,"ef_tj":0.0}},{"type":"Feature","geometry":{"type":"LineString","coordinates":[[-104.35254,38.28979,12500.0],[-104.14369,38.27939,12500.0]]},"properties":{"ef_share":0.0,"ef_tj":0.0}},{"type":"Feature","geometry":{"type":"LineString","coordinates":[[-104.14369,38.27939,12500.0],[-103.93563,38.26812,12500.0]]},"properties":{"ef_share":0.0,"ef_tj":0.0}},{"type":"Feature","geometry":{"type":"LineString","coordinates":[[-103.93563,38.26812,12500.0],[-103.72783,38.25658,12500.0]]},"properties":{"ef_share":0.0,"ef_tj":0.0}},{"type":"Feature","geometry":{"type":"LineString","coordinates":[[-103.72783,38.25658,12500.0],[-103.52157,38.24471,12500.0]]},"properties":{"ef_share":0.0,"ef_tj":0.0}},{"type":"Feature","geometry":{"type":"LineString","coordinates":[[-103.52157,38.24471,12500.0],[-103.31495,38.23247,12500.0]]},"properties":{"ef_share":0.0,"ef_tj":0.0}},{"type":"Feature","geometry":{"type":"LineString","coordinates":[[-103.31495,38.23247,12500.0],[-103.1086,38.21986,12500.0]]},"properties":{"ef_share":0.0,"ef_tj":0.0}},{"type":"Feature","geometry":{"type":"LineString","coordinates":[[-103.1086,38.21986,12500.0],[-102.90256,38.20696,12500.0]]},"properties":{"ef_share":0.0,"ef_tj":0.0}},{"type":"Feature","geometry":{"type":"LineString","coordinates":[[-102.90256,38.20696,12500.0],[-102.69582,38.19358,12500.0]]},"properties":{"ef_share":0.0,"ef_tj":0.0}},{"type":"Feature","geometry":{"type":"LineString","coordinates":[[-102.69582,38.19358,12500.0],[-102.49002,38.17991,12500.0]]},"properties":{"ef_share":0.0,"ef_tj":0.0}},{"type":"Feature","geometry":{"type":"LineString","coordinates":[[-102.49002,38.17991,12500.0],[-102.2842,38.16587,12500.0]]},"properties":{"ef_share":0.0,"ef_tj":0.0}},{"type":"Feature","geometry":{"type":"LineString","coordinates":[[-102.2842,38.16587,12500.0],[-102.07973,38.15157,12500.0]]},"properties":{"ef_share":0.0,"ef_tj":0.0}},{"type":"Feature","geometry":{"type":"LineString","coordinates":[[-102.07973,38.15157,12500.0],[-101.87516,38.13688,12500.0]]},"properties":{"ef_share":0.0,"ef_tj":0.0}},{"type":"Feature","geometry":{"type":"LineString","coordinates":[[-101.87516,38.13688,12500.0],[-101.67136,38.12193,12500.0]]},"properties":{"ef_share":0.0,"ef_tj":0.0}},{"type":"Feature","geometry":{"type":"LineString","coordinates":[[-101.67136,38.12193,12500.0],[-101.46656,38.10651,12500.0]]},"properties":{"ef_share":0.0,"ef_tj":0.0}},{"type":"Feature","geometry":{"type":"LineString","coordinates":[[-101.46656,38.10651,12500.0],[-101.26346,38.0909,12500.0]]},"properties":{"ef_share":0.0,"ef_tj":0.0}},{"type":"Feature","geometry":{"type":"LineString","coordinates":[[-101.26346,38.0909,12500.0],[-101.06058,38.07489,12500.0]]},"properties":{"ef_share":0.0,"ef_tj":0.0}},{"type":"Feature","geometry":{"type":"LineString","coordinates":[[-101.06058,38.07489,12500.0],[-100.85684,38.05846,12500.0]]},"properties":{"ef_share":0.0,"ef_tj":0.0}},{"type":"Feature","geometry":{"type":"LineString","coordinates":[[-100.85684,38.05846,12500.0],[-100.65457,38.04184,12500.0]]},"properties":{"ef_share":0.0,"ef_tj":0.0}},{"type":"Feature","geometry":{"type":"LineString","coordinates":[[-100.65457,38.04184,12500.0],[-100.45067,38.02468,12500.0]]},"properties":{"ef_share":0.0,"ef_tj":0.0}},{"type":"Feature","geometry":{"type":"LineString","coordinates":[[-100.45067,38.02468,12500.0],[-100.24669,38.00716,12500.0]]},"properties":{"ef_share":0.0,"ef_tj":0.0}},{"type":"Feature","geometry":{"type":"LineString","coordinates":[[-100.24669,38.00716,12500.0],[-100.04254,37.98927,12500.0]]},"properties":{"ef_share":0.0,"ef_tj":0.0}},{"type":"Feature","geometry":{"type":"LineString","coordinates":[[-100.04254,37.98927,12500.0],[-99.83997,37.97118,12500.0]]},"properties":{"ef_share":0.0,"ef_tj":0.0}},{"type":"Feature","geometry":{"type":"LineString","coordinates":[[-99.83997,37.97118,12500.0],[-99.63825,37.95279,12500.0]]},"properties":{"ef_share":0.0,"ef_tj":0.0}},{"type":"Feature","geometry":{"type":"LineString","coordinates":[[-99.63825,37.95279,12500.0],[-99.43616,37.93403,12500.0]]},"properties":{"ef_share":0.0,"ef_tj":0.0}},{"type":"Feature","geometry":{"type":"LineString","coordinates":[[-99.43616,37.93403,12500.0],[-99.23356,37.9148,12500.0]]},"properties":{"ef_share":0.0,"ef_tj":0.0}},{"type":"Feature","geometry":{"type":"LineString","coordinates":[[-99.23356,37.9148,12500.0],[-99.03064,37.89524,12500.0]]},"properties":{"ef_share":0.0,"ef_tj":0.0}},{"type":"Feature","geometry":{"type":"LineString","coordinates":[[-99.03064,37.89524,12500.0],[-98.82773,37.87532,12500.0]]},"properties":{"ef_share":0.0,"ef_tj":0.0}},{"type":"Feature","geometry":{"type":"LineString","coordinates":[[-98.82773,37.87532,12500.0],[-98.62484,37.85503,12500.0]]},"properties":{"ef_share":0.0,"ef_tj":0.0}},{"type":"Feature","geometry":{"type":"LineString","coordinates":[[-98.62484,37.85503,12500.0],[-98.42144,37.8343,12500.0]]},"properties":{"ef_share":0.0,"ef_tj":0.0}},{"type":"Feature","geometry":{"type":"LineString","coordinates":[[-98.42144,37.8343,12500.0],[-98.21725,37.81317,12500.0]]},"properties":{"ef_share":0.0,"ef_tj":0.0}},{"type":"Feature","geometry":{"type":"LineString","coordinates":[[-98.21725,37.81317,12500.0],[-98.01021,37.8097,12500.0]]},"properties":{"ef_share":0.0,"ef_tj":0.0}},{"type":"Feature","geometry":{"type":"LineString","coordinates":[[-98.01021,37.8097,12500.0],[-97.80377,37.83091,12500.0]]},"properties":{"ef_share":0.0,"ef_tj":0.0}},{"type":"Feature","geometry":{"type":"LineString","coordinates":[[-97.80377,37.83091,12500.0],[-97.59651,37.85185,12500.0]]},"properties":{"ef_share":0.0,"ef_tj":0.0}},{"type":"Feature","geometry":{"type":"LineString","coordinates":[[-97.59651,37.85185,12500.0],[-97.3905,37.87215,12500.0]]},"properties":{"ef_share":0.0,"ef_tj":0.0}},{"type":"Feature","geometry":{"type":"LineString","coordinates":[[-97.3905,37.87215,12500.0],[-97.18578,37.89201,12500.0]]},"properties":{"ef_share":0.0,"ef_tj":0.0}},{"type":"Feature","geometry":{"type":"LineString","coordinates":[[-97.18578,37.89201,12500.0],[-96.98273,37.91133,12500.0]]},"properties":{"ef_share":0.0,"ef_tj":0.0}},{"type":"Feature","geometry":{"type":"LineString","coordinates":[[-96.98273,37.91133,12500.0],[-96.78028,37.93026,12500.0]]},"properties":{"ef_share":0.0,"ef_tj":0.0}},{"type":"Feature","geometry":{"type":"LineString","coordinates":[[-96.78028,37.93026,12500.0],[-96.5785,37.94878,12500.0]]},"properties":{"ef_share":0.0,"ef_tj":0.0}},{"type":"Feature","geometry":{"type":"LineString","coordinates":[[-96.5785,37.94878,12500.0],[-96.378,37.96682,12500.0]]},"properties":{"ef_share":0.0,"ef_tj":0.0}},{"type":"Feature","geometry":{"type":"LineString","coordinates":[[-96.378,37.96682,12500.0],[-96.17581,37.98462,12500.0]]},"properties":{"ef_share":0.0,"ef_tj":0.0}},{"type":"Feature","geometry":{"type":"LineString","coordinates":[[-96.17581,37.98462,12500.0],[-95.97454,38.00204,12500.0]]},"properties":{"ef_share":0.0,"ef_tj":0.0}},{"type":"Feature","geometry":{"type":"LineString","coordinates":[[-95.97454,38.00204,12500.0],[-95.7746,38.01895,12500.0]]},"properties":{"ef_share":0.0,"ef_tj":0.0}},{"type":"Feature","geometry":{"type":"LineString","coordinates":[[-95.7746,38.01895,12500.0],[-95.57423,38.03555,12500.0]]},"properties":{"ef_share":0.0,"ef_tj":0.0}},{"type":"Feature","geometry":{"type":"LineString","coordinates":[[-95.57423,38.03555,12500.0],[-95.37347,38.05186,12500.0]]},"properties":{"ef_share":0.0,"ef_tj":0.0}},{"type":"Feature","geometry":{"type":"LineString","coordinates":[[-95.37347,38.05186,12500.0],[-95.17347,38.06779,12500.0]]},"properties":{"ef_share":0.0,"ef_tj":0.0}},{"type":"Feature","geometry":{"type":"LineString","coordinates":[[-95.17347,38.06779,12500.0],[-94.97303,38.08337,12500.0]]},"properties":{"ef_share":0.0,"ef_tj":0.0}},{"type":"Feature","geometry":{"type":"LineString","coordinates":[[-94.97303,38.08337,12500.0],[-94.77103,38.09869,12500.0]]},"properties":{"ef_share":0.0,"ef_tj":0.0}},{"type":"Feature","geometry":{"type":"LineString","coordinates":[[-94.77103,38.09869,12500.0],[-94.5678,38.11379,12500.0]]},"properties":{"ef_share":0.0,"ef_tj":0.0}},{"type":"Feature","geometry":{"type":"LineString","coordinates":[[-94.5678,38.11379,12500.0],[-94.36212,38.12867,12500.0]]},"properties":{"ef_share":0.0,"ef_tj":0.0}},{"type":"Feature","geometry":{"type":"LineString","coordinates":[[-94.36212,38.12867,12500.0],[-94.15757,38.14315,12500.0]]},"properties":{"ef_share":0.0,"ef_tj":0.0}},{"type":"Feature","geometry":{"type":"LineString","coordinates":[[-94.15757,38.14315,12500.0],[-93.95413,38.15715,12500.0]]},"properties":{"ef_share":0.0,"ef_tj":0.0}},{"type":"Feature","geometry":{"type":"LineString","coordinates":[[-93.95413,38.15715,12500.0],[-93.75315,38.17064,12500.0]]},"properties":{"ef_share":0.0,"ef_tj":0.0}},{"type":"Feature","geometry":{"type":"LineString","coordinates":[[-93.75315,38.17064,12500.0],[-93.55088,38.18391,12500.0]]},"properties":{"ef_share":0.0,"ef_tj":0.0}},{"type":"Feature","geometry":{"type":"LineString","coordinates":[[-93.55088,38.18391,12500.0],[-93.34729,38.19685,12500.0]]},"properties":{"ef_share":0.0,"ef_tj":0.0}},{"type":"Feature","geometry":{"type":"LineString","coordinates":[[-93.34729,38.19685,12500.0],[-93.14535,38.20935,12500.0]]},"properties":{"ef_share":0.0,"ef_tj":0.0}},{"type":"Feature","geometry":{"type":"LineString","coordinates":[[-93.14535,38.20935,12500.0],[-92.94369,38.22149,12500.0]]},"properties":{"ef_share":0.0,"ef_tj":0.0}},{"type":"Feature","geometry":{"type":"LineString","coordinates":[[-92.94369,38.22149,12500.0],[-92.74305,38.23321,12500.0]]},"properties":{"ef_share":0.0,"ef_tj":0.0}},{"type":"Feature","geometry":{"type":"LineString","coordinates":[[-92.74305,38.23321,12500.0],[-92.54209,38.24461,12500.0]]},"properties":{"ef_share":0.0,"ef_tj":0.0}},{"type":"Feature","geometry":{"type":"LineString","coordinates":[[-92.54209,38.24461,12500.0],[-92.3418,38.25564,12500.0]]},"properties":{"ef_share":0.0,"ef_tj":0.0}},{"type":"Feature","geometry":{"type":"LineString","coordinates":[[-92.3418,38.25564,12500.0],[-92.14208,38.26627,12500.0]]},"properties":{"ef_share":0.0,"ef_tj":0.0}},{"type":"Feature","geometry":{"type":"LineString","coordinates":[[-92.14208,38.26627,12500.0],[-91.94284,38.27656,12500.0]]},"properties":{"ef_share":0.0,"ef_tj":0.0}},{"type":"Feature","geometry":{"type":"LineString","coordinates":[[-91.94284,38.27656,12500.0],[-91.74407,38.28645,12500.0]]},"properties":{"ef_share":0.0,"ef_tj":0.0}},{"type":"Feature","geometry":{"type":"LineString","coordinates":[[-91.74407,38.28645,12500.0],[-91.54566,38.29599,12500.0]]},"properties":{"ef_share":0.0,"ef_tj":0.0}},{"type":"Feature","geometry":{"type":"LineString","coordinates":[[-91.54566,38.29599,12500.0],[-91.34732,38.30519,12500.0]]},"properties":{"ef_share":0.0,"ef_tj":0.0}},{"type":"Feature","geometry":{"type":"LineString","coordinates":[[-91.34732,38.30519,12500.0],[-91.14704,38.31419,12500.0]]},"properties":{"ef_share":0.0,"ef_tj":0.0}},{"type":"Feature","geometry":{"type":"LineString","coordinates":[[-91.14704,38.31419,12500.0],[-90.94623,38.3228,12500.0]]},"properties":{"ef_share":0.0,"ef_tj":0.0}},{"type":"Feature","geometry":{"type":"LineString","coordinates":[[-90.94623,38.3228,12500.0],[-90.74711,38.33101,12500.0]]},"properties":{"ef_share":0.0,"ef_tj":0.0}},{"type":"Feature","geometry":{"type":"LineString","coordinates":[[-90.74711,38.33101,12500.0],[-90.54717,38.33891,12500.0]]},"properties":{"ef_share":0.0,"ef_tj":0.0}},{"type":"Feature","geometry":{"type":"LineString","coordinates":[[-90.54717,38.33891,12500.0],[-90.34678,38.34652,12500.0]]},"properties":{"ef_share":0.0,"ef_tj":0.0}},{"type":"Feature","geometry":{"type":"LineString","coordinates":[[-90.34678,38.34652,12500.0],[-90.14796,38.35371,12500.0]]},"properties":{"ef_share":0.0,"ef_tj":0.0}},{"type":"Feature","geometry":{"type":"LineString","coordinates":[[-90.14796,38.35371,12500.0],[-89.95048,38.36049,12500.0]]},"properties":{"ef_share":0.0,"ef_tj":0.0}},{"type":"Feature","geometry":{"type":"LineString","coordinates":[[-89.95048,38.36049,12500.0],[-89.75124,38.36706,12500.0]]},"properties":{"ef_share":0.0,"ef_tj":0.0}},{"type":"Feature","geometry":{"type":"LineString","coordinates":[[-89.75124,38.36706,12500.0],[-89.55223,38.37321,12500.0]]},"properties":{"ef_share":0.0,"ef_tj":0.0}},{"type":"Feature","geometry":{"type":"LineString","coordinates":[[-89.55223,38.37321,12500.0],[-89.35393,38.37904,12500.0]]},"properties":{"ef_share":0.0,"ef_tj":0.0}},{"type":"Feature","geometry":{"type":"LineString","coordinates":[[-89.35393,38.37904,12500.0],[-89.15537,38.38454,12500.0]]},"properties":{"ef_share":0.0,"ef_tj":0.0}},{"type":"Feature","geometry":{"type":"LineString","coordinates":[[-89.15537,38.38454,12500.0],[-88.9558,38.38969,12500.0]]},"properties":{"ef_share":0.0,"ef_tj":0.0}},{"type":"Feature","geometry":{"type":"LineString","coordinates":[[-88.9558,38.38969,12500.0],[-88.75452,38.39458,12500.0]]},"properties":{"ef_share":0.0,"ef_tj":0.0}},{"type":"Feature","geometry":{"type":"LineString","coordinates":[[-88.75452,38.39458,12500.0],[-88.55269,38.39915,12500.0]]},"properties":{"ef_share":0.0,"ef_tj":0.0}},{"type":"Feature","geometry":{"type":"LineString","coordinates":[[-88.55269,38.39915,12500.0],[-88.34923,38.40339,12500.0]]},"properties":{"ef_share":0.0,"ef_tj":0.0}},{"type":"Feature","geometry":{"type":"LineString","coordinates":[[-88.34923,38.40339,12500.0],[-88.14733,38.40721,12500.0]]},"properties":{"ef_share":0.0,"ef_tj":0.0}},{"type":"Feature","geometry":{"type":"LineString","coordinates":[[-88.14733,38.40721,12500.0],[-87.94491,38.41071,12500.0]]},"properties":{"ef_share":0.0,"ef_tj":0.0}},{"type":"Feature","geometry":{"type":"LineString","coordinates":[[-87.94491,38.41071,12500.0],[-87.74093,38.41388,12500.0]]},"properties":{"ef_share":0.0,"ef_tj":0.0}},{"type":"Feature","geometry":{"type":"LineString","coordinates":[[-87.74093,38.41388,12500.0],[-87.53771,38.41671,12500.0]]},"properties":{"ef_share":0.0,"ef_tj":0.0}},{"type":"Feature","geometry":{"type":"LineString","coordinates":[[-87.53771,38.41671,12500.0],[-87.33379,38.41921,12500.0]]},"properties":{"ef_share":0.0,"ef_tj":0.0}},{"type":"Feature","geometry":{"type":"LineString","coordinates":[[-87.33379,38.41921,12500.0],[-87.12822,38.42134,12500.0]]},"properties":{"ef_share":0.0,"ef_tj":0.0}},{"type":"Feature","geometry":{"type":"LineString","coordinates":[[-87.12822,38.42134,12500.0],[-86.92114,38.42312,12500.0]]},"properties":{"ef_share":0.0,"ef_tj":0.0}},{"type":"Feature","geometry":{"type":"LineString","coordinates":[[-86.92114,38.42312,12500.0],[-86.71457,38.42452,12500.0]]},"properties":{"ef_share":0.0,"ef_tj":0.0}},{"type":"Feature","geometry":{"type":"LineString","coordinates":[[-86.71457,38.42452,12500.0],[-86.50839,38.42558,12500.0]]},"properties":{"ef_share":0.0,"ef_tj":0.0}},{"type":"Feature","geometry":{"type":"LineString","coordinates":[[-86.50839,38.42558,12500.0],[-86.30037,38.42625,12500.0]]},"properties":{"ef_share":0.0,"ef_tj":0.0}},{"type":"Feature","geometry":{"type":"LineString","coordinates":[[-86.30037,38.42625,12500.0],[-86.09225,38.42657,12500.0]]},"properties":{"ef_share":0.0,"ef_tj":0.0}},{"type":"Feature","geometry":{"type":"LineString","coordinates":[[-86.09225,38.42657,12500.0],[-85.8829,38.42653,12500.0]]},"properties":{"ef_share":0.0,"ef_tj":0.0}},{"type":"Feature","geometry":{"type":"LineString","coordinates":[[-85.8829,38.42653,12500.0],[-85.67353,38.42608,12500.0]]},"properties":{"ef_share":0.0,"ef_tj":0.0}},{"type":"Feature","geometry":{"type":"LineString","coordinates":[[-85.67353,38.42608,12500.0],[-85.46398,38.42529,12500.0]]},"properties":{"ef_share":0.0,"ef_tj":0.0}},{"type":"Feature","geometry":{"type":"LineString","coordinates":[[-85.46398,38.42529,12500.0],[-85.25363,38.42411,12500.0]]},"properties":{"ef_share":0.0,"ef_tj":0.0}},{"type":"Feature","geometry":{"type":"LineString","coordinates":[[-85.25363,38.42411,12500.0],[-85.04197,38.42257,12500.0]]},"properties":{"ef_share":0.0,"ef_tj":0.0}},{"type":"Feature","geometry":{"type":"LineString","coordinates":[[-85.04197,38.42257,12500.0],[-84.82926,38.42058,12500.0]]},"properties":{"ef_share":0.0,"ef_tj":0.0}},{"type":"Feature","geometry":{"type":"LineString","coordinates":[[-84.82926,38.42058,12500.0],[-84.61552,38.41821,12500.0]]},"properties":{"ef_share":0.0,"ef_tj":0.0}},{"type":"Feature","geometry":{"type":"LineString","coordinates":[[-84.61552,38.41821,12500.0],[-84.40206,38.41548,12500.0]]},"properties":{"ef_share":0.0,"ef_tj":0.0}},{"type":"Feature","geometry":{"type":"LineString","coordinates":[[-84.40206,38.41548,12500.0],[-84.18764,38.41232,12500.0]]},"properties":{"ef_share":0.0,"ef_tj":0.0}},{"type":"Feature","geometry":{"type":"LineString","coordinates":[[-84.18764,38.41232,12500.0],[-83.9713,38.40876,12500.0]]},"properties":{"ef_share":0.0,"ef_tj":0.0}},{"type":"Feature","geometry":{"type":"LineString","coordinates":[[-83.9713,38.40876,12500.0],[-83.75447,38.40475,12500.0]]},"properties":{"ef_share":0.0,"ef_tj":0.0}},{"type":"Feature","geometry":{"type":"LineString","coordinates":[[-83.75447,38.40475,12500.0],[-83.53803,38.40037,12500.0]]},"properties":{"ef_share":0.0,"ef_tj":0.0}},{"type":"Feature","geometry":{"type":"LineString","coordinates":[[-83.53803,38.40037,12500.0],[-83.32407,38.39574,12500.0]]},"properties":{"ef_share":0.0,"ef_tj":0.0}},{"type":"Feature","geometry":{"type":"LineString","coordinates":[[-83.32407,38.39574,12500.0],[-83.10706,38.40666,12500.0]]},"properties":{"ef_share":0.0,"ef_tj":0.0}},{"type":"Feature","geometry":{"type":"LineString","coordinates":[[-83.10706,38.40666,12500.0],[-82.89159,38.4257,12500.0]]},"properties":{"ef_share":0.0,"ef_tj":0.0}},{"type":"Feature","geometry":{"type":"LineString","coordinates":[[-82.89159,38.4257,12500.0],[-82.67615,38.4443,12500.0]]},"properties":{"ef_share":0.0,"ef_tj":0.0}},{"type":"Feature","geometry":{"type":"LineString","coordinates":[[-82.67615,38.4443,12500.0],[-82.46207,38.4624,12500.0]]},"properties":{"ef_share":0.0,"ef_tj":0.0}},{"type":"Feature","geometry":{"type":"LineString","coordinates":[[-82.46207,38.4624,12500.0],[-82.2478,38.48007,12500.0]]},"properties":{"ef_share":0.0,"ef_tj":0.0}},{"type":"Feature","geometry":{"type":"LineString","coordinates":[[-82.2478,38.48007,12500.0],[-82.03478,38.49724,12500.0]]},"properties":{"ef_share":0.0,"ef_tj":0.0}},{"type":"Feature","geometry":{"type":"LineString","coordinates":[[-82.03478,38.49724,12500.0],[-81.8237,38.51388,12030.0]]},"properties":{"ef_share":0.0,"ef_tj":0.0}},{"type":"Feature","geometry":{"type":"LineString","coordinates":[[-81.8237,38.51388,12030.0],[-81.61377,38.53007,11440.0]]},"properties":{"ef_share":0.0,"ef_tj":0.0}},{"type":"Feature","geometry":{"type":"LineString","coordinates":[[-81.61377,38.53007,11440.0],[-81.40551,38.54569,10830.0]]},"properties":{"ef_share":1.0,"ef_tj":10.967161}},{"type":"Feature","geometry":{"type":"LineString","coordinates":[[-81.40551,38.54569,10830.0],[-81.1997,38.56079,10230.0]]},"properties":{"ef_share":0.092,"ef_tj":1.011447}},{"type":"Feature","geometry":{"type":"LineString","coordinates":[[-81.1997,38.56079,10230.0],[-80.99931,38.57517,9640.0]]},"properties":{"ef_share":0.0,"ef_tj":0.0}},{"type":"Feature","geometry":{"type":"LineString","coordinates":[[-80.99931,38.57517,9640.0],[-80.80561,38.58869,9050.0]]},"properties":{"ef_share":0.0,"ef_tj":0.0}},{"type":"Feature","geometry":{"type":"LineString","coordinates":[[-80.80561,38.58869,9050.0],[-80.62067,38.60134,8440.0]]},"properties":{"ef_share":0.0,"ef_tj":0.0}},{"type":"Feature","geometry":{"type":"LineString","coordinates":[[-80.62067,38.60134,8440.0],[-80.44058,38.61332,7970.0]]},"properties":{"ef_share":0.0,"ef_tj":0.0}},{"type":"Feature","geometry":{"type":"LineString","coordinates":[[-80.44058,38.61332,7970.0],[-80.26442,38.6248,7680.0]]},"properties":{"ef_share":0.0,"ef_tj":0.0}},{"type":"Feature","geometry":{"type":"LineString","coordinates":[[-80.26442,38.6248,7680.0],[-80.09111,38.63584,7380.0]]},"properties":{"ef_share":0.0,"ef_tj":0.0}},{"type":"Feature","geometry":{"type":"LineString","coordinates":[[-80.09111,38.63584,7380.0],[-79.92138,38.6464,7080.0]]},"properties":{"ef_share":0.0,"ef_tj":0.0}},{"type":"Feature","geometry":{"type":"LineString","coordinates":[[-79.92138,38.6464,7080.0],[-79.75443,38.65651,6780.0]]},"properties":{"ef_share":0.0,"ef_tj":0.0}},{"type":"Feature","geometry":{"type":"LineString","coordinates":[[-79.75443,38.65651,6780.0],[-79.59019,38.66626,6480.0]]},"properties":{"ef_share":0.0,"ef_tj":0.0}},{"type":"Feature","geometry":{"type":"LineString","coordinates":[[-79.59019,38.66626,6480.0],[-79.42925,38.67557,6180.0]]},"properties":{"ef_share":0.0,"ef_tj":0.0}},{"type":"Feature","geometry":{"type":"LineString","coordinates":[[-79.42925,38.67557,6180.0],[-79.27415,38.68433,5890.0]]},"properties":{"ef_share":0.0,"ef_tj":0.0}},{"type":"Feature","geometry":{"type":"LineString","coordinates":[[-79.27415,38.68433,5890.0],[-79.12267,38.6927,5580.0]]},"properties":{"ef_share":0.0,"ef_tj":0.0}},{"type":"Feature","geometry":{"type":"LineString","coordinates":[[-79.12267,38.6927,5580.0],[-78.97505,38.70065,5150.0]]},"properties":{"ef_share":0.0,"ef_tj":0.0}},{"type":"Feature","geometry":{"type":"LineString","coordinates":[[-78.97505,38.70065,5150.0],[-78.83168,38.70821,4720.0]]},"properties":{"ef_share":0.0,"ef_tj":0.0}},{"type":"Feature","geometry":{"type":"LineString","coordinates":[[-78.83168,38.70821,4720.0],[-78.68991,38.71549,4290.0]]},"properties":{"ef_share":0.0,"ef_tj":0.0}},{"type":"Feature","geometry":{"type":"LineString","coordinates":[[-78.68991,38.71549,4290.0],[-78.56102,38.72195,3900.0]]},"properties":{"ef_share":0.0,"ef_tj":0.0}},{"type":"Feature","geometry":{"type":"LineString","coordinates":[[-78.56102,38.72195,3900.0],[-78.4424,38.72781,3540.0]]},"properties":{"ef_share":0.0,"ef_tj":0.0}},{"type":"Feature","geometry":{"type":"LineString","coordinates":[[-78.4424,38.72781,3540.0],[-78.3389,38.75746,3210.0]]},"properties":{"ef_share":0.0,"ef_tj":0.0}},{"type":"Feature","geometry":{"type":"LineString","coordinates":[[-78.3389,38.75746,3210.0],[-78.25816,38.81575,2800.0]]},"properties":{"ef_share":0.0,"ef_tj":0.0}},{"type":"Feature","geometry":{"type":"LineString","coordinates":[[-78.25816,38.81575,2800.0],[-78.17897,38.871,2340.0]]},"properties":{"ef_share":0.0,"ef_tj":0.0}},{"type":"Feature","geometry":{"type":"LineString","coordinates":[[-78.17897,38.871,2340.0],[-78.1028,38.92659,1890.0]]},"properties":{"ef_share":0.0,"ef_tj":0.0}},{"type":"Feature","geometry":{"type":"LineString","coordinates":[[-78.1028,38.92659,1890.0],[-78.03065,38.98013,1520.0]]},"properties":{"ef_share":0.0,"ef_tj":0.0}},{"type":"Feature","geometry":{"type":"LineString","coordinates":[[-78.03065,38.98013,1520.0],[-77.95767,39.03187,1510.0]]},"properties":{"ef_share":0.0,"ef_tj":0.0}},{"type":"Feature","geometry":{"type":"LineString","coordinates":[[-77.95767,39.03187,1510.0],[-77.88547,39.08399,1510.0]]},"properties":{"ef_share":0.0,"ef_tj":0.0}},{"type":"Feature","geometry":{"type":"LineString","coordinates":[[-77.88547,39.08399,1510.0],[-77.79582,39.11271,1510.0]]},"properties":{"ef_share":0.0,"ef_tj":0.0}},{"type":"Feature","geometry":{"type":"LineString","coordinates":[[-77.79582,39.11271,1510.0],[-77.6991,39.12589,1370.0]]},"properties":{"ef_share":0.0,"ef_tj":0.0}},{"type":"Feature","geometry":{"type":"LineString","coordinates":[[-77.6991,39.12589,1370.0],[-77.60235,39.13896,930.0]]},"properties":{"ef_share":0.0,"ef_tj":0.0}},{"type":"Feature","geometry":{"type":"LineString","coordinates":[[-77.60235,39.13896,930.0],[-77.50807,39.15317,900.0]]},"properties":{"ef_share":0.0,"ef_tj":0.0}},{"type":"Feature","geometry":{"type":"LineString","coordinates":[[-77.50807,39.15317,900.0],[-77.4368,39.13234,900.0]]},"properties":{"ef_share":0.0,"ef_tj":0.0}},{"type":"Feature","geometry":{"type":"LineString","coordinates":[[-77.4368,39.13234,900.0],[-77.43433,39.08072,830.0]]},"properties":{"ef_share":0.0,"ef_tj":0.0}},{"type":"Feature","geometry":{"type":"LineString","coordinates":[[-77.43433,39.08072,830.0],[-77.4349,39.03171,540.0]]},"properties":{"ef_share":0.0,"ef_tj":0.0}},{"type":"Feature","geometry":{"type":"LineString","coordinates":[[-77.4349,39.03171,540.0],[-77.43547,38.99269,310.0]]},"properties":{"ef_share":0.0,"ef_tj":0.0}},{"type":"Feature","geometry":{"type":"LineString","coordinates":[[-77.43547,38.99269,310.0],[-77.43593,38.95959,120.0]]},"properties":{"ef_share":0.0,"ef_tj":0.0}}]}