{"type":"FeatureCollection","properties":{"icao24":"ac39d6","registration":"N887WM","owner_label":"Bill Gates","combined_co2e_central":14380.9,"fuel_co2_kg":14380.9,"contrail_co2e_central":0.0,"tier":"medium"},"features":[{"type":"Feature","geometry":{"type":"LineString","coordinates":[[-115.19578,33.61188,6610.0],[-115.03072,33.60606,7010.0]]},"properties":{"ef_share":0.0,"ef_tj":0.0}},{"type":"Feature","geometry":{"type":"LineString","coordinates":[[-115.03072,33.60606,7010.0],[-114.86188,33.59981,7510.0]]},"properties":{"ef_share":0.0,"ef_tj":0.0}},{"type":"Feature","geometry":{"type":"LineString","coordinates":[[-114.86188,33.59981,7510.0],[-114.70078,33.53963,8110.0]]},"properties":{"ef_share":0.0,"ef_tj":0.0}},{"type":"Feature","geometry":{"type":"LineString","coordinates":[[-114.70078,33.53963,8110.0],[-114.55142,33.44262,8720.0]]},"properties":{"ef_share":0.0,"ef_tj":0.0}},{"type":"Feature","geometry":{"type":"LineString","coordinates":[[-114.55142,33.44262,8720.0],[-114.39049,33.35299,9280.0]]},"properties":{"ef_share":0.0,"ef_tj":0.0}},{"type":"Feature","geometry":{"type":"LineString","coordinates":[[-114.39049,33.35299,9280.0],[-114.20275,33.31287,9700.0]]},"properties":{"ef_share":0.0,"ef_tj":0.0}},{"type":"Feature","geometry":{"type":"LineString","coordinates":[[-114.20275,33.31287,9700.0],[-114.01002,33.27882,10400.0]]},"properties":{"ef_share":0.0,"ef_tj":0.0}},{"type":"Feature","geometry":{"type":"LineString","coordinates":[[-114.01002,33.27882,10400.0],[-113.81874,33.24452,10870.0]]},"properties":{"ef_share":0.0,"ef_tj":0.0}},{"type":"Feature","geometry":{"type":"LineString","coordinates":[[-113.81874,33.24452,10870.0],[-113.62247,33.20887,11210.0]]},"properties":{"ef_share":0.0,"ef_tj":0.0}},{"type":"Feature","geometry":{"type":"LineString","coordinates":[[-113.62247,33.20887,11210.0],[-113.42684,33.17298,11660.0]]},"properties":{"ef_share":0.0,"ef_tj":0.0}},{"type":"Feature","geometry":{"type":"LineString","coordinates":[[-113.42684,33.17298,11660.0],[-113.23245,33.13702,12140.0]]},"properties":{"ef_share":0.0,"ef_tj":0.0}},{"type":"Feature","geometry":{"type":"LineString","coordinates":[[-113.23245,33.13702,12140.0],[-113.04065,33.10127,12420.0]]},"properties":{"ef_share":0.0,"ef_tj":0.0}},{"type":"Feature","geometry":{"type":"LineString","coordinates":[[-113.04065,33.10127,12420.0],[-112.84721,33.06484,12500.0]]},"properties":{"ef_share":0.0,"ef_tj":0.0}},{"type":"Feature","geometry":{"type":"LineString","coordinates":[[-112.84721,33.06484,12500.0],[-112.65468,33.02828,12500.0]]},"properties":{"ef_share":0.0,"ef_tj":0.0}},{"type":"Feature","geometry":{"type":"LineString","coordinates":[[-112.65468,33.02828,12500.0],[-112.46253,32.99143,12500.0]]},"properties":{"ef_share":0.0,"ef_tj":0.0}},{"type":"Feature","geometry":{"type":"LineString","coordinates":[[-112.46253,32.99143,12500.0],[-112.27041,32.9543,12500.0]]},"properties":{"ef_share":0.0,"ef_tj":0.0}},{"type":"Feature","geometry":{"type":"LineString","coordinates":[[-112.27041,32.9543,12500.0],[-112.0786,32.91682,12500.0]]},"properties":{"ef_share":0.0,"ef_tj":0.0}},{"type":"Feature","geometry":{"type":"LineString","coordinates":[[-112.0786,32.91682,12500.0],[-111.88813,32.87937,12500.0]]},"properties":{"ef_share":0.0,"ef_tj":0.0}},{"type":"Feature","geometry":{"type":"LineString","coordinates":[[-111.88813,32.87937,12500.0],[-111.69862,32.84175,12500.0]]},"properties":{"ef_share":0.0,"ef_tj":0.0}},{"type":"Feature","geometry":{"type":"LineString","coordinates":[[-111.69862,32.84175,12500.0],[-111.50966,32.80394,12500.0]]},"properties":{"ef_share":0.0,"ef_tj":0.0}},{"type":"Feature","geometry":{"type":"LineString","coordinates":[[-111.50966,32.80394,12500.0],[-111.32165,32.76604,12500.0]]},"properties":{"ef_share":0.0,"ef_tj":0.0}},{"type":"Feature","geometry":{"type":"LineString","coordinates":[[-111.32165,32.76604,12500.0],[-111.13319,32.72766,12500.0]]},"properties":{"ef_share":0.0,"ef_tj":0.0}},{"type":"Feature","geometry":{"type":"LineString","coordinates":[[-111.13319,32.72766,12500.0],[-110.94503,32.689,12500.0]]},"properties":{"ef_share":0.0,"ef_tj":0.0}},{"type":"Feature","geometry":{"type":"LineString","coordinates":[[-110.94503,32.689,12500.0],[-110.75923,32.65055,12500.0]]},"properties":{"ef_share":0.0,"ef_tj":0.0}},{"type":"Feature","geometry":{"type":"LineString","coordinates":[[-110.75923,32.65055,12500.0],[-110.57525,32.61222,12510.0]]},"properties":{"ef_share":0.0,"ef_tj":0.0}},{"type":"Feature","geometry":{"type":"LineString","coordinates":[[-110.57525,32.61222,12510.0],[-110.39488,32.57431,12500.0]]},"properties":{"ef_share":0.0,"ef_tj":0.0}},{"type":"Feature","geometry":{"type":"LineString","coordinates":[[-110.39488,32.57431,12500.0],[-110.21689,32.53663,12500.0]]},"properties":{"ef_share":0.0,"ef_tj":0.0}},{"type":"Feature","geometry":{"type":"LineString","coordinates":[[-110.21689,32.53663,12500.0],[-110.0381,32.4985,12500.0]]},"properties":{"ef_share":0.0,"ef_tj":0.0}},{"type":"Feature","geometry":{"type":"LineString","coordinates":[[-110.0381,32.4985,12500.0],[-109.85691,32.45963,12500.0]]},"properties":{"ef_share":0.0,"ef_tj":0.0}},{"type":"Feature","geometry":{"type":"LineString","coordinates":[[-109.85691,32.45963,12500.0],[-109.67186,32.42879,12550.0]]},"properties":{"ef_share":0.0,"ef_tj":0.0}},{"type":"Feature","geometry":{"type":"LineString","coordinates":[[-109.67186,32.42879,12550.0],[-109.48946,32.40561,12810.0]]},"properties":{"ef_share":0.0,"ef_tj":0.0}},{"type":"Feature","geometry":{"type":"LineString","coordinates":[[-109.48946,32.40561,12810.0],[-109.3133,32.38299,13060.0]]},"properties":{"ef_share":0.0,"ef_tj":0.0}},{"type":"Feature","geometry":{"type":"LineString","coordinates":[[-109.3133,32.38299,13060.0],[-109.13799,32.36025,13110.0]]},"properties":{"ef_share":0.0,"ef_tj":0.0}},{"type":"Feature","geometry":{"type":"LineString","coordinates":[[-109.13799,32.36025,13110.0],[-108.96367,32.33736,13110.0]]},"properties":{"ef_share":0.0,"ef_tj":0.0}},{"type":"Feature","geometry":{"type":"LineString","coordinates":[[-108.96367,32.33736,13110.0],[-108.78772,32.31401,12860.0]]},"properties":{"ef_share":0.0,"ef_tj":0.0}},{"type":"Feature","geometry":{"type":"LineString","coordinates":[[-108.78772,32.31401,12860.0],[-108.61077,32.29022,12620.0]]},"properties":{"ef_share":0.0,"ef_tj":0.0}},{"type":"Feature","geometry":{"type":"LineString","coordinates":[[-108.61077,32.29022,12620.0],[-108.43258,32.26608,12500.0]]},"properties":{"ef_share":0.0,"ef_tj":0.0}},{"type":"Feature","geometry":{"type":"LineString","coordinates":[[-108.43258,32.26608,12500.0],[-108.25273,32.24134,12500.0]]},"properties":{"ef_share":0.0,"ef_tj":0.0}},{"type":"Feature","geometry":{"type":"LineString","coordinates":[[-108.25273,32.24134,12500.0],[-108.07472,32.21665,12500.0]]},"properties":{"ef_share":0.0,"ef_tj":0.0}},{"type":"Feature","geometry":{"type":"LineString","coordinates":[[-108.07472,32.21665,12500.0],[-107.89848,32.19194,12500.0]]},"properties":{"ef_share":0.0,"ef_tj":0.0}},{"type":"Feature","geometry":{"type":"LineString","coordinates":[[-107.89848,32.19194,12500.0],[-107.72318,32.1671,12500.0]]},"properties":{"ef_share":0.0,"ef_tj":0.0}},{"type":"Feature","geometry":{"type":"LineString","coordinates":[[-107.72318,32.1671,12500.0],[-107.5484,32.14211,12640.0]]},"properties":{"ef_share":0.0,"ef_tj":0.0}},{"type":"Feature","geometry":{"type":"LineString","coordinates":[[-107.5484,32.14211,12640.0],[-107.37225,32.11664,12910.0]]},"properties":{"ef_share":0.0,"ef_tj":0.0}},{"type":"Feature","geometry":{"type":"LineString","coordinates":[[-107.37225,32.11664,12910.0],[-107.19631,32.09093,13160.0]]},"properties":{"ef_share":0.0,"ef_tj":0.0}},{"type":"Feature","geometry":{"type":"LineString","coordinates":[[-107.19631,32.09093,13160.0],[-107.02611,32.06582,13370.0]]},"properties":{"ef_share":0.0,"ef_tj":0.0}},{"type":"Feature","geometry":{"type":"LineString","coordinates":[[-107.02611,32.06582,13370.0],[-106.85123,32.03981,13420.0]]},"properties":{"ef_share":0.0,"ef_tj":0.0}},{"type":"Feature","geometry":{"type":"LineString","coordinates":[[-106.85123,32.03981,13420.0],[-106.67493,32.01328,13550.0]]},"properties":{"ef_share":0.0,"ef_tj":0.0}},{"type":"Feature","geometry":{"type":"LineString","coordinates":[[-106.67493,32.01328,13550.0],[-106.49839,31.98645,13720.0]]},"properties":{"ef_share":0.0,"ef_tj":0.0}},{"type":"Feature","geometry":{"type":"LineString","coordinates":[[-106.49839,31.98645,13720.0],[-106.31761,31.95873,13720.0]]},"properties":{"ef_share":0.0,"ef_tj":0.0}},{"type":"Feature","geometry":{"type":"LineString","coordinates":[[-106.31761,31.95873,13720.0],[-106.13318,31.93001,13720.0]]},"properties":{"ef_share":0.0,"ef_tj":0.0}},{"type":"Feature","geometry":{"type":"LineString","coordinates":[[-106.13318,31.93001,13720.0],[-105.94834,31.90092,13720.0]]},"properties":{"ef_share":0.0,"ef_tj":0.0}},{"type":"Feature","geometry":{"type":"LineString","coordinates":[[-105.94834,31.90092,13720.0],[-105.76408,31.87162,13720.0]]},"properties":{"ef_share":0.0,"ef_tj":0.0}},{"type":"Feature","geometry":{"type":"LineString","coordinates":[[-105.76408,31.87162,13720.0],[-105.57989,31.84207,13720.0]]},"properties":{"ef_share":0.0,"ef_tj":0.0}},{"type":"Feature","geometry":{"type":"LineString","coordinates":[[-105.57989,31.84207,13720.0],[-105.39569,31.8122,13720.0]]},"properties":{"ef_share":0.0,"ef_tj":0.0}},{"type":"Feature","geometry":{"type":"LineString","coordinates":[[-105.39569,31.8122,13720.0],[-105.21072,31.78198,13720.0]]},"properties":{"ef_share":0.0,"ef_tj":0.0}},{"type":"Feature","geometry":{"type":"LineString","coordinates":[[-105.21072,31.78198,13720.0],[-105.02691,31.7516,13720.0]]},"properties":{"ef_share":0.0,"ef_tj":0.0}},{"type":"Feature","geometry":{"type":"LineString","coordinates":[[-105.02691,31.7516,13720.0],[-104.84241,31.72591,13720.0]]},"properties":{"ef_share":0.0,"ef_tj":0.0}},{"type":"Feature","geometry":{"type":"LineString","coordinates":[[-104.84241,31.72591,13720.0],[-104.65799,31.69977,13720.0]]},"properties":{"ef_share":0.0,"ef_tj":0.0}},{"type":"Feature","geometry":{"type":"LineString","coordinates":[[-104.65799,31.69977,13720.0],[-104.4729,31.67312,13720.0]]},"properties":{"ef_share":0.0,"ef_tj":0.0}},{"type":"Feature","geometry":{"type":"LineString","coordinates":[[-104.4729,31.67312,13720.0],[-104.287,31.64604,13720.0]]},"properties":{"ef_share":0.0,"ef_tj":0.0}},{"type":"Feature","geometry":{"type":"LineString","coordinates":[[-104.287,31.64604,13720.0],[-104.10344,31.61902,13720.0]]},"properties":{"ef_share":0.0,"ef_tj":0.0}},{"type":"Feature","geometry":{"type":"LineString","coordinates":[[-104.10344,31.61902,13720.0],[-103.92642,31.59275,13720.0]]},"properties":{"ef_share":0.0,"ef_tj":0.0}},{"type":"Feature","geometry":{"type":"LineString","coordinates":[[-103.92642,31.59275,13720.0],[-103.74991,31.56626,13720.0]]},"properties":{"ef_share":0.0,"ef_tj":0.0}},{"type":"Feature","geometry":{"type":"LineString","coordinates":[[-103.74991,31.56626,13720.0],[-103.57224,31.53935,13720.0]]},"properties":{"ef_share":0.0,"ef_tj":0.0}},{"type":"Feature","geometry":{"type":"LineString","coordinates":[[-103.57224,31.53935,13720.0],[-103.3943,31.5119,13720.0]]},"properties":{"ef_share":0.0,"ef_tj":0.0}},{"type":"Feature","geometry":{"type":"LineString","coordinates":[[-103.3943,31.5119,13720.0],[-103.21721,31.48409,13720.0]]},"properties":{"ef_share":0.0,"ef_tj":0.0}},{"type":"Feature","geometry":{"type":"LineString","coordinates":[[-103.21721,31.48409,13720.0],[-103.04013,31.45628,13720.0]]},"properties":{"ef_share":0.0,"ef_tj":0.0}},{"type":"Feature","geometry":{"type":"LineString","coordinates":[[-103.04013,31.45628,13720.0],[-102.86304,31.42847,13720.0]]},"properties":{"ef_share":0.0,"ef_tj":0.0}},{"type":"Feature","geometry":{"type":"LineString","coordinates":[[-102.86304,31.42847,13720.0],[-102.68595,31.40065,13720.0]]},"properties":{"ef_share":0.0,"ef_tj":0.0}},{"type":"Feature","geometry":{"type":"LineString","coordinates":[[-102.68595,31.40065,13720.0],[-102.50895,31.37265,13720.0]]},"properties":{"ef_share":0.0,"ef_tj":0.0}},{"type":"Feature","geometry":{"type":"LineString","coordinates":[[-102.50895,31.37265,13720.0],[-102.33241,31.34357,13720.0]]},"properties":{"ef_share":0.0,"ef_tj":0.0}},{"type":"Feature","geometry":{"type":"LineString","coordinates":[[-102.33241,31.34357,13720.0],[-102.15588,31.3145,13720.0]]},"properties":{"ef_share":0.0,"ef_tj":0.0}},{"type":"Feature","geometry":{"type":"LineString","coordinates":[[-102.15588,31.3145,13720.0],[-101.97934,31.28543,13720.0]]},"properties":{"ef_share":0.0,"ef_tj":0.0}},{"type":"Feature","geometry":{"type":"LineString","coordinates":[[-101.97934,31.28543,13720.0],[-101.8028,31.25635,13720.0]]},"properties":{"ef_share":0.0,"ef_tj":0.0}},{"type":"Feature","geometry":{"type":"LineString","coordinates":[[-101.8028,31.25635,13720.0],[-101.62627,31.22728,13720.0]]},"properties":{"ef_share":0.0,"ef_tj":0.0}},{"type":"Feature","geometry":{"type":"LineString","coordinates":[[-101.62627,31.22728,13720.0],[-101.45074,31.19759,13720.0]]},"properties":{"ef_share":0.0,"ef_tj":0.0}},{"type":"Feature","geometry":{"type":"LineString","coordinates":[[-101.45074,31.19759,13720.0],[-101.27518,31.16815,13720.0]]},"properties":{"ef_share":0.0,"ef_tj":0.0}},{"type":"Feature","geometry":{"type":"LineString","coordinates":[[-101.27518,31.16815,13720.0],[-101.09906,31.14116,13720.0]]},"properties":{"ef_share":0.0,"ef_tj":0.0}},{"type":"Feature","geometry":{"type":"LineString","coordinates":[[-101.09906,31.14116,13720.0],[-100.92261,31.11356,13720.0]]},"properties":{"ef_share":0.0,"ef_tj":0.0}},{"type":"Feature","geometry":{"type":"LineString","coordinates":[[-100.92261,31.11356,13720.0],[-100.74438,31.08535,13720.0]]},"properties":{"ef_share":0.0,"ef_tj":0.0}},{"type":"Feature","geometry":{"type":"LineString","coordinates":[[-100.74438,31.08535,13720.0],[-100.56455,31.05668,13720.0]]},"properties":{"ef_share":0.0,"ef_tj":0.0}},{"type":"Feature","geometry":{"type":"LineString","coordinates":[[-100.56455,31.05668,13720.0],[-100.38454,31.02771,13720.0]]},"properties":{"ef_share":0.0,"ef_tj":0.0}},{"type":"Feature","geometry":{"type":"LineString","coordinates":[[-100.38454,31.02771,13720.0],[-100.20463,30.99844,13720.0]]},"properties":{"ef_share":0.0,"ef_tj":0.0}},{"type":"Feature","geometry":{"type":"LineString","coordinates":[[-100.20463,30.99844,13720.0],[-100.02586,30.96912,13720.0]]},"properties":{"ef_share":0.0,"ef_tj":0.0}},{"type":"Feature","geometry":{"type":"LineString","coordinates":[[-100.02586,30.96912,13720.0],[-99.84806,30.93969,13720.0]]},"properties":{"ef_share":0.0,"ef_tj":0.0}},{"type":"Feature","geometry":{"type":"LineString","coordinates":[[-99.84806,30.93969,13720.0],[-99.66932,30.90982,13720.0]]},"properties":{"ef_share":0.0,"ef_tj":0.0}},{"type":"Feature","geometry":{"type":"LineString","coordinates":[[-99.66932,30.90982,13720.0],[-99.48955,30.87953,13720.0]]},"properties":{"ef_share":0.0,"ef_tj":0.0}},{"type":"Feature","geometry":{"type":"LineString","coordinates":[[-99.48955,30.87953,13720.0],[-99.30929,30.8489,13720.0]]},"properties":{"ef_share":0.0,"ef_tj":0.0}},{"type":"Feature","geometry":{"type":"LineString","coordinates":[[-99.30929,30.8489,13720.0],[-99.12796,30.81779,13720.0]]},"properties":{"ef_share":0.0,"ef_tj":0.0}},{"type":"Feature","geometry":{"type":"LineString","coordinates":[[-99.12796,30.81779,13720.0],[-98.94648,30.78638,13720.0]]},"properties":{"ef_share":0.0,"ef_tj":0.0}},{"type":"Feature","geometry":{"type":"LineString","coordinates":[[-98.94648,30.78638,13720.0],[-98.76483,30.75469,13720.0]]},"properties":{"ef_share":0.0,"ef_tj":0.0}},{"type":"Feature","geometry":{"type":"LineString","coordinates":[[-98.76483,30.75469,13720.0],[-98.58331,30.72273,13720.0]]},"properties":{"ef_share":0.0,"ef_tj":0.0}},{"type":"Feature","geometry":{"type":"LineString","coordinates":[[-98.58331,30.72273,13720.0],[-98.40186,30.69049,13720.0]]},"properties":{"ef_share":0.0,"ef_tj":0.0}},{"type":"Feature","geometry":{"type":"LineString","coordinates":[[-98.40186,30.69049,13720.0],[-98.22133,30.65818,13720.0]]},"properties":{"ef_share":0.0,"ef_tj":0.0}},{"type":"Feature","geometry":{"type":"LineString","coordinates":[[-98.22133,30.65818,13720.0],[-98.04083,30.62556,13720.0]]},"properties":{"ef_share":0.0,"ef_tj":0.0}},{"type":"Feature","geometry":{"type":"LineString","coordinates":[[-98.04083,30.62556,13720.0],[-97.86177,30.59289,13720.0]]},"properties":{"ef_share":0.0,"ef_tj":0.0}},{"type":"Feature","geometry":{"type":"LineString","coordinates":[[-97.86177,30.59289,13720.0],[-97.68499,30.55489,13720.0]]},"properties":{"ef_share":0.0,"ef_tj":0.0}},{"type":"Feature","geometry":{"type":"LineString","coordinates":[[-97.68499,30.55489,13720.0],[-97.50958,30.51154,13720.0]]},"properties":{"ef_share":0.0,"ef_tj":0.0}},{"type":"Feature","geometry":{"type":"LineString","coordinates":[[-97.50958,30.51154,13720.0],[-97.3338,30.4678,13720.0]]},"properties":{"ef_share":0.0,"ef_tj":0.0}},{"type":"Feature","geometry":{"type":"LineString","coordinates":[[-97.3338,30.4678,13720.0],[-97.15827,30.42383,13720.0]]},"properties":{"ef_share":0.0,"ef_tj":0.0}},{"type":"Feature","geometry":{"type":"LineString","coordinates":[[-97.15827,30.42383,13720.0],[-96.98284,30.37965,13720.0]]},"properties":{"ef_share":0.0,"ef_tj":0.0}},{"type":"Feature","geometry":{"type":"LineString","coordinates":[[-96.98284,30.37965,13720.0],[-96.808,30.33531,13720.0]]},"properties":{"ef_share":0.0,"ef_tj":0.0}},{"type":"Feature","geometry":{"type":"LineString","coordinates":[[-96.808,30.33531,13720.0],[-96.63327,30.2911,13720.0]]},"properties":{"ef_share":0.0,"ef_tj":0.0}},{"type":"Feature","geometry":{"type":"LineString","coordinates":[[-96.63327,30.2911,13720.0],[-96.45824,30.24656,13720.0]]},"properties":{"ef_share":0.0,"ef_tj":0.0}},{"type":"Feature","geometry":{"type":"LineString","coordinates":[[-96.45824,30.24656,13720.0],[-96.28221,30.20145,13720.0]]},"properties":{"ef_share":0.0,"ef_tj":0.0}},{"type":"Feature","geometry":{"type":"LineString","coordinates":[[-96.28221,30.20145,13720.0],[-96.10636,30.15616,13720.0]]},"properties":{"ef_share":0.0,"ef_tj":0.0}},{"type":"Feature","geometry":{"type":"LineString","coordinates":[[-96.10636,30.15616,13720.0],[-95.93137,30.11075,13720.0]]},"properties":{"ef_share":0.0,"ef_tj":0.0}},{"type":"Feature","geometry":{"type":"LineString","coordinates":[[-95.93137,30.11075,13720.0],[-95.75621,30.06507,13720.0]]},"properties":{"ef_share":0.0,"ef_tj":0.0}},{"type":"Feature","geometry":{"type":"LineString","coordinates":[[-95.75621,30.06507,13720.0],[-95.58191,30.01931,13720.0]]},"properties":{"ef_share":0.0,"ef_tj":0.0}},{"type":"Feature","geometry":{"type":"LineString","coordinates":[[-95.58191,30.01931,13720.0],[-95.40933,29.97387,13720.0]]},"properties":{"ef_share":0.0,"ef_tj":0.0}},{"type":"Feature","geometry":{"type":"LineString","coordinates":[[-95.40933,29.97387,13720.0],[-95.23521,29.93454,13720.0]]},"properties":{"ef_share":0.0,"ef_tj":0.0}},{"type":"Feature","geometry":{"type":"LineString","coordinates":[[-95.23521,29.93454,13720.0],[-95.05895,29.89888,13720.0]]},"properties":{"ef_share":0.0,"ef_tj":0.0}},{"type":"Feature","geometry":{"type":"LineString","coordinates":[[-95.05895,29.89888,13720.0],[-94.88259,29.86286,13720.0]]},"properties":{"ef_share":0.0,"ef_tj":0.0}},{"type":"Feature","geometry":{"type":"LineString","coordinates":[[-94.88259,29.86286,13720.0],[-94.70669,29.82658,13720.0]]},"properties":{"ef_share":0.0,"ef_tj":0.0}},{"type":"Feature","geometry":{"type":"LineString","coordinates":[[-94.70669,29.82658,13720.0],[-94.53879,29.77635,13720.0]]},"properties":{"ef_share":0.0,"ef_tj":0.0}},{"type":"Feature","geometry":{"type":"LineString","coordinates":[[-94.53879,29.77635,13720.0],[-94.37541,29.72153,13720.0]]},"properties":{"ef_share":0.0,"ef_tj":0.0}},{"type":"Feature","geometry":{"type":"LineString","coordinates":[[-94.37541,29.72153,13720.0],[-94.21144,29.66696,13720.0]]},"properties":{"ef_share":0.0,"ef_tj":0.0}},{"type":"Feature","geometry":{"type":"LineString","coordinates":[[-94.21144,29.66696,13720.0],[-94.04669,29.61329,13720.0]]},"properties":{"ef_share":0.0,"ef_tj":0.0}},{"type":"Feature","geometry":{"type":"LineString","coordinates":[[-94.04669,29.61329,13720.0],[-93.88287,29.56012,13720.0]]},"properties":{"ef_share":0.0,"ef_tj":0.0}},{"type":"Feature","geometry":{"type":"LineString","coordinates":[[-93.88287,29.56012,13720.0],[-93.71119,29.51906,13720.0]]},"properties":{"ef_share":0.0,"ef_tj":0.0}},{"type":"Feature","geometry":{"type":"LineString","coordinates":[[-93.71119,29.51906,13720.0],[-93.53285,29.49114,13720.0]]},"properties":{"ef_share":0.0,"ef_tj":0.0}},{"type":"Feature","geometry":{"type":"LineString","coordinates":[[-93.53285,29.49114,13720.0],[-93.35427,29.46285,13720.0]]},"properties":{"ef_share":0.0,"ef_tj":0.0}},{"type":"Feature","geometry":{"type":"LineString","coordinates":[[-93.35427,29.46285,13720.0],[-93.17665,29.43441,13720.0]]},"properties":{"ef_share":0.0,"ef_tj":0.0}},{"type":"Feature","geometry":{"type":"LineString","coordinates":[[-93.17665,29.43441,13720.0],[-93.00003,29.40593,13720.0]]},"properties":{"ef_share":0.0,"ef_tj":0.0}},{"type":"Feature","geometry":{"type":"LineString","coordinates":[[-93.00003,29.40593,13720.0],[-92.82392,29.37723,13720.0]]},"properties":{"ef_share":0.0,"ef_tj":0.0}},{"type":"Feature","geometry":{"type":"LineString","coordinates":[[-92.82392,29.37723,13720.0],[-92.64741,29.34825,13720.0]]},"properties":{"ef_share":0.0,"ef_tj":0.0}},{"type":"Feature","geometry":{"type":"LineString","coordinates":[[-92.64741,29.34825,13720.0],[-92.47104,29.31907,13720.0]]},"properties":{"ef_share":0.0,"ef_tj":0.0}},{"type":"Feature","geometry":{"type":"LineString","coordinates":[[-92.47104,29.31907,13720.0],[-92.29425,29.28953,13720.0]]},"properties":{"ef_share":0.0,"ef_tj":0.0}},{"type":"Feature","geometry":{"type":"LineString","coordinates":[[-92.29425,29.28953,13720.0],[-92.11912,29.25998,13720.0]]},"properties":{"ef_share":0.0,"ef_tj":0.0}},{"type":"Feature","geometry":{"type":"LineString","coordinates":[[-92.11912,29.25998,13720.0],[-91.94302,29.2301,13720.0]]},"properties":{"ef_share":0.0,"ef_tj":0.0}},{"type":"Feature","geometry":{"type":"LineString","coordinates":[[-91.94302,29.2301,13720.0],[-91.76822,29.20016,13720.0]]},"properties":{"ef_share":0.0,"ef_tj":0.0}},{"type":"Feature","geometry":{"type":"LineString","coordinates":[[-91.76822,29.20016,13720.0],[-91.59416,29.1701,13720.0]]},"properties":{"ef_share":0.0,"ef_tj":0.0}},{"type":"Feature","geometry":{"type":"LineString","coordinates":[[-91.59416,29.1701,13720.0],[-91.42049,29.13987,13720.0]]},"properties":{"ef_share":0.0,"ef_tj":0.0}},{"type":"Feature","geometry":{"type":"LineString","coordinates":[[-91.42049,29.13987,13720.0],[-91.24813,29.10962,13720.0]]},"properties":{"ef_share":0.0,"ef_tj":0.0}},{"type":"Feature","geometry":{"type":"LineString","coordinates":[[-91.24813,29.10962,13720.0],[-91.0762,29.07917,13720.0]]},"properties":{"ef_share":0.0,"ef_tj":0.0}},{"type":"Feature","geometry":{"type":"LineString","coordinates":[[-91.0762,29.07917,13720.0],[-90.90383,29.04845,13720.0]]},"properties":{"ef_share":0.0,"ef_tj":0.0}},{"type":"Feature","geometry":{"type":"LineString","coordinates":[[-90.90383,29.04845,13720.0],[-90.73183,29.01757,13720.0]]},"properties":{"ef_share":0.0,"ef_tj":0.0}},{"type":"Feature","geometry":{"type":"LineString","coordinates":[[-90.73183,29.01757,13720.0],[-90.56029,28.9865,13720.0]]},"properties":{"ef_share":0.0,"ef_tj":0.0}},{"type":"Feature","geometry":{"type":"LineString","coordinates":[[-90.56029,28.9865,13720.0],[-90.38845,28.95515,13720.0]]},"properties":{"ef_share":0.0,"ef_tj":0.0}},{"type":"Feature","geometry":{"type":"LineString","coordinates":[[-90.38845,28.95515,13720.0],[-90.21577,28.9234,13720.0]]},"properties":{"ef_share":0.0,"ef_tj":0.0}},{"type":"Feature","geometry":{"type":"LineString","coordinates":[[-90.21577,28.9234,13720.0],[-90.04343,28.89149,13720.0]]},"properties":{"ef_share":0.0,"ef_tj":0.0}},{"type":"Feature","geometry":{"type":"LineString","coordinates":[[-90.04343,28.89149,13720.0],[-89.87155,28.85945,13720.0]]},"properties":{"ef_share":0.0,"ef_tj":0.0}},{"type":"Feature","geometry":{"type":"LineString","coordinates":[[-89.87155,28.85945,13720.0],[-89.70063,28.82731,13720.0]]},"properties":{"ef_share":0.0,"ef_tj":0.0}},{"type":"Feature","geometry":{"type":"LineString","coordinates":[[-89.70063,28.82731,13720.0],[-89.52985,28.79492,13720.0]]},"properties":{"ef_share":0.0,"ef_tj":0.0}},{"type":"Feature","geometry":{"type":"LineString","coordinates":[[-89.52985,28.79492,13720.0],[-89.35913,28.76237,13720.0]]},"properties":{"ef_share":0.0,"ef_tj":0.0}},{"type":"Feature","geometry":{"type":"LineString","coordinates":[[-89.35913,28.76237,13720.0],[-89.18902,28.72968,13720.0]]},"properties":{"ef_share":0.0,"ef_tj":0.0}},{"type":"Feature","geometry":{"type":"LineString","coordinates":[[-89.18902,28.72968,13720.0],[-89.0188,28.69673,13720.0]]},"properties":{"ef_share":0.0,"ef_tj":0.0}},{"type":"Feature","geometry":{"type":"LineString","coordinates":[[-89.0188,28.69673,13720.0],[-88.8488,28.66362,13720.0]]},"properties":{"ef_share":0.0,"ef_tj":0.0}},{"type":"Feature","geometry":{"type":"LineString","coordinates":[[-88.8488,28.66362,13720.0],[-88.67947,28.63038,13720.0]]},"properties":{"ef_share":0.0,"ef_tj":0.0}},{"type":"Feature","geometry":{"type":"LineString","coordinates":[[-88.67947,28.63038,13720.0],[-88.51045,28.59698,13720.0]]},"properties":{"ef_share":0.0,"ef_tj":0.0}},{"type":"Feature","geometry":{"type":"LineString","coordinates":[[-88.51045,28.59698,13720.0],[-88.34161,28.56339,13720.0]]},"properties":{"ef_share":0.0,"ef_tj":0.0}},{"type":"Feature","geometry":{"type":"LineString","coordinates":[[-88.34161,28.56339,13720.0],[-88.17377,28.52974,13720.0]]},"properties":{"ef_share":0.0,"ef_tj":0.0}},{"type":"Feature","geometry":{"type":"LineString","coordinates":[[-88.17377,28.52974,13720.0],[-88.00615,28.49594,13720.0]]},"properties":{"ef_share":0.0,"ef_tj":0.0}},{"type":"Feature","geometry":{"type":"LineString","coordinates":[[-88.00615,28.49594,13720.0],[-87.83829,28.46183,13720.0]]},"properties":{"ef_share":0.0,"ef_tj":0.0}},{"type":"Feature","geometry":{"type":"LineString","coordinates":[[-87.83829,28.46183,13720.0],[-87.67076,28.42759,13720.0]]},"properties":{"ef_share":0.0,"ef_tj":0.0}},{"type":"Feature","geometry":{"type":"LineString","coordinates":[[-87.67076,28.42759,13720.0],[-87.50376,28.3932,13720.0]]},"properties":{"ef_share":0.0,"ef_tj":0.0}},{"type":"Feature","geometry":{"type":"LineString","coordinates":[[-87.50376,28.3932,13720.0],[-87.33619,28.35849,13720.0]]},"properties":{"ef_share":0.0,"ef_tj":0.0}},{"type":"Feature","geometry":{"type":"LineString","coordinates":[[-87.33619,28.35849,13720.0],[-87.1696,28.32375,13720.0]]},"properties":{"ef_share":0.0,"ef_tj":0.0}},{"type":"Feature","geometry":{"type":"LineString","coordinates":[[-87.1696,28.32375,13720.0],[-87.00225,28.2886,13720.0]]},"properties":{"ef_share":0.0,"ef_tj":0.0}},{"type":"Feature","geometry":{"type":"LineString","coordinates":[[-87.00225,28.2886,13720.0],[-86.83471,28.25321,13720.0]]},"properties":{"ef_share":0.0,"ef_tj":0.0}},{"type":"Feature","geometry":{"type":"LineString","coordinates":[[-86.83471,28.25321,13720.0],[-86.66758,28.21767,13720.0]]},"properties":{"ef_share":0.0,"ef_tj":0.0}},{"type":"Feature","geometry":{"type":"LineString","coordinates":[[-86.66758,28.21767,13720.0],[-86.5013,28.18209,13720.0]]},"properties":{"ef_share":0.0,"ef_tj":0.0}},{"type":"Feature","geometry":{"type":"LineString","coordinates":[[-86.5013,28.18209,13720.0],[-86.33471,28.14616,13720.0]]},"properties":{"ef_share":0.0,"ef_tj":0.0}},{"type":"Feature","geometry":{"type":"LineString","coordinates":[[-86.33471,28.14616,13720.0],[-86.168,28.11006,13720.0]]},"properties":{"ef_share":0.0,"ef_tj":0.0}},{"type":"Feature","geometry":{"type":"LineString","coordinates":[[-86.168,28.11006,13720.0],[-86.00169,28.07376,13720.0]]},"properties":{"ef_share":0.0,"ef_tj":0.0}},{"type":"Feature","geometry":{"type":"LineString","coordinates":[[-86.00169,28.07376,13720.0],[-85.83505,28.03722,13720.0]]},"properties":{"ef_share":0.0,"ef_tj":0.0}},{"type":"Feature","geometry":{"type":"LineString","coordinates":[[-85.83505,28.03722,13720.0],[-85.6674,28.00018,13720.0]]},"properties":{"ef_share":0.0,"ef_tj":0.0}},{"type":"Feature","geometry":{"type":"LineString","coordinates":[[-85.6674,28.00018,13720.0],[-85.49917,27.9628,13720.0]]},"properties":{"ef_share":0.0,"ef_tj":0.0}},{"type":"Feature","geometry":{"type":"LineString","coordinates":[[-85.49917,27.9628,13720.0],[-85.33133,27.92526,13720.0]]},"properties":{"ef_share":0.0,"ef_tj":0.0}},{"type":"Feature","geometry":{"type":"LineString","coordinates":[[-85.33133,27.92526,13720.0],[-85.16389,27.88758,13720.0]]},"properties":{"ef_share":0.0,"ef_tj":0.0}},{"type":"Feature","geometry":{"type":"LineString","coordinates":[[-85.16389,27.88758,13720.0],[-84.99627,27.84966,13720.0]]},"properties":{"ef_share":0.0,"ef_tj":0.0}},{"type":"Feature","geometry":{"type":"LineString","coordinates":[[-84.99627,27.84966,13720.0],[-84.83022,27.80915,13720.0]]},"properties":{"ef_share":0.0,"ef_tj":0.0}},{"type":"Feature","geometry":{"type":"LineString","coordinates":[[-84.83022,27.80915,13720.0],[-84.67026,27.75498,13720.0]]},"properties":{"ef_share":0.0,"ef_tj":0.0}},{"type":"Feature","geometry":{"type":"LineString","coordinates":[[-84.67026,27.75498,13720.0],[-84.51329,27.69917,13540.0]]},"properties":{"ef_share":0.0,"ef_tj":0.0}},{"type":"Feature","geometry":{"type":"LineString","coordinates":[[-84.51329,27.69917,13540.0],[-84.3598,27.64428,12830.0]]},"properties":{"ef_share":0.0,"ef_tj":0.0}},{"type":"Feature","geometry":{"type":"LineString","coordinates":[[-84.3598,27.64428,12830.0],[-84.20207,27.58779,11900.0]]},"properties":{"ef_share":0.0,"ef_tj":0.0}},{"type":"Feature","geometry":{"type":"LineString","coordinates":[[-84.20207,27.58779,11900.0],[-84.04489,27.53121,11670.0]]},"properties":{"ef_share":0.0,"ef_tj":0.0}},{"type":"Feature","geometry":{"type":"LineString","coordinates":[[-84.04489,27.53121,11670.0],[-83.88752,27.47431,11310.0]]},"properties":{"ef_share":0.0,"ef_tj":0.0}},{"type":"Feature","geometry":{"type":"LineString","coordinates":[[-83.88752,27.47431,11310.0],[-83.72656,27.41582,10940.0]]},"properties":{"ef_share":0.0,"ef_tj":0.0}},{"type":"Feature","geometry":{"type":"LineString","coordinates":[[-83.72656,27.41582,10940.0],[-83.56392,27.35659,10560.0]]},"properties":{"ef_share":0.0,"ef_tj":0.0}},{"type":"Feature","geometry":{"type":"LineString","coordinates":[[-83.56392,27.35659,10560.0],[-83.4049,27.2984,10190.0]]},"properties":{"ef_share":0.0,"ef_tj":0.0}},{"type":"Feature","geometry":{"type":"LineString","coordinates":[[-83.4049,27.2984,10190.0],[-83.24798,27.24065,9820.0]]},"properties":{"ef_share":0.0,"ef_tj":0.0}},{"type":"Feature","geometry":{"type":"LineString","coordinates":[[-83.24798,27.24065,9820.0],[-83.0914,27.18562,9470.0]]},"properties":{"ef_share":0.0,"ef_tj":0.0}}]}