{"type":"FeatureCollection","properties":{"icao24":"ac39d6","registration":"N887WM","owner_label":"Bill Gates","combined_co2e_central":3404.4,"fuel_co2_kg":3404.4,"contrail_co2e_central":0.0,"tier":"low"},"features":[{"type":"Feature","geometry":{"type":"LineString","coordinates":[[-122.99253,45.09223,12500.0],[-122.981,44.9518,12500.0]]},"properties":{"ef_share":0.0,"ef_tj":0.0}},{"type":"Feature","geometry":{"type":"LineString","coordinates":[[-122.981,44.9518,12500.0],[-122.96963,44.81252,12500.0]]},"properties":{"ef_share":0.0,"ef_tj":0.0}},{"type":"Feature","geometry":{"type":"LineString","coordinates":[[-122.96963,44.81252,12500.0],[-122.95801,44.67019,12500.0]]},"properties":{"ef_share":0.0,"ef_tj":0.0}},{"type":"Feature","geometry":{"type":"LineString","coordinates":[[-122.95801,44.67019,12500.0],[-122.94632,44.52567,12500.0]]},"properties":{"ef_share":0.0,"ef_tj":0.0}},{"type":"Feature","geometry":{"type":"LineString","coordinates":[[-122.94632,44.52567,12500.0],[-122.94025,44.37962,12500.0]]},"properties":{"ef_share":0.0,"ef_tj":0.0}},{"type":"Feature","geometry":{"type":"LineString","coordinates":[[-122.94025,44.37962,12500.0],[-122.93599,44.23302,12500.0]]},"properties":{"ef_share":0.0,"ef_tj":0.0}},{"type":"Feature","geometry":{"type":"LineString","coordinates":[[-122.93599,44.23302,12500.0],[-122.93154,44.0854,12500.0]]},"properties":{"ef_share":0.0,"ef_tj":0.0}},{"type":"Feature","geometry":{"type":"LineString","coordinates":[[-122.93154,44.0854,12500.0],[-122.92703,43.93816,12500.0]]},"properties":{"ef_share":0.0,"ef_tj":0.0}},{"type":"Feature","geometry":{"type":"LineString","coordinates":[[-122.92703,43.93816,12500.0],[-122.92267,43.79195,12500.0]]},"properties":{"ef_share":0.0,"ef_tj":0.0}},{"type":"Feature","geometry":{"type":"LineString","coordinates":[[-122.92267,43.79195,12500.0],[-122.91823,43.646,12500.0]]},"properties":{"ef_share":0.0,"ef_tj":0.0}},{"type":"Feature","geometry":{"type":"LineString","coordinates":[[-122.91823,43.646,12500.0],[-122.91385,43.49979,12500.0]]},"properties":{"ef_share":0.0,"ef_tj":0.0}},{"type":"Feature","geometry":{"type":"LineString","coordinates":[[-122.91385,43.49979,12500.0],[-122.90946,43.35316,12500.0]]},"properties":{"ef_share":0.0,"ef_tj":0.0}},{"type":"Feature","geometry":{"type":"LineString","coordinates":[[-122.90946,43.35316,12500.0],[-122.90503,43.20436,12500.0]]},"properties":{"ef_share":0.0,"ef_tj":0.0}},{"type":"Feature","geometry":{"type":"LineString","coordinates":[[-122.90503,43.20436,12500.0],[-122.90064,43.05567,12500.0]]},"properties":{"ef_share":0.0,"ef_tj":0.0}},{"type":"Feature","geometry":{"type":"LineString","coordinates":[[-122.90064,43.05567,12500.0],[-122.89631,42.90863,12500.0]]},"properties":{"ef_share":0.0,"ef_tj":0.0}},{"type":"Feature","geometry":{"type":"LineString","coordinates":[[-122.89631,42.90863,12500.0],[-122.89208,42.76327,12500.0]]},"properties":{"ef_share":0.0,"ef_tj":0.0}},{"type":"Feature","geometry":{"type":"LineString","coordinates":[[-122.89208,42.76327,12500.0],[-122.88784,42.61899,12500.0]]},"properties":{"ef_share":0.0,"ef_tj":0.0}},{"type":"Feature","geometry":{"type":"LineString","coordinates":[[-122.88784,42.61899,12500.0],[-122.88367,42.47463,12500.0]]},"properties":{"ef_share":0.0,"ef_tj":0.0}},{"type":"Feature","geometry":{"type":"LineString","coordinates":[[-122.88367,42.47463,12500.0],[-122.87955,42.33033,12500.0]]},"properties":{"ef_share":0.0,"ef_tj":0.0}},{"type":"Feature","geometry":{"type":"LineString","coordinates":[[-122.87955,42.33033,12500.0],[-122.87535,42.18434,12500.0]]},"properties":{"ef_share":0.0,"ef_tj":0.0}},{"type":"Feature","geometry":{"type":"LineString","coordinates":[[-122.87535,42.18434,12500.0],[-122.87118,42.03745,12500.0]]},"properties":{"ef_share":0.0,"ef_tj":0.0}},{"type":"Feature","geometry":{"type":"LineString","coordinates":[[-122.87118,42.03745,12500.0],[-122.867,41.89129,12500.0]]},"properties":{"ef_share":0.0,"ef_tj":0.0}},{"type":"Feature","geometry":{"type":"LineString","coordinates":[[-122.867,41.89129,12500.0],[-122.86286,41.74422,12500.0]]},"properties":{"ef_share":0.0,"ef_tj":0.0}},{"type":"Feature","geometry":{"type":"LineString","coordinates":[[-122.86286,41.74422,12500.0],[-122.85872,41.59701,12500.0]]},"properties":{"ef_share":0.0,"ef_tj":0.0}},{"type":"Feature","geometry":{"type":"LineString","coordinates":[[-122.85872,41.59701,12500.0],[-122.85466,41.45011,12500.0]]},"properties":{"ef_share":0.0,"ef_tj":0.0}},{"type":"Feature","geometry":{"type":"LineString","coordinates":[[-122.85466,41.45011,12500.0],[-122.85021,41.30336,12500.0]]},"properties":{"ef_share":0.0,"ef_tj":0.0}},{"type":"Feature","geometry":{"type":"LineString","coordinates":[[-122.85021,41.30336,12500.0],[-122.83546,41.15763,12500.0]]},"properties":{"ef_share":0.0,"ef_tj":0.0}},{"type":"Feature","geometry":{"type":"LineString","coordinates":[[-122.83546,41.15763,12500.0],[-122.81656,41.01114,12500.0]]},"properties":{"ef_share":0.0,"ef_tj":0.0}},{"type":"Feature","geometry":{"type":"LineString","coordinates":[[-122.81656,41.01114,12500.0],[-122.79796,40.86519,12500.0]]},"properties":{"ef_share":0.0,"ef_tj":0.0}},{"type":"Feature","geometry":{"type":"LineString","coordinates":[[-122.79796,40.86519,12500.0],[-122.77938,40.7188,12500.0]]},"properties":{"ef_share":0.0,"ef_tj":0.0}},{"type":"Feature","geometry":{"type":"LineString","coordinates":[[-122.77938,40.7188,12500.0],[-122.76084,40.57238,12500.0]]},"properties":{"ef_share":0.0,"ef_tj":0.0}},{"type":"Feature","geometry":{"type":"LineString","coordinates":[[-122.76084,40.57238,12500.0],[-122.74241,40.42591,12500.0]]},"properties":{"ef_share":0.0,"ef_tj":0.0}},{"type":"Feature","geometry":{"type":"LineString","coordinates":[[-122.74241,40.42591,12500.0],[-122.7242,40.28055,12340.0]]},"properties":{"ef_share":0.0,"ef_tj":0.0}},{"type":"Feature","geometry":{"type":"LineString","coordinates":[[-122.7242,40.28055,12340.0],[-122.7063,40.13731,11660.0]]},"properties":{"ef_share":0.0,"ef_tj":0.0}},{"type":"Feature","geometry":{"type":"LineString","coordinates":[[-122.7063,40.13731,11660.0],[-122.68871,39.99594,11000.0]]},"properties":{"ef_share":0.0,"ef_tj":0.0}},{"type":"Feature","geometry":{"type":"LineString","coordinates":[[-122.68871,39.99594,11000.0],[-122.67124,39.8553,10340.0]]},"properties":{"ef_share":0.0,"ef_tj":0.0}},{"type":"Feature","geometry":{"type":"LineString","coordinates":[[-122.67124,39.8553,10340.0],[-122.6539,39.71426,9690.0]]},"properties":{"ef_share":0.0,"ef_tj":0.0}},{"type":"Feature","geometry":{"type":"LineString","coordinates":[[-122.6539,39.71426,9690.0],[-122.63685,39.57542,9040.0]]},"properties":{"ef_share":0.0,"ef_tj":0.0}},{"type":"Feature","geometry":{"type":"LineString","coordinates":[[-122.63685,39.57542,9040.0],[-122.62078,39.44431,8510.0]]},"properties":{"ef_share":0.0,"ef_tj":0.0}},{"type":"Feature","geometry":{"type":"LineString","coordinates":[[-122.62078,39.44431,8510.0],[-122.60631,39.32536,8050.0]]},"properties":{"ef_share":0.0,"ef_tj":0.0}},{"type":"Feature","geometry":{"type":"LineString","coordinates":[[-122.60631,39.32536,8050.0],[-122.5927,39.21335,7610.0]]},"properties":{"ef_share":0.0,"ef_tj":0.0}},{"type":"Feature","geometry":{"type":"LineString","coordinates":[[-122.5927,39.21335,7610.0],[-122.5775,39.10396,7110.0]]},"properties":{"ef_share":0.0,"ef_tj":0.0}},{"type":"Feature","geometry":{"type":"LineString","coordinates":[[-122.5775,39.10396,7110.0],[-122.55781,38.99793,6610.0]]},"properties":{"ef_share":0.0,"ef_tj":0.0}},{"type":"Feature","geometry":{"type":"LineString","coordinates":[[-122.55781,38.99793,6610.0],[-122.53199,38.89514,6130.0]]},"properties":{"ef_share":0.0,"ef_tj":0.0}},{"type":"Feature","geometry":{"type":"LineString","coordinates":[[-122.53199,38.89514,6130.0],[-122.50699,38.79515,5600.0]]},"properties":{"ef_share":0.0,"ef_tj":0.0}},{"type":"Feature","geometry":{"type":"LineString","coordinates":[[-122.50699,38.79515,5600.0],[-122.48277,38.6966,5120.0]]},"properties":{"ef_share":0.0,"ef_tj":0.0}},{"type":"Feature","geometry":{"type":"LineString","coordinates":[[-122.48277,38.6966,5120.0],[-122.46597,38.59794,4660.0]]},"properties":{"ef_share":0.0,"ef_tj":0.0}},{"type":"Feature","geometry":{"type":"LineString","coordinates":[[-122.46597,38.59794,4660.0],[-122.45135,38.5018,4210.0]]},"properties":{"ef_share":0.0,"ef_tj":0.0}},{"type":"Feature","geometry":{"type":"LineString","coordinates":[[-122.45135,38.5018,4210.0],[-122.43698,38.40761,3770.0]]},"properties":{"ef_share":0.0,"ef_tj":0.0}},{"type":"Feature","geometry":{"type":"LineString","coordinates":[[-122.43698,38.40761,3770.0],[-122.42296,38.31488,3350.0]]},"properties":{"ef_share":0.0,"ef_tj":0.0}},{"type":"Feature","geometry":{"type":"LineString","coordinates":[[-122.42296,38.31488,3350.0],[-122.40994,38.22876,3020.0]]},"properties":{"ef_share":0.0,"ef_tj":0.0}},{"type":"Feature","geometry":{"type":"LineString","coordinates":[[-122.40994,38.22876,3020.0],[-122.39725,38.14665,2640.0]]},"properties":{"ef_share":0.0,"ef_tj":0.0}},{"type":"Feature","geometry":{"type":"LineString","coordinates":[[-122.39725,38.14665,2640.0],[-122.38494,38.0663,2260.0]]},"properties":{"ef_share":0.0,"ef_tj":0.0}},{"type":"Feature","geometry":{"type":"LineString","coordinates":[[-122.38494,38.0663,2260.0],[-122.35452,37.99526,2020.0]]},"properties":{"ef_share":0.0,"ef_tj":0.0}},{"type":"Feature","geometry":{"type":"LineString","coordinates":[[-122.35452,37.99526,2020.0],[-122.29627,37.93453,1860.0]]},"properties":{"ef_share":0.0,"ef_tj":0.0}},{"type":"Feature","geometry":{"type":"LineString","coordinates":[[-122.29627,37.93453,1860.0],[-122.23649,37.87188,1690.0]]},"properties":{"ef_share":0.0,"ef_tj":0.0}},{"type":"Feature","geometry":{"type":"LineString","coordinates":[[-122.23649,37.87188,1690.0],[-122.17875,37.81107,1540.0]]},"properties":{"ef_share":0.0,"ef_tj":0.0}},{"type":"Feature","geometry":{"type":"LineString","coordinates":[[-122.17875,37.81107,1540.0],[-122.12821,37.75676,1460.0]]},"properties":{"ef_share":0.0,"ef_tj":0.0}},{"type":"Feature","geometry":{"type":"LineString","coordinates":[[-122.12821,37.75676,1460.0],[-122.09089,37.69976,1130.0]]},"properties":{"ef_share":0.0,"ef_tj":0.0}},{"type":"Feature","geometry":{"type":"LineString","coordinates":[[-122.09089,37.69976,1130.0],[-122.1107,37.65025,830.0]]},"properties":{"ef_share":0.0,"ef_tj":0.0}},{"type":"Feature","geometry":{"type":"LineString","coordinates":[[-122.1107,37.65025,830.0],[-122.1591,37.66454,360.0]]},"properties":{"ef_share":0.0,"ef_tj":0.0}},{"type":"Feature","geometry":{"type":"LineString","coordinates":[[-122.1591,37.66454,360.0],[-122.20168,37.69301,30.0]]},"properties":{"ef_share":0.0,"ef_tj":0.0}}]}